{
"type": "FeatureCollection",
"name": "DataPharma",
"crs": { "type": "name", "properties": { "name": "urn:ogc:def:crs:OGC:1.3:CRS84" } },
"features": [
{ "type": "Feature", "properties": { "addr_stree": "Avenue Sidi Moussa", "amenity": "pharmacy", "name": "Pharmacie al Kasba", "source": "Kaart Ground Survey 2018", "building": "yes", "adresse": "0", "addr:city": "0", "addr:housenumber": "0", "addr:postcode": "0", "drive_through": "0", "name:ar": "0", "addr:city:en": "0", "name:fr": "0", "opening_hours": "0", "addr:city:es": "0", "name:es": "0", "building:levels": "0" }, "geometry": { "type": "Point", "coordinates": [ -6.819859645653483, 34.05640261665075 ] } },
{ "type": "Feature", "properties": { "addr_stree": "Rue Ain Khalouiya ???? ??? ?????", "amenity": "pharmacy", "name": "Pharmacie Ambassador", "source": "Kaart Ground Survey", "building": "commercial", "adresse": "0", "addr:city": "0", "addr:housenumber": "0", "addr:postcode": "0", "drive_through": "0", "name:ar": "0", "addr:city:en": "0", "name:fr": "0", "opening_hours": "0", "addr:city:es": "0", "name:es": "0", "building:levels": "0" }, "geometry": { "type": "Point", "coordinates": [ -6.819606760900279, 33.960075521255767 ] } },
{ "type": "Feature", "properties": { "addr_stree": "Rue Ain Khalouiya ???? ??? ?????", "amenity": "pharmacy", "name": "Pharmacie Yamina", "source": "Kaart Ground Survey", "building": "commercial", "adresse": "0", "addr:city": "0", "addr:housenumber": "0", "addr:postcode": "0", "drive_through": "0", "name:ar": "0", "addr:city:en": "0", "name:fr": "0", "opening_hours": "0", "addr:city:es": "0", "name:es": "0", "building:levels": "0" }, "geometry": { "type": "Point", "coordinates": [ -6.823322378840063, 33.959096105931543 ] } },
{ "type": "Feature", "properties": { "addr_stree": "Avenue Lalla Amina", "amenity": "pharmacy", "name": "Pharmacie Ibtissam", "source": "Kaart Ground Survey 2018", "building": "yes", "adresse": "0", "addr:city": "0", "addr:housenumber": "0", "addr:postcode": "0", "drive_through": "0", "name:ar": "0", "addr:city:en": "0", "name:fr": "0", "opening_hours": "0", "addr:city:es": "0", "name:es": "0", "building:levels": "0" }, "geometry": { "type": "Point", "coordinates": [ -6.81041275, 34.04140805 ] } },
{ "type": "Feature", "properties": { "addr_stree": "Avenue Achouhada", "amenity": "pharmacy", "name": "Pharmacie Achouhadaa", "source": "Kaart Ground Survey 2018", "building": "retail", "adresse": "0", "addr:city": "0", "addr:housenumber": "0", "addr:postcode": "0", "drive_through": "0", "name:ar": "0", "addr:city:en": "0", "name:fr": "0", "opening_hours": "0", "addr:city:es": "0", "name:es": "0", "building:levels": "0" }, "geometry": { "type": "Point", "coordinates": [ -6.792081078970657, 34.038571134828615 ] } },
{ "type": "Feature", "properties": { "addr_stree": "Avenue Omar Bnou Abdelazziz", "amenity": "pharmacy", "name": "Pharmacie Elamana", "source": "Kaart Ground Survey 2018", "building": "yes", "building_l": "2", "adresse": "0", "addr:city": "0", "addr:housenumber": "0", "addr:postcode": "0", "drive_through": "0", "name:ar": "0", "addr:city:en": "0", "name:fr": "0", "opening_hours": "0", "addr:city:es": "0", "name:es": "0", "building:levels": "0" }, "geometry": { "type": "Point", "coordinates": [ -6.781257573080625, 34.042902607112516 ] } },
{ "type": "Feature", "properties": { "addr_stree": "Avenue Bir Kacem", "amenity": "pharmacy", "addr_city": "Rabat ???? ??????", "dispensing": "yes", "healthcare": "pharmacy", "name": "warda-pharmacie", "opening_ho": "08:00-19:30", "building": "yes", "adresse": "0", "addr:city": "0", "addr:housenumber": "0", "addr:postcode": "0", "drive_through": "0", "name:ar": "0", "addr:city:en": "0", "name:fr": "0", "opening_hours": "0", "addr:city:es": "0", "name:es": "0", "building:levels": "0" }, "geometry": { "type": "Point", "coordinates": [ -6.848229875941345, 33.957978630240653 ] } },
{ "type": "Feature", "properties": { "addr_stree": "0", "amenity": "pharmacy", "addr_city": "0", "addr_house": "0", "addr_postc": "0", "drive_thro": "0", "name_ar": "0", "addr_city_": "0", "name_fr": "0", "opening_ho": "0", "addr_cit_1": "0", "name_es": "0", "building_l": "0", "adresse": "Rue Maziata" }, "geometry": { "type": "Point", "coordinates": [ -6.8643092, 33.9695454 ] } },
{ "type": "Feature", "properties": { "addr_stree": "0", "amenity": "pharmacy", "addr_city": "0", "addr_house": "0", "addr_postc": "0", "dispensing": "yes", "healthcare": "pharmacy", "name": "Pharmacie l'Hôpital Militaire صيدلية المستشفى العسكري", "operator": "Ph PHM", "drive_thro": "0", "name_ar": "0", "addr_city_": "0", "name_fr": "0", "opening_ho": "0", "addr_cit_1": "0", "name_es": "0", "building_l": "0", "adresse": "Avenue Al Arz شارع الأرز", "addr:city": "Rabat ⵔⴱⴰⵟ الرباط", "addr:housenumber": "4", "addr:postcode": "10100" }, "geometry": { "type": "Point", "coordinates": [ -6.8701924, 33.9639919 ] } },
{ "type": "Feature", "properties": { "addr_stree": "0", "amenity": "pharmacy", "addr_city": "0", "addr_house": "0", "addr_postc": "0", "dispensing": "yes", "healthcare": "pharmacy", "name": "Pharmacie Misk صيدلية مسك", "operator": "Ph PMK", "drive_thro": "0", "name_ar": "0", "addr_city_": "0", "name_fr": "0", "opening_ho": "0", "addr_cit_1": "0", "name_es": "0", "building_l": "0", "adresse": "Avenue Abderrahim Bouabid شارع عبد الرحيم بوعبيد", "addr:city": "Rabat ⵔⴱⴰⵟ الرباط", "addr:postcode": "10100" }, "geometry": { "type": "Point", "coordinates": [ -6.8729779, 33.9632595 ] } },
{ "type": "Feature", "properties": { "addr_stree": "0", "amenity": "pharmacy", "addr_city": "0", "addr_house": "0", "addr_postc": "0", "dispensing": "yes", "healthcare": "pharmacy", "name": "Pharmacie Ryad صيدلية الرياض", "operator": "Ph PRD", "drive_thro": "0", "name_ar": "0", "addr_city_": "0", "name_fr": "0", "opening_ho": "0", "addr_cit_1": "0", "name_es": "0", "building_l": "0", "adresse": "Avenue Annakhil شارع النخيل", "addr:city": "Rabat", "addr:housenumber": "8", "addr:postcode": "10000" }, "geometry": { "type": "Point", "coordinates": [ -6.87713, 33.9622649 ] } },
{ "type": "Feature", "properties": { "addr_stree": "0", "amenity": "pharmacy", "addr_city": "0", "addr_house": "0", "addr_postc": "0", "dispensing": "yes", "healthcare": "pharmacy", "name": "Pharmacie Ibn Sina صيدلية ابن سينا", "operator": "Ph PBS", "drive_thro": "0", "name_ar": "0", "addr_city_": "0", "name_fr": "0", "opening_ho": "0", "addr_cit_1": "0", "name_es": "0", "building_l": "0", "adresse": "Avenue Fal Ould Oumeir شارع فال ولد عمير", "addr:city": "Rabat ⵔⴱⴰⵟ الرباط", "addr:housenumber": "78", "addr:postcode": "10080", "drive_through": "no", "name:ar": "صيدلية ابن سينا" }, "geometry": { "type": "Point", "coordinates": [ -6.8481761, 33.9962816 ] } },
{ "type": "Feature", "properties": { "addr_stree": "0", "amenity": "pharmacy", "addr_city": "0", "addr_house": "0", "addr_postc": "0", "dispensing": "yes", "healthcare": "pharmacy", "name": "Pharmacie Azhar صيدلية أزهار", "operator": "Ph PAZ", "drive_thro": "0", "name_ar": "0", "addr_city_": "0", "name_fr": "0", "opening_ho": "0", "addr_cit_1": "0", "name_es": "0", "building_l": "0", "adresse": "Avenue Fal Ould Oumeir", "addr:city": "Rabat ⵔⴱⴰⵟ الرباط", "addr:housenumber": "44", "addr:postcode": "10090" }, "geometry": { "type": "Point", "coordinates": [ -6.8495212, 33.9990146 ] } },
{ "type": "Feature", "properties": { "addr_stree": "0", "amenity": "pharmacy", "addr_city": "0", "addr_house": "0", "addr_postc": "0", "dispensing": "yes", "healthcare": "pharmacy", "name": "Pharmacie Moderne الصيدلية العصرية", "operator": "Ph PMR", "drive_thro": "0", "name_ar": "0", "addr_city_": "0", "name_fr": "0", "opening_ho": "0", "addr_cit_1": "0", "name_es": "0", "building_l": "0", "addr:city": "Rabat", "addr:postcode": "10000" }, "geometry": { "type": "Point", "coordinates": [ -6.8468272, 34.0002024 ] } },
{ "type": "Feature", "properties": { "addr_stree": "0", "amenity": "pharmacy", "addr_city": "0", "addr_house": "0", "addr_postc": "0", "dispensing": "yes", "healthcare": "pharmacy", "name": "Pharmacie Marjane Hay Ryad صيدلية مرجان حي الرياض", "operator": "Ph PMR", "drive_thro": "0", "name_ar": "0", "addr_city_": "0", "name_fr": "0", "opening_ho": "0", "addr_cit_1": "0", "name_es": "0", "building_l": "0", "adresse": "Rocade de Rabat الطريق السيار المداري الرباط", "addr:city": "Rabat", "addr:postcode": "10000" }, "geometry": { "type": "Point", "coordinates": [ -6.8525408, 33.9538628 ] } },
{ "type": "Feature", "properties": { "addr_stree": "0", "amenity": "pharmacy", "addr_city": "0", "addr_house": "0", "addr_postc": "0", "dispensing": "yes", "healthcare": "pharmacy", "name": "Pharmacie Benyahya صيدلية بنيحيى", "operator": "Ph PYH", "drive_thro": "0", "name_ar": "0", "addr_city_": "0", "name_fr": "0", "opening_ho": "0", "addr_cit_1": "0", "name_es": "0", "building_l": "0", "adresse": "Avenue Hassan II شارع الحسن الثاني", "addr:city": "Rabat", "addr:postcode": "10000" }, "geometry": { "type": "Point", "coordinates": [ -6.856221, 34.0059473 ] } },
{ "type": "Feature", "properties": { "addr_stree": "0", "amenity": "pharmacy", "addr_city": "0", "addr_house": "0", "addr_postc": "0", "drive_thro": "0", "name_ar": "0", "addr_city_": "0", "name_fr": "0", "opening_ho": "0", "addr_cit_1": "0", "name_es": "0", "building_l": "0" }, "geometry": { "type": "Point", "coordinates": [ -6.866619, 33.963125 ] } },
{ "type": "Feature", "properties": { "addr_stree": "0", "amenity": "pharmacy", "addr_city": "0", "addr_house": "0", "addr_postc": "0", "dispensing": "yes", "healthcare": "pharmacy", "name": "Pharmacie et Laboratoire Zitoune صيدلية و مختبر الزيتون", "operator": "Ph PLZ", "drive_thro": "0", "name_ar": "0", "addr_city_": "0", "name_fr": "0", "opening_ho": "0", "addr_cit_1": "0", "name_es": "0", "building_l": "0", "adresse": "Rue Al Karm زنقة الكرم", "addr:city": "Rabat", "addr:postcode": "10100" }, "geometry": { "type": "Point", "coordinates": [ -6.8636699, 33.962087 ] } },
{ "type": "Feature", "properties": { "addr_stree": "0", "amenity": "pharmacy", "addr_city": "0", "addr_house": "0", "addr_postc": "0", "name": "Pharmacie El Fath", "drive_thro": "0", "name_ar": "0", "addr_city_": "0", "name_fr": "0", "opening_ho": "0", "addr_cit_1": "0", "name_es": "0", "building_l": "0" }, "geometry": { "type": "Point", "coordinates": [ -6.7970992, 34.0480173 ] } },
{ "type": "Feature", "properties": { "addr_stree": "0", "amenity": "pharmacy", "addr_city": "0", "addr_house": "0", "addr_postc": "0", "dispensing": "yes", "healthcare": "pharmacy", "name": "Pharmacie des Écoles صيدلية المدارس", "operator": "Ph PEC", "drive_thro": "0", "name_ar": "0", "addr_city_": "0", "name_fr": "0", "opening_ho": "0", "addr_cit_1": "0", "name_es": "0", "building_l": "0", "adresse": "Rue Al Jaoutann", "addr:city": "Rabat", "addr:postcode": "10100" }, "geometry": { "type": "Point", "coordinates": [ -6.8668657, 33.9651542 ] } },
{ "type": "Feature", "properties": { "addr_stree": "0", "amenity": "pharmacy", "addr_city": "0", "addr_house": "0", "addr_postc": "0", "dispensing": "yes", "healthcare": "pharmacy", "name": "Pharmacie Centre Chèques Postaux صيدلية مركز الشيكات البريدية", "operator": "Ph PCP", "drive_thro": "0", "name_ar": "0", "addr_city_": "0", "name_fr": "0", "opening_ho": "0", "addr_cit_1": "0", "name_es": "0", "building_l": "0", "adresse": "Avenue Moulay Ismail شارع مولاي اسماعيل", "addr:city": "Rabat ⵔⴱⴰⵟ الرباط", "addr:housenumber": "45", "addr:postcode": "10020" }, "geometry": { "type": "Point", "coordinates": [ -6.8267416, 34.0209889 ] } },
{ "type": "Feature", "properties": { "addr_stree": "0", "amenity": "pharmacy", "addr_city": "0", "addr_house": "0", "addr_postc": "0", "dispensing": "yes", "healthcare": "pharmacy", "name": "Pharmacie Chellah صيدلية شالة", "operator": "Ph PCH", "drive_thro": "0", "name_ar": "0", "addr_city_": "0", "name_fr": "0", "opening_ho": "0", "addr_cit_1": "0", "name_es": "0", "building_l": "0", "adresse": "Avenue Chellah شارع شالة", "addr:city": "Rabat", "addr:postcode": "10000", "addr:city:en": "Rabat" }, "geometry": { "type": "Point", "coordinates": [ -6.8312237, 34.0217171 ] } },
{ "type": "Feature", "properties": { "addr_stree": "0", "amenity": "pharmacy", "addr_city": "0", "addr_house": "0", "addr_postc": "0", "dispensing": "yes", "healthcare": "pharmacy", "name": "Pharmacie du Théatre صيدلية المسرح", "operator": "Ph PTR", "drive_thro": "0", "name_ar": "0", "addr_city_": "0", "name_fr": "0", "opening_ho": "0", "addr_cit_1": "0", "name_es": "0", "building_l": "0", "adresse": "Rue Al Marj زنقة المرج", "addr:city": "Rabat", "addr:housenumber": "11", "addr:postcode": "10000" }, "geometry": { "type": "Point", "coordinates": [ -6.8310709, 34.0195429 ] } },
{ "type": "Feature", "properties": { "addr_stree": "0", "amenity": "pharmacy", "addr_city": "0", "addr_house": "0", "addr_postc": "0", "dispensing": "yes", "healthcare": "pharmacy", "name": "Pharmacie de la Tour Hassan صيدلية صومعة حسان", "operator": "Ph PTH", "drive_thro": "0", "name_ar": "0", "addr_city_": "0", "name_fr": "0", "opening_ho": "0", "addr_cit_1": "0", "name_es": "0", "building_l": "0", "adresse": "Place de l'Unité Africaine ساحة الوحدة الإفريقية", "addr:city": "Rabat", "addr:postcode": "10020" }, "geometry": { "type": "Point", "coordinates": [ -6.8290675, 34.0178433 ] } },
{ "type": "Feature", "properties": { "addr_stree": "0", "amenity": "pharmacy", "addr_city": "0", "addr_house": "0", "addr_postc": "0", "dispensing": "no", "name": "mohammed V", "drive_thro": "0", "name_ar": "0", "addr_city_": "0", "int_name": "pharmacie", "name_fr": "0", "opening_ho": "0", "addr_cit_1": "0", "name_es": "0", "building_l": "0", "adresse": "MohammedV" }, "geometry": { "type": "Point", "coordinates": [ -6.7994052, 34.0489348 ] } },
{ "type": "Feature", "properties": { "addr_stree": "0", "amenity": "pharmacy", "addr_city": "0", "addr_house": "0", "addr_postc": "0", "name": "Pharmacie Mamounia", "drive_thro": "0", "name_ar": "0", "addr_city_": "0", "source": "Kaart Ground Survey 2018", "name_fr": "0", "opening_ho": "0", "addr_cit_1": "0", "name_es": "0", "building_l": "0", "adresse": "Avenue Othman BIbn Affane" }, "geometry": { "type": "Point", "coordinates": [ -6.8005667, 34.0503377 ] } },
{ "type": "Feature", "properties": { "addr_stree": "0", "amenity": "pharmacy", "addr_city": "0", "addr_house": "0", "addr_postc": "0", "dispensing": "yes", "healthcare": "pharmacy", "name": "La Grande Pharmacie الصيدلية الكبرى", "operator": "Ph PGP", "drive_thro": "0", "name_ar": "0", "addr_city_": "0", "name_fr": "0", "opening_ho": "0", "addr_cit_1": "0", "name_es": "0", "building_l": "0", "adresse": "Avenue Abou Faris Al Marini شارع أبو فارس المريني", "addr:city": "Rabat", "addr:housenumber": "17", "addr:postcode": "10000" }, "geometry": { "type": "Point", "coordinates": [ -6.8319284, 34.0163793 ] } },
{ "type": "Feature", "properties": { "addr_stree": "0", "amenity": "pharmacy", "addr_city": "0", "addr_house": "0", "addr_postc": "0", "dispensing": "yes", "healthcare": "pharmacy", "name": "Pharmacie Gharbia صيدلية الغربية", "operator": "Ph PGB", "drive_thro": "0", "name_ar": "0", "addr_city_": "0", "name_fr": "0", "opening_ho": "0", "addr_cit_1": "0", "name_es": "0", "building_l": "0", "adresse": "Rue Karachi زنقة كالكوتا", "addr:city": "Rabat", "addr:postcode": "10000" }, "geometry": { "type": "Point", "coordinates": [ -6.8455781, 34.0273181 ] } },
{ "type": "Feature", "properties": { "addr_stree": "0", "amenity": "pharmacy", "addr_city": "0", "addr_house": "0", "addr_postc": "0", "dispensing": "yes", "healthcare": "pharmacy", "name": "Pharmacie Ibn Hajar صيدلية إبن حجر", "operator": "Ph PIH", "drive_thro": "0", "name_ar": "0", "addr_city_": "0", "name_fr": "0", "opening_ho": "0", "addr_cit_1": "0", "name_es": "0", "building_l": "0", "adresse": "Rue Ibn Hajar", "addr:city": "Rabat", "addr:housenumber": "4", "addr:postcode": "10090" }, "geometry": { "type": "Point", "coordinates": [ -6.8511786, 34.0085482 ] } },
{ "type": "Feature", "properties": { "addr_stree": "0", "amenity": "pharmacy", "addr_city": "0", "addr_house": "0", "addr_postc": "0", "dispensing": "yes", "healthcare": "pharmacy", "name": "Pharmacie El Irfane صيدلية العرفان", "operator": "Ph PIF", "drive_thro": "0", "name_ar": "0", "addr_city_": "0", "name_fr": "0", "opening_ho": "0", "addr_cit_1": "0", "name_es": "0", "building_l": "0", "adresse": "شارع علال الفاسي", "addr:city": "Rabat", "addr:postcode": "10112" }, "geometry": { "type": "Point", "coordinates": [ -6.864547, 33.9818509 ] } },
{ "type": "Feature", "properties": { "addr_stree": "0", "amenity": "pharmacy", "addr_city": "0", "addr_house": "0", "addr_postc": "0", "dispensing": "yes", "healthcare": "pharmacy", "name": "Pharmacie des Oudayas صيدلية الأوداية", "operator": "Ph POD", "drive_thro": "0", "name_ar": "0", "addr_city_": "0", "name_fr": "0", "opening_ho": "0", "addr_cit_1": "0", "name_es": "0", "building_l": "0", "adresse": "Avenue Al Marsa شارع المرسى", "addr:city": "Rabat" }, "geometry": { "type": "Point", "coordinates": [ -6.8358024, 34.029522 ] } },
{ "type": "Feature", "properties": { "addr_stree": "0", "amenity": "pharmacy", "addr_city": "0", "addr_house": "0", "addr_postc": "0", "dispensing": "yes", "healthcare": "pharmacy", "name": "Pharmacie Assanaoubar صيدلية الصنوبر", "operator": "Ph PSB", "drive_thro": "0", "name_ar": "0", "addr_city_": "0", "name_fr": "0", "opening_ho": "0", "addr_cit_1": "0", "name_es": "0", "building_l": "0", "adresse": "Avenue Assanaoubar شارع الصنوبر", "addr:city": "Rabat", "addr:housenumber": "6", "addr:postcode": "10000" }, "geometry": { "type": "Point", "coordinates": [ -6.8794404, 33.957923 ] } },
{ "type": "Feature", "properties": { "addr_stree": "0", "amenity": "pharmacy", "addr_city": "0", "addr_house": "0", "addr_postc": "0", "dispensing": "yes", "healthcare": "pharmacy", "name": "Pharmacie Borj صيدلية البرج", "operator": "Ph PBJ", "drive_thro": "0", "name_ar": "0", "addr_city_": "0", "name_fr": "0", "opening_ho": "0", "addr_cit_1": "0", "name_es": "0", "building_l": "0", "adresse": "Avenue Addolb شارع الدلب", "addr:city": "Rabat", "addr:postcode": "10000" }, "geometry": { "type": "Point", "coordinates": [ -6.8736322, 33.9475044 ] } },
{ "type": "Feature", "properties": { "addr_stree": "0", "amenity": "pharmacy", "addr_city": "0", "addr_house": "0", "addr_postc": "0", "dispensing": "yes", "healthcare": "pharmacy", "name": "Pharmacie les Arcades صيدلية أركاد", "operator": "Ph PAD", "drive_thro": "0", "name_ar": "0", "addr_city_": "0", "name_fr": "0", "opening_ho": "0", "addr_cit_1": "0", "name_es": "0", "building_l": "0", "adresse": "Avenue Pasteur شارع باستور", "addr:city": "Rabat", "addr:postcode": "10000" }, "geometry": { "type": "Point", "coordinates": [ -6.8425147, 34.0125082 ] } },
{ "type": "Feature", "properties": { "addr_stree": "0", "amenity": "pharmacy", "addr_city": "0", "addr_house": "0", "addr_postc": "0", "dispensing": "yes", "healthcare": "pharmacy", "name": "Pharmacie de Palma صيدلية بالما", "operator": "Ph PDP", "drive_thro": "0", "name_ar": "0", "addr_city_": "0", "name_fr": "0", "opening_ho": "0", "addr_cit_1": "0", "name_es": "0", "building_l": "0", "adresse": "Avenue Moulay Abdellah", "addr:city": "Témara تمارة", "addr:postcode": "12000" }, "geometry": { "type": "Point", "coordinates": [ -6.9439595, 33.9342673 ] } },
{ "type": "Feature", "properties": { "addr_stree": "0", "amenity": "pharmacy", "addr_city": "0", "addr_house": "0", "addr_postc": "0", "dispensing": "yes", "healthcare": "pharmacy", "name": "Pharmacie de la Capitale صيدلية العاصمة", "operator": "Ph PCP", "drive_thro": "0", "name_ar": "0", "addr_city_": "0", "name_fr": "0", "opening_ho": "0", "addr_cit_1": "0", "name_es": "0", "building_l": "0", "adresse": "Rue Moulay Abdalaziz زنقة مولاي عبد العزيز", "addr:city": "Rabat ⵕⵕⴱⴰⵟ الرباط", "addr:housenumber": "15", "addr:postcode": "10000" }, "geometry": { "type": "Point", "coordinates": [ -6.8313865, 34.0141694 ] } },
{ "type": "Feature", "properties": { "addr_stree": "0", "amenity": "pharmacy", "addr_city": "0", "addr_house": "0", "addr_postc": "0", "dispensing": "yes", "healthcare": "pharmacy", "name": "Pharmacie Rhaouti صيدلية غوتي", "operator": "Ph PRT", "drive_thro": "0", "name_ar": "0", "addr_city_": "0", "name_fr": "0", "opening_ho": "0", "addr_cit_1": "0", "name_es": "0", "building_l": "0", "adresse": "شارع علال الفاسي", "addr:city": "Rabat ⵔⴱⴰⵟ الرباط", "addr:postcode": "10000" }, "geometry": { "type": "Point", "coordinates": [ -6.8699708, 33.976008 ] } },
{ "type": "Feature", "properties": { "addr_stree": "0", "amenity": "pharmacy", "addr_city": "0", "addr_house": "0", "addr_postc": "0", "dispensing": "yes", "healthcare": "pharmacy", "name": "Pharmacie Descartes صيدلية ديكارت", "operator": "Ph PDC", "drive_thro": "0", "name_ar": "0", "addr_city_": "0", "name_fr": "0", "opening_ho": "0", "addr_cit_1": "0", "name_es": "0", "building_l": "0", "adresse": "Avenue des Nations Unies شارع الأمم المتحدة", "addr:city": "Rabat", "addr:housenumber": "64", "addr:postcode": "10080" }, "geometry": { "type": "Point", "coordinates": [ -6.8467235, 33.9914532 ] } },
{ "type": "Feature", "properties": { "addr_stree": "0", "amenity": "pharmacy", "addr_city": "0", "addr_house": "0", "addr_postc": "0", "dispensing": "yes", "healthcare": "pharmacy", "name": "Pharmacie Al Faraj صيدلية الفرج", "operator": "Ph PFJ", "drive_thro": "0", "name_ar": "0", "addr_city_": "0", "name_fr": "0", "opening_ho": "0", "addr_cit_1": "0", "name_es": "0", "building_l": "0", "adresse": "Rue Balafrej زنقة بلافريج", "addr:city": "Rabat", "addr:postcode": "10000" }, "geometry": { "type": "Point", "coordinates": [ -6.8564975, 34.0107326 ] } },
{ "type": "Feature", "properties": { "addr_stree": "0", "amenity": "pharmacy", "addr_city": "0", "addr_house": "0", "addr_postc": "0", "dispensing": "yes", "healthcare": "pharmacy", "name": "Pharmacie Ben Omar صيدلية بن عمر", "operator": "Ph PBO", "drive_thro": "0", "name_ar": "0", "addr_city_": "0", "name_fr": "0", "opening_ho": "0", "addr_cit_1": "0", "name_es": "0", "building_l": "0", "adresse": "Avenue Chellah شارع شالة", "addr:city": "Rabat ⵔⴱⴰⵟ الرباط", "addr:postcode": "10000" }, "geometry": { "type": "Point", "coordinates": [ -6.8271485, 34.0154509 ] } },
{ "type": "Feature", "properties": { "addr_stree": "0", "amenity": "pharmacy", "addr_city": "0", "addr_house": "0", "addr_postc": "0", "dispensing": "yes", "healthcare": "pharmacy", "name": "Pharmacie Guedira صيدلية عبد الحكيم اكديرة", "operator": "Ph PGD", "drive_thro": "0", "name_ar": "0", "addr_city_": "0", "name_fr": "0", "opening_ho": "0", "addr_cit_1": "0", "name_es": "0", "building_l": "0", "adresse": "Avenue Allal Ben Abdellah شارع علال بن عبد الله", "addr:city": "Rabat ⵔⴱⴰⵟ الرباط", "addr:housenumber": "3", "addr:postcode": "10000" }, "geometry": { "type": "Point", "coordinates": [ -6.8363628, 34.0215779 ] } },
{ "type": "Feature", "properties": { "addr_stree": "0", "amenity": "pharmacy", "addr_city": "0", "addr_house": "0", "addr_postc": "0", "dispensing": "yes", "healthcare": "pharmacy", "name": "Pharmacie la Renaissance صيدلية النهضة", "operator": "Ph PRS", "drive_thro": "0", "name_ar": "0", "addr_city_": "0", "name_fr": "0", "opening_ho": "0", "addr_cit_1": "0", "name_es": "0", "building_l": "0", "adresse": "Avenue Mohamed V شارع محمد الخامس", "addr:city": "Rabat", "addr:postcode": "10000" }, "geometry": { "type": "Point", "coordinates": [ -6.8372771, 34.0203254 ] } },
{ "type": "Feature", "properties": { "addr_stree": "0", "amenity": "pharmacy", "addr_city": "0", "addr_house": "0", "addr_postc": "0", "dispensing": "yes", "healthcare": "pharmacy", "name": "Pharmacie Al Alfiya صيدلية الألفية", "operator": "Ph PFY", "drive_thro": "0", "name_ar": "0", "addr_city_": "0", "name_fr": "0", "opening_ho": "0", "addr_cit_1": "0", "name_es": "0", "building_l": "0", "adresse": "Avenue de Michlifen شارع مشليفن", "addr:city": "Rabat ⵔⴱⴰⵟ الرباط", "addr:housenumber": "15", "addr:postcode": "10080" }, "geometry": { "type": "Point", "coordinates": [ -6.8478458, 33.9934267 ] } },
{ "type": "Feature", "properties": { "addr_stree": "0", "amenity": "pharmacy", "addr_city": "0", "addr_house": "0", "addr_postc": "0", "dispensing": "yes", "healthcare": "pharmacy", "name": "Pharmacie Ibn Khattab صيدلية بن خطاب", "operator": "Ph PIK", "drive_thro": "0", "name_ar": "0", "addr_city_": "0", "name_fr": "0", "opening_ho": "0", "addr_cit_1": "0", "name_es": "0", "building_l": "0", "adresse": "Avenue Omar Ibn Khattab شارع عمر بن الخطاب", "addr:city": "Rabat ⵔⴱⴰⵟ الرباط", "addr:housenumber": "32", "addr:postcode": "10080" }, "geometry": { "type": "Point", "coordinates": [ -6.8459085, 34.0023082 ] } },
{ "type": "Feature", "properties": { "addr_stree": "0", "amenity": "pharmacy", "addr_city": "0", "addr_house": "0", "addr_postc": "0", "dispensing": "yes", "healthcare": "pharmacy", "name": "Pharmacie des Facultés صيدلية الكليات", "operator": "Ph PFT", "drive_thro": "0", "name_ar": "0", "addr_city_": "0", "name_fr": "0", "opening_ho": "0", "addr_cit_1": "0", "name_es": "0", "building_l": "0", "adresse": "Avenue Omar Ibn Khattab", "addr:city": "Rabat", "addr:housenumber": "52", "addr:postcode": "10090" }, "geometry": { "type": "Point", "coordinates": [ -6.8445143, 33.9994839 ] } },
{ "type": "Feature", "properties": { "addr_stree": "0", "amenity": "pharmacy", "addr_city": "0", "addr_house": "0", "addr_postc": "0", "dispensing": "yes", "healthcare": "pharmacy", "name": "Pharmacie des Nations Unies صيدلية الأمم المتحدة", "operator": "Ph PNU", "drive_thro": "0", "name_ar": "0", "addr_city_": "0", "name_fr": "0", "opening_ho": "0", "addr_cit_1": "0", "name_es": "0", "building_l": "0", "adresse": "Rue Jabal El Ayachi زنقة جبل العياشي", "addr:city": "Rabat ⵔⴱⴰⵟ الرباط", "addr:postcode": "10000" }, "geometry": { "type": "Point", "coordinates": [ -6.8455991, 33.9957611 ] } },
{ "type": "Feature", "properties": { "addr_stree": "0", "amenity": "pharmacy", "addr_city": "0", "addr_house": "0", "addr_postc": "0", "dispensing": "yes", "healthcare": "pharmacy", "name": "Pharmacie l'Oasis صيدلية الواحة", "operator": "Ph POS", "drive_thro": "0", "name_ar": "0", "addr_city_": "0", "name_fr": "0", "opening_ho": "0", "addr_cit_1": "0", "name_es": "0", "building_l": "0", "adresse": "Avenue Oqba", "addr:city": "Rabat", "addr:housenumber": "8", "addr:postcode": "10000" }, "geometry": { "type": "Point", "coordinates": [ -6.8436866, 34.0101104 ] } },
{ "type": "Feature", "properties": { "addr_stree": "0", "amenity": "pharmacy", "addr_city": "0", "addr_house": "0", "addr_postc": "0", "dispensing": "yes", "healthcare": "pharmacy", "name": "Pharmacie Alam صيدلية علام", "operator": "Ph PAL", "drive_thro": "0", "name_ar": "0", "addr_city_": "0", "name_fr": "0", "opening_ho": "0", "addr_cit_1": "0", "name_es": "0", "building_l": "0", "adresse": "Avenue Oqba", "addr:city": "Rabat", "addr:housenumber": "33", "addr:postcode": "10000" }, "geometry": { "type": "Point", "coordinates": [ -6.8445817, 34.0082884 ] } },
{ "type": "Feature", "properties": { "addr_stree": "0", "amenity": "pharmacy", "addr_city": "0", "addr_house": "0", "addr_postc": "0", "dispensing": "yes", "healthcare": "pharmacy", "name": "Pharmacie Dounia Soleil صيدلية دنيا الشمس", "operator": "Ph PDS", "drive_thro": "0", "name_ar": "0", "addr_city_": "0", "name_fr": "0", "opening_ho": "0", "addr_cit_1": "0", "name_es": "0", "building_l": "0", "adresse": "Rue Casablanca زنقة الدار البيضاء", "addr:city": "Rabat", "addr:housenumber": "16", "addr:postcode": "10000", "addr:city:en": "Rabat" }, "geometry": { "type": "Point", "coordinates": [ -6.829974, 34.0246476 ] } },
{ "type": "Feature", "properties": { "addr_stree": "0", "amenity": "pharmacy", "addr_city": "0", "addr_house": "0", "addr_postc": "0", "dispensing": "yes", "healthcare": "pharmacy", "name": "Pharmacie de la Résistance صيدلية المقاومة", "operator": "Ph PRS", "drive_thro": "0", "name_ar": "0", "addr_city_": "0", "name_fr": "0", "opening_ho": "0", "addr_cit_1": "0", "name_es": "0", "building_l": "0", "adresse": "Avenue Al Mouqaouama شارع المقاومة", "addr:city": "Rabat", "addr:housenumber": "32", "addr:postcode": "10040" }, "geometry": { "type": "Point", "coordinates": [ -6.8462022, 34.0229167 ] } },
{ "type": "Feature", "properties": { "addr_stree": "0", "amenity": "pharmacy", "addr_city": "0", "addr_house": "0", "addr_postc": "0", "dispensing": "yes", "healthcare": "pharmacy", "name": "Pharmacie Safiya صيدلية الصافية", "operator": "Ph PSF", "drive_thro": "0", "name_ar": "0", "addr_city_": "0", "name_fr": "0", "opening_ho": "0", "addr_cit_1": "0", "name_es": "0", "building_l": "0", "adresse": "Avenue Annakhil شارع النخيل", "addr:city": "Rabat", "addr:postcode": "10000" }, "geometry": { "type": "Point", "coordinates": [ -6.8656761, 33.9552146 ] } },
{ "type": "Feature", "properties": { "addr_stree": "0", "amenity": "pharmacy", "addr_city": "0", "addr_house": "0", "addr_postc": "0", "dispensing": "yes", "healthcare": "pharmacy", "name": "Pharmacie Amyris صيدلية أمرس", "operator": "Ph PAM", "drive_thro": "0", "name_ar": "0", "addr_city_": "0", "name_fr": "0", "opening_ho": "0", "addr_cit_1": "0", "name_es": "0", "building_l": "0", "adresse": "Avenue Abderrahim Bouabid شارع عبد الرحيم بوعبيد", "addr:city": "Rabat", "addr:housenumber": "35", "addr:postcode": "10100" }, "geometry": { "type": "Point", "coordinates": [ -6.8689394, 33.966459 ] } },
{ "type": "Feature", "properties": { "addr_stree": "0", "amenity": "pharmacy", "addr_city": "0", "addr_house": "0", "addr_postc": "0", "dispensing": "yes", "healthcare": "pharmacy", "name": "Pharmacie Al Minbat صيدلية المنبت", "operator": "Ph PMB", "drive_thro": "0", "name_ar": "0", "addr_city_": "0", "name_fr": "0", "opening_ho": "0", "addr_cit_1": "0", "name_es": "0", "building_l": "0", "adresse": "Avenue Mehdi Ben Barka", "addr:city": "Rabat", "addr:housenumber": "18", "addr:postcode": "10000" }, "geometry": { "type": "Point", "coordinates": [ -6.8368404, 33.9786059 ] } },
{ "type": "Feature", "properties": { "addr_stree": "0", "amenity": "pharmacy", "addr_city": "0", "addr_house": "0", "addr_postc": "0", "name": "Fleming", "drive_thro": "0", "name_ar": "0", "addr_city_": "0", "name_fr": "0", "opening_ho": "0", "addr_cit_1": "0", "name_es": "0", "building_l": "0", "adresse": "Rue Sahel" }, "geometry": { "type": "Point", "coordinates": [ -6.8289978, 33.947977 ] } },
{ "type": "Feature", "properties": { "addr_stree": "0", "amenity": "pharmacy", "addr_city": "0", "addr_house": "0", "addr_postc": "0", "dispensing": "yes", "healthcare": "pharmacy", "name": "Pharmacie des Zaers صيدلية زعير", "operator": "Ph PZR", "drive_thro": "0", "name_ar": "0", "addr_city_": "0", "name_fr": "0", "opening_ho": "0", "addr_cit_1": "0", "name_es": "0", "building_l": "0", "adresse": "Avenue Mohammed VI شارع محمد السادس", "addr:city": "Rabat ⵔⴱⴰⵟ الرباط", "addr:postcode": "10000" }, "geometry": { "type": "Point", "coordinates": [ -6.8288893, 33.9820186 ] } },
{ "type": "Feature", "properties": { "addr_stree": "0", "amenity": "pharmacy", "addr_city": "0", "addr_house": "0", "addr_postc": "0", "dispensing": "yes", "healthcare": "pharmacy", "name": "Pharmacie Talha صيدلية طلحة", "operator": "Ph PTH", "drive_thro": "0", "name_ar": "0", "addr_city_": "0", "name_fr": "0", "opening_ho": "0", "addr_cit_1": "0", "name_es": "0", "building_l": "0", "adresse": "Rue Bani Meskine زنقة بني مسكين", "addr:city": "Rabat", "addr:postcode": "10000" }, "geometry": { "type": "Point", "coordinates": [ -6.829435, 33.952492 ] } },
{ "type": "Feature", "properties": { "addr_stree": "0", "amenity": "pharmacy", "addr_city": "0", "addr_house": "0", "addr_postc": "0", "dispensing": "yes", "healthcare": "pharmacy", "name": "Pharmacie la Pinède صيدلية الصنوبر", "operator": "Ph PPD", "drive_thro": "0", "name_ar": "0", "addr_city_": "0", "name_fr": "0", "opening_ho": "0", "addr_cit_1": "0", "name_es": "0", "building_l": "0", "adresse": "Avenue Mohammed VI شارع محمد السادس", "addr:city": "Rabat ⵔⴱⴰⵟ الرباط", "addr:housenumber": "155", "addr:postcode": "10000" }, "geometry": { "type": "Point", "coordinates": [ -6.828252, 33.9854203 ] } },
{ "type": "Feature", "properties": { "addr_stree": "0", "amenity": "pharmacy", "addr_city": "0", "addr_house": "0", "addr_postc": "0", "dispensing": "yes", "healthcare": "pharmacy", "name": "Pharmacie des Ministères d'Agdal صيدلية وزارات أكدال", "operator": "Ph PMA", "drive_thro": "0", "name_ar": "0", "addr_city_": "0", "name_fr": "0", "opening_ho": "0", "addr_cit_1": "0", "name_es": "0", "building_l": "0", "adresse": "Rue Mohamed Bel Hassan Al Wazani زنقة محمد بلحسن الوزاني", "addr:city": "Rabat", "addr:postcode": "10000" }, "geometry": { "type": "Point", "coordinates": [ -6.8556405, 33.99536 ] } },
{ "type": "Feature", "properties": { "addr_stree": "0", "amenity": "pharmacy", "addr_city": "0", "addr_house": "0", "addr_postc": "0", "dispensing": "yes", "healthcare": "pharmacy", "name": "Pharmacie Ibn Tofail صيدلية ابن طفيل", "operator": "Ph PIT", "drive_thro": "0", "name_ar": "0", "addr_city_": "0", "name_fr": "0", "opening_ho": "0", "addr_cit_1": "0", "name_es": "0", "building_l": "0", "adresse": "Avenue Assalam شارع السلام", "addr:city": "Rabat", "addr:postcode": "10000" }, "geometry": { "type": "Point", "coordinates": [ -6.8720219, 33.993735 ] } },
{ "type": "Feature", "properties": { "addr_stree": "0", "amenity": "pharmacy", "addr_city": "0", "addr_house": "0", "addr_postc": "0", "dispensing": "yes", "healthcare": "pharmacy", "name": "Pharmacie Essalam صيدلية السلام", "operator": "Ph PSM", "drive_thro": "0", "name_ar": "0", "addr_city_": "0", "name_fr": "0", "opening_ho": "0", "addr_cit_1": "0", "name_es": "0", "building_l": "0", "adresse": "Avenue Assalam شارع السلام", "addr:city": "Rabat", "addr:postcode": "10000" }, "geometry": { "type": "Point", "coordinates": [ -6.8699254, 33.9985411 ] } },
{ "type": "Feature", "properties": { "addr_stree": "0", "amenity": "pharmacy", "addr_city": "0", "addr_house": "0", "addr_postc": "0", "name": "Ya.Sin", "drive_thro": "0", "name_ar": "0", "addr_city_": "0", "name_fr": "0", "opening_ho": "0", "addr_cit_1": "0", "name_es": "0", "building_l": "0" }, "geometry": { "type": "Point", "coordinates": [ -6.8201801, 33.9725938 ] } },
{ "type": "Feature", "properties": { "addr_stree": "0", "amenity": "pharmacy", "addr_city": "0", "addr_house": "0", "addr_postc": "0", "dispensing": "yes", "healthcare": "pharmacy", "name": "Pharmacie C.H.U صيدلية المستشفى الجامعي", "operator": "Ph PCH", "drive_thro": "0", "name_ar": "0", "addr_city_": "0", "name_fr": "0", "opening_ho": "0", "addr_cit_1": "0", "name_es": "0", "building_l": "0", "adresse": "Avenue Ibn Rochd شارع ابن رشد", "addr:city": "Rabat", "addr:housenumber": "16", "addr:postcode": "10000" }, "geometry": { "type": "Point", "coordinates": [ -6.8530394, 33.9877718 ] } },
{ "type": "Feature", "properties": { "addr_stree": "0", "amenity": "pharmacy", "addr_city": "0", "addr_house": "0", "addr_postc": "0", "dispensing": "yes", "healthcare": "pharmacy", "name": "Pharmacie L'Étoile صيدلية النجمة", "operator": "Ph PET", "drive_thro": "0", "name_ar": "0", "addr_city_": "0", "name_fr": "0", "opening_ho": "0", "addr_cit_1": "0", "name_es": "0", "building_l": "0", "adresse": "Rue Amir Abdelkader زنقة الأمير عبد القادر", "addr:city": "Rabat", "addr:housenumber": "4", "addr:postcode": "10000" }, "geometry": { "type": "Point", "coordinates": [ -6.8541423, 33.9900489 ] } },
{ "type": "Feature", "properties": { "addr_stree": "0", "amenity": "pharmacy", "addr_city": "0", "addr_house": "0", "addr_postc": "0", "dispensing": "yes", "healthcare": "pharmacy", "name": "Pharmacie Guyville Harhoura صيدلية غايفيل هرهورة", "operator": "Ph PGH", "drive_thro": "0", "name_ar": "0", "addr_city_": "0", "name_fr": "0", "opening_ho": "0", "addr_cit_1": "0", "name_es": "0", "building_l": "0", "addr:city": "Témara تمارة", "addr:postcode": "12000" }, "geometry": { "type": "Point", "coordinates": [ -6.9417122, 33.9361065 ] } },
{ "type": "Feature", "properties": { "addr_stree": "0", "amenity": "pharmacy", "addr_city": "0", "addr_house": "0", "addr_postc": "0", "dispensing": "yes", "healthcare": "pharmacy", "name": "Pharmacie Oqba صيدلية عقبة", "operator": "Ph POQ", "drive_thro": "0", "name_ar": "0", "addr_city_": "0", "name_fr": "0", "opening_ho": "0", "addr_cit_1": "0", "name_es": "0", "building_l": "0", "adresse": "Avenue Oqba شارع عقبة", "addr:city": "Rabat", "addr:housenumber": "62", "addr:postcode": "10000" }, "geometry": { "type": "Point", "coordinates": [ -6.8496954, 34.0031697 ] } },
{ "type": "Feature", "properties": { "addr_stree": "0", "amenity": "pharmacy", "addr_city": "0", "addr_house": "0", "addr_postc": "0", "name": "Pharmacie des Orangers صيدلية الليمون", "drive_thro": "0", "name_ar": "0", "addr_city_": "0", "name_fr": "0", "opening_ho": "0", "addr_cit_1": "0", "name_es": "0", "building_l": "0", "name:ar": "صيدلية الليمون", "name:fr": "Pharmacie des Orangers" }, "geometry": { "type": "Point", "coordinates": [ -6.7849912, 34.0527906 ] } },
{ "type": "Feature", "properties": { "addr_stree": "0", "amenity": "pharmacy", "addr_city": "0", "addr_house": "0", "addr_postc": "0", "dispensing": "yes", "healthcare": "pharmacy", "name": "Pharmacie et Laboratoire Les Almohades صيدلية و مختبر الموحدين", "drive_thro": "0", "name_ar": "0", "addr_city_": "0", "name_fr": "0", "opening_ho": "0", "addr_cit_1": "0", "name_es": "0", "building_l": "0", "adresse": "Rue Zagora Hassan", "addr:city": "Rabat الرباط", "addr:housenumber": "5", "addr:postcode": "10000" }, "geometry": { "type": "Point", "coordinates": [ -6.8243041, 34.0206772 ] } },
{ "type": "Feature", "properties": { "addr_stree": "0", "amenity": "pharmacy", "addr_city": "0", "addr_house": "0", "addr_postc": "0", "dispensing": "yes", "healthcare": "pharmacy", "name": "Pharmacie l'Officine Moderne صيدلية المستوصف الحديث", "operator": "Ph POM", "drive_thro": "0", "name_ar": "0", "addr_city_": "0", "name_fr": "0", "opening_ho": "0", "addr_cit_1": "0", "name_es": "0", "building_l": "0", "adresse": "Avenue d'Alger شارع الجزائر", "addr:city": "Rabat الرباط", "addr:housenumber": "19", "addr:postcode": "10000" }, "geometry": { "type": "Point", "coordinates": [ -6.8258189, 34.0174608 ] } },
{ "type": "Feature", "properties": { "addr_stree": "0", "amenity": "pharmacy", "addr_city": "0", "addr_house": "0", "addr_postc": "0", "dispensing": "yes", "healthcare": "pharmacy", "name": "Pharmacie les Roches Blanches صيدلية الصخور البيضاء", "operator": "Ph PRB", "drive_thro": "0", "name_ar": "0", "addr_city_": "0", "name_fr": "0", "phone": "+212537744707", "opening_ho": "0", "addr_cit_1": "0", "name_es": "0", "building_l": "0", "addr:city": "Témara تمارة", "addr:postcode": "12000" }, "geometry": { "type": "Point", "coordinates": [ -6.9511003, 33.9305569 ] } },
{ "type": "Feature", "properties": { "addr_stree": "0", "amenity": "pharmacy", "addr_city": "0", "addr_house": "0", "addr_postc": "0", "dispensing": "yes", "healthcare": "pharmacy", "name": "Pharmacie Le Littoral صيدلية الساحل", "operator": "Ph PLT", "drive_thro": "0", "name_ar": "0", "addr_city_": "0", "name_fr": "0", "phone": "+212 537 626425", "opening_ho": "0", "addr_cit_1": "0", "name_es": "0", "building_l": "0", "adresse": "Avenue Abdrrahim Bouabid", "addr:city": "Témara تمارة", "addr:postcode": "12000" }, "geometry": { "type": "Point", "coordinates": [ -6.9465894, 33.9297373 ] } },
{ "type": "Feature", "properties": { "addr_stree": "0", "amenity": "pharmacy", "addr_city": "0", "addr_house": "0", "addr_postc": "0", "dispensing": "yes", "healthcare": "pharmacy", "name": "Pharmacie Essaada صيدلية السعادة", "operator": "Ph PSD", "drive_thro": "0", "name_ar": "0", "addr_city_": "0", "name_fr": "0", "opening_ho": "0", "addr_cit_1": "0", "name_es": "0", "building_l": "0", "adresse": "Avenue Mohamed VI", "addr:city": "Témara تمارة", "addr:postcode": "12000" }, "geometry": { "type": "Point", "coordinates": [ -6.940455, 33.9335925 ] } },
{ "type": "Feature", "properties": { "addr_stree": "0", "amenity": "pharmacy", "addr_city": "0", "addr_house": "0", "addr_postc": "0", "dispensing": "yes", "healthcare": "pharmacy", "name": "Pharmacie Michlifen صيدلية مشليفن", "operator": "Ph PMF", "drive_thro": "0", "name_ar": "0", "addr_city_": "0", "name_fr": "0", "opening_ho": "0", "addr_cit_1": "0", "name_es": "0", "building_l": "0", "adresse": "Avenue de Michlifen شارع مشليفن", "addr:city": "Rabat", "addr:housenumber": "2", "addr:postcode": "10080" }, "geometry": { "type": "Point", "coordinates": [ -6.8505065, 33.9946256 ] } },
{ "type": "Feature", "properties": { "addr_stree": "0", "amenity": "pharmacy", "addr_city": "0", "addr_house": "0", "addr_postc": "0", "dispensing": "yes", "healthcare": "pharmacy", "name": "Pharmacie des Cliniques صيدلية المصحات", "operator": "Ph PCQ", "drive_thro": "0", "name_ar": "0", "addr_city_": "0", "name_fr": "0", "phone": "+212 537 20 33 64", "opening_ho": "0", "addr_cit_1": "0", "name_es": "0", "building_l": "0", "adresse": "Rue Ouazzane زنقة وزان", "addr:city": "Rabat الرباط", "addr:housenumber": "9", "addr:postcode": "10020" }, "geometry": { "type": "Point", "coordinates": [ -6.8213996, 34.0210339 ] } },
{ "type": "Feature", "properties": { "addr_stree": "0", "amenity": "pharmacy", "addr_city": "0", "addr_house": "0", "addr_postc": "0", "dispensing": "yes", "healthcare": "pharmacy", "name": "Pharmacie de la Marne صيدلية مارل", "operator": "Ph PMR", "drive_thro": "0", "name_ar": "0", "addr_city_": "0", "name_fr": "0", "opening_ho": "0", "addr_cit_1": "0", "name_es": "0", "building_l": "0", "adresse": "Avenue Patrice Lumumba شارع باتريس لومومبا", "addr:city": "Rabat ⵔⴱⴰⵟ الرباط", "addr:housenumber": "42", "addr:postcode": "10000" }, "geometry": { "type": "Point", "coordinates": [ -6.8290191, 34.0140629 ] } },
{ "type": "Feature", "properties": { "addr_stree": "0", "amenity": "pharmacy", "addr_city": "0", "addr_house": "0", "addr_postc": "0", "dispensing": "yes", "healthcare": "pharmacy", "name": "Pharmacie Ibn El Haytam صيدلية ابن الهيثم", "operator": "Ph PIH", "drive_thro": "0", "name_ar": "0", "addr_city_": "0", "name_fr": "0", "phone": "+212 537 73 46 03", "opening_ho": "0", "addr_cit_1": "0", "name_es": "0", "building_l": "0", "adresse": "Avenue Al Mouqaouama شارع المقاومة", "addr:city": "Rabat", "addr:housenumber": "119", "addr:postcode": "10000" }, "geometry": { "type": "Point", "coordinates": [ -6.8531909, 34.0170042 ] } },
{ "type": "Feature", "properties": { "addr_stree": "0", "amenity": "pharmacy", "addr_city": "0", "addr_house": "0", "addr_postc": "0", "dispensing": "yes", "healthcare": "pharmacy", "name": "Pharmacie Aya صيدلية اًية", "operator": "Ph PAY", "drive_thro": "0", "name_ar": "0", "addr_city_": "0", "name_fr": "0", "opening_ho": "0", "addr_cit_1": "0", "name_es": "0", "building_l": "0", "adresse": "Avenue El Hachimi El Mestari زنقة الهاشمي المستاري", "addr:city": "Rabat", "addr:postcode": "10000" }, "geometry": { "type": "Point", "coordinates": [ -6.8567883, 34.0166735 ] } },
{ "type": "Feature", "properties": { "addr_stree": "0", "amenity": "pharmacy", "addr_city": "0", "addr_house": "0", "addr_postc": "0", "dispensing": "yes", "healthcare": "pharmacy", "name": "Pharmacie Maghrebine الصيدلية المغاربية", "operator": "Ph PMG", "drive_thro": "0", "name_ar": "0", "addr_city_": "0", "name_fr": "0", "opening_ho": "0", "addr_cit_1": "0", "name_es": "0", "building_l": "0", "adresse": "Place des Alliés ساحة الحلفاء", "addr:city": "Rabat ⵔⴱⴰⵟ الرباط", "addr:postcode": "10000" }, "geometry": { "type": "Point", "coordinates": [ -6.8497586, 34.0221318 ] } },
{ "type": "Feature", "properties": { "addr_stree": "0", "amenity": "pharmacy", "addr_city": "0", "addr_house": "0", "addr_postc": "0", "dispensing": "yes", "healthcare": "pharmacy", "name": "Pharmacie Cherqi صيدلية الشرقي", "operator": "Ph PCQ", "drive_thro": "0", "name_ar": "0", "addr_city_": "0", "name_fr": "0", "opening_ho": "0", "addr_cit_1": "0", "name_es": "0", "building_l": "0", "adresse": "Avenue Laalou شارع لعلو", "addr:city": "Rabat", "addr:postcode": "10000" }, "geometry": { "type": "Point", "coordinates": [ -6.8387859, 34.0286307 ] } },
{ "type": "Feature", "properties": { "addr_stree": "0", "amenity": "pharmacy", "addr_city": "0", "addr_house": "0", "addr_postc": "0", "dispensing": "yes", "healthcare": "pharmacy", "name": "Pharmacie Miramar صيدلية ميرامار", "operator": "Ph PMR", "drive_thro": "0", "name_ar": "0", "addr_city_": "0", "name_fr": "0", "opening_ho": "0", "addr_cit_1": "0", "name_es": "0", "building_l": "0", "addr:city": "Témara تمارة", "addr:postcode": "12000" }, "geometry": { "type": "Point", "coordinates": [ -6.9340169, 33.9436808 ] } },
{ "type": "Feature", "properties": { "addr_stree": "0", "amenity": "pharmacy", "addr_city": "0", "addr_house": "0", "addr_postc": "0", "dispensing": "yes", "healthcare": "pharmacy", "name": "Pharmacie de la Côte صيدلية الشاطئ", "operator": "Ph PCT", "drive_thro": "0", "name_ar": "0", "addr_city_": "0", "name_fr": "0", "opening_ho": "0", "addr_cit_1": "0", "name_es": "0", "building_l": "0", "adresse": "Avenue Al Kifah شارع الكفاح", "addr:city": "Rabat", "addr:postcode": "10000" }, "geometry": { "type": "Point", "coordinates": [ -6.8765319, 33.9906974 ] } },
{ "type": "Feature", "properties": { "addr_stree": "0", "amenity": "pharmacy", "addr_city": "0", "addr_house": "0", "addr_postc": "0", "dispensing": "yes", "healthcare": "pharmacy", "name": "Pharmacie Sayegh صيدلية الصايغ", "operator": "Ph PSG", "drive_thro": "0", "name_ar": "0", "addr_city_": "0", "name_fr": "0", "opening_ho": "0", "addr_cit_1": "0", "name_es": "0", "building_l": "0", "adresse": "Avenue Al Kifah شارع الكفاح", "addr:city": "Rabat", "addr:housenumber": "3", "addr:postcode": "10000" }, "geometry": { "type": "Point", "coordinates": [ -6.882226, 33.9904097 ] } },
{ "type": "Feature", "properties": { "addr_stree": "0", "amenity": "pharmacy", "addr_city": "0", "addr_house": "0", "addr_postc": "0", "dispensing": "yes", "healthcare": "pharmacy", "name": "Pharmacie la Grande Mosquée صيدلية المسجد الكبير", "operator": "Ph PGM", "drive_thro": "0", "name_ar": "0", "addr_city_": "0", "name_fr": "0", "opening_ho": "0", "addr_cit_1": "0", "name_es": "0", "building_l": "0", "addr:city": "Témara تمارة", "addr:postcode": "12000" }, "geometry": { "type": "Point", "coordinates": [ -6.9365945, 33.9414093 ] } },
{ "type": "Feature", "properties": { "addr_stree": "0", "amenity": "pharmacy", "addr_city": "0", "addr_house": "0", "addr_postc": "0", "dispensing": "yes", "healthcare": "pharmacy", "name": "Pharmacie Zahra صيدلية زهرة", "operator": "Ph PZR", "drive_thro": "0", "name_ar": "0", "addr_city_": "0", "name_fr": "0", "opening_ho": "0", "addr_cit_1": "0", "name_es": "0", "building_l": "0", "adresse": "Rue Prince Moulay Abdellah", "addr:city": "Rabat ⵔⴱⴰⵟ الرباط", "addr:housenumber": "12", "addr:postcode": "10000" }, "geometry": { "type": "Point", "coordinates": [ -6.8349863, 34.0174473 ] } },
{ "type": "Feature", "properties": { "addr_stree": "0", "amenity": "pharmacy", "addr_city": "0", "addr_house": "0", "addr_postc": "0", "dispensing": "yes", "healthcare": "pharmacy", "name": "Pharmacie Al Boustane صيدلية البستان", "operator": "Ph PBS", "drive_thro": "0", "name_ar": "0", "addr_city_": "0", "name_fr": "0", "opening_ho": "0", "addr_cit_1": "0", "name_es": "0", "building_l": "0", "adresse": "Avenue Al Mostakbal شارع المستقبل", "addr:city": "Rabat", "addr:housenumber": "69", "addr:postcode": "10000" }, "geometry": { "type": "Point", "coordinates": [ -6.8883849, 33.9803551 ] } },
{ "type": "Feature", "properties": { "addr_stree": "0", "amenity": "pharmacy", "addr_city": "0", "addr_house": "0", "addr_postc": "0", "dispensing": "yes", "healthcare": "pharmacy", "name": "Pharmacie la Vitalité صيدلية الحيوية", "operator": "Ph PVT", "drive_thro": "0", "name_ar": "0", "addr_city_": "0", "name_fr": "0", "opening_ho": "0", "addr_cit_1": "0", "name_es": "0", "building_l": "0", "adresse": "Avenue Atthuya", "addr:city": "Rabat", "addr:postcode": "10000" }, "geometry": { "type": "Point", "coordinates": [ -6.8595193, 33.9569468 ] } },
{ "type": "Feature", "properties": { "addr_stree": "0", "amenity": "pharmacy", "addr_city": "0", "addr_house": "0", "addr_postc": "0", "dispensing": "yes", "healthcare": "pharmacy", "name": "Pharmacie Attannoub صيدلية التنوب", "operator": "Ph PTN", "drive_thro": "0", "name_ar": "0", "addr_city_": "0", "name_fr": "0", "opening_ho": "0", "addr_cit_1": "0", "name_es": "0", "building_l": "0", "addr:city": "Rabat", "addr:postcode": "10000" }, "geometry": { "type": "Point", "coordinates": [ -6.8547399, 33.9568429 ] } },
{ "type": "Feature", "properties": { "addr_stree": "0", "amenity": "pharmacy", "addr_city": "0", "addr_house": "0", "addr_postc": "0", "dispensing": "yes", "healthcare": "pharmacy", "name": "Pharmacie Bab Marrakech صيدلية باب مراكش", "operator": "Ph PBM", "drive_thro": "0", "name_ar": "0", "addr_city_": "0", "name_fr": "0", "opening_ho": "0", "addr_cit_1": "0", "name_es": "0", "building_l": "0", "adresse": "Rue Al Achaari زنقة الأشعري", "addr:city": "Rabat", "addr:postcode": "10000" }, "geometry": { "type": "Point", "coordinates": [ -6.8481517, 34.0074394 ] } },
{ "type": "Feature", "properties": { "addr_stree": "0", "amenity": "pharmacy", "addr_city": "0", "addr_house": "0", "addr_postc": "0", "name": "Pharmacie Hay Arrahma", "drive_thro": "0", "name_ar": "0", "addr_city_": "0", "source": "Kaart Ground Survey 2018", "name_fr": "0", "opening_ho": "0", "addr_cit_1": "0", "name_es": "0", "building_l": "0", "adresse": "Avenue Ali Ben Abi Taleb شارع علي بن أبي طالب" }, "geometry": { "type": "Point", "coordinates": [ -6.7982334, 34.0575178 ] } },
{ "type": "Feature", "properties": { "addr_stree": "0", "amenity": "pharmacy", "addr_city": "0", "addr_house": "0", "addr_postc": "0", "name": "La grande Pharmacie de Salé", "drive_thro": "0", "name_ar": "0", "addr_city_": "0", "name_fr": "0", "phone": "+212 5377-80012", "opening_ho": "0", "addr_cit_1": "0", "name_es": "0", "building_l": "0" }, "geometry": { "type": "Point", "coordinates": [ -6.823897, 34.0356505 ] } },
{ "type": "Feature", "properties": { "addr_stree": "0", "amenity": "pharmacy", "addr_city": "0", "addr_house": "0", "addr_postc": "0", "name": "Pharmacie de l'Union", "drive_thro": "0", "name_ar": "0", "addr_city_": "0", "name_fr": "0", "opening_ho": "0", "addr_cit_1": "0", "name_es": "0", "building_l": "0" }, "geometry": { "type": "Point", "coordinates": [ -6.8239893, 34.0366326 ] } },
{ "type": "Feature", "properties": { "addr_stree": "0", "amenity": "pharmacy", "addr_city": "0", "addr_house": "0", "addr_postc": "0", "name": "Pharmacie Ryad Sale", "drive_thro": "0", "name_ar": "0", "addr_city_": "0", "name_fr": "0", "phone": "+212 5378-79765", "opening_ho": "0", "addr_cit_1": "0", "name_es": "0", "building_l": "0" }, "geometry": { "type": "Point", "coordinates": [ -6.8209248, 34.0357828 ] } },
{ "type": "Feature", "properties": { "addr_stree": "0", "amenity": "pharmacy", "addr_city": "0", "addr_house": "0", "addr_postc": "0", "name": "Pharmacie Fennich", "drive_thro": "0", "name_ar": "0", "addr_city_": "0", "name_fr": "0", "phone": "+212 5378-83932", "opening_ho": "0", "addr_cit_1": "0", "name_es": "0", "building_l": "0" }, "geometry": { "type": "Point", "coordinates": [ -6.8281646, 34.0414184 ] } },
{ "type": "Feature", "properties": { "addr_stree": "0", "amenity": "pharmacy", "addr_city": "0", "addr_house": "0", "addr_postc": "0", "dispensing": "yes", "healthcare": "pharmacy", "name": "Pharmacie Al Wifak صيدلية الوفاق", "operator": "Ph PWF", "drive_thro": "0", "name_ar": "0", "addr_city_": "0", "name_fr": "0", "opening_ho": "0", "addr_cit_1": "0", "name_es": "0", "building_l": "0", "adresse": "Avenue Ibn Sina", "addr:city": "Rabat", "addr:housenumber": "3", "addr:postcode": "10090" }, "geometry": { "type": "Point", "coordinates": [ -6.8512268, 34.0012208 ] } },
{ "type": "Feature", "properties": { "addr_stree": "0", "amenity": "pharmacy", "addr_city": "0", "addr_house": "0", "addr_postc": "0", "dispensing": "yes", "healthcare": "pharmacy", "name": "Pharmacie Laraki صيدلية العراقي", "operator": "Ph PLK", "drive_thro": "0", "name_ar": "0", "addr_city_": "0", "name_fr": "0", "opening_ho": "0", "addr_cit_1": "0", "name_es": "0", "building_l": "0", "adresse": "Boulevard Gaza", "addr:city": "Témara تمارة", "addr:postcode": "12000" }, "geometry": { "type": "Point", "coordinates": [ -6.9309237, 33.9230497 ] } },
{ "type": "Feature", "properties": { "addr_stree": "0", "amenity": "pharmacy", "addr_city": "0", "addr_house": "0", "addr_postc": "0", "dispensing": "yes", "healthcare": "pharmacy", "name": "Pharmacie Al Maghrib Al Arabi صيدلية المغرب العربي", "operator": "Ph PMA", "drive_thro": "0", "name_ar": "0", "addr_city_": "0", "name_fr": "0", "opening_ho": "0", "addr_cit_1": "0", "name_es": "0", "building_l": "0", "adresse": "Avenue Maghreb Arabe شارع المغرب العربي", "addr:city": "Rabat ⵔⴱⴰⵟ الرباط", "addr:housenumber": "25", "addr:postcode": "10060" }, "geometry": { "type": "Point", "coordinates": [ -6.8464862, 34.0195343 ] } },
{ "type": "Feature", "properties": { "addr_stree": "0", "amenity": "pharmacy", "addr_city": "0", "addr_house": "0", "addr_postc": "0", "dispensing": "yes", "healthcare": "pharmacy", "name": "Pharmacie Fellat صيدلية فلات", "operator": "Ph PFL", "drive_thro": "0", "name_ar": "0", "addr_city_": "0", "name_fr": "0", "opening_ho": "0", "addr_cit_1": "0", "name_es": "0", "building_l": "0", "adresse": "Place de Russie ساحة روسيا", "addr:city": "Rabat ⵔⴱⴰⵟ الرباط", "addr:postcode": "10040" }, "geometry": { "type": "Point", "coordinates": [ -6.8499467, 34.0195274 ] } },
{ "type": "Feature", "properties": { "addr_stree": "0", "amenity": "pharmacy", "addr_city": "0", "addr_house": "0", "addr_postc": "0", "dispensing": "yes", "healthcare": "pharmacy", "name": "Pharmacie Choukro Allah صيدلية شكر الله", "operator": "Ph PCL", "drive_thro": "0", "name_ar": "0", "addr_city_": "0", "name_fr": "0", "opening_ho": "0", "addr_cit_1": "0", "name_es": "0", "building_l": "0", "addr:city": "Rabat", "addr:postcode": "10000" }, "geometry": { "type": "Point", "coordinates": [ -6.8732178, 33.9877056 ] } },
{ "type": "Feature", "properties": { "addr_stree": "0", "amenity": "pharmacy", "addr_city": "0", "addr_house": "0", "addr_postc": "0", "dispensing": "yes", "healthcare": "pharmacy", "name": "Pharmacie Al Bouchra صيدلية البشرى", "operator": "Ph PBR", "drive_thro": "0", "name_ar": "0", "addr_city_": "0", "name_fr": "0", "opening_ho": "0", "addr_cit_1": "0", "name_es": "0", "building_l": "0", "adresse": "Avenue El Majd شارع المجد", "addr:city": "Rabat", "addr:postcode": "10000", "drive_through": "no" }, "geometry": { "type": "Point", "coordinates": [ -6.8794588, 33.9791681 ] } },
{ "type": "Feature", "properties": { "addr_stree": "0", "amenity": "pharmacy", "addr_city": "0", "addr_house": "0", "addr_postc": "0", "dispensing": "yes", "healthcare": "pharmacy", "name": "Pharmacie Mazhar صيدلية المزار", "operator": "Ph PMZ", "drive_thro": "0", "name_ar": "0", "addr_city_": "0", "name_fr": "0", "opening_ho": "0", "addr_cit_1": "0", "name_es": "0", "building_l": "0", "adresse": "Avenue El Majd شارع المجد", "addr:city": "Rabat", "addr:housenumber": "127", "addr:postcode": "10000" }, "geometry": { "type": "Point", "coordinates": [ -6.882405, 33.9753505 ] } },
{ "type": "Feature", "properties": { "addr_stree": "0", "amenity": "pharmacy", "addr_city": "0", "addr_house": "0", "addr_postc": "0", "dispensing": "yes", "healthcare": "pharmacy", "name": "Pharmacie Al Andalous صيدلية الأندلس", "operator": "Ph PDS", "drive_thro": "0", "name_ar": "0", "addr_city_": "0", "name_fr": "0", "opening_ho": "0", "addr_cit_1": "0", "name_es": "0", "building_l": "0", "adresse": "Avenue Mohammed VI شارع محمد السادس", "addr:city": "Rabat", "addr:housenumber": "131", "addr:postcode": "10000" }, "geometry": { "type": "Point", "coordinates": [ -6.827869, 33.9884197 ] } },
{ "type": "Feature", "properties": { "addr_stree": "0", "amenity": "pharmacy", "addr_city": "0", "addr_house": "0", "addr_postc": "0", "dispensing": "yes", "healthcare": "pharmacy", "name": "Pharmacie des Universités صيدلية الجامعات", "operator": "Ph PUV", "drive_thro": "0", "name_ar": "0", "addr_city_": "0", "name_fr": "0", "opening_ho": "0", "addr_cit_1": "0", "name_es": "0", "building_l": "0", "adresse": "Avenue Ibn Sina شارع ابن سينا", "addr:city": "Rabat", "addr:housenumber": "79", "addr:postcode": "10000" }, "geometry": { "type": "Point", "coordinates": [ -6.8512583, 33.9882222 ] } },
{ "type": "Feature", "properties": { "addr_stree": "0", "amenity": "pharmacy", "addr_city": "0", "addr_house": "0", "addr_postc": "0", "dispensing": "yes", "healthcare": "pharmacy", "name": "Pharmacie du Mausolée صيدلية الضريح", "operator": "Ph PMS", "drive_thro": "0", "name_ar": "0", "addr_city_": "0", "name_fr": "0", "opening_ho": "0", "addr_cit_1": "0", "name_es": "0", "building_l": "0", "adresse": "Rue Al Mouahidine زنقة الموحدين", "addr:city": "Rabat ⵔⴱⴰⵟ الرباط", "addr:housenumber": "8", "addr:postcode": "10000" }, "geometry": { "type": "Point", "coordinates": [ -6.8253315, 34.0237902 ] } },
{ "type": "Feature", "properties": { "addr_stree": "0", "amenity": "pharmacy", "addr_city": "0", "addr_house": "0", "addr_postc": "0", "dispensing": "yes", "healthcare": "pharmacy", "name": "Pharmacie Ziady صيدلية الزيادي", "operator": "Ph PZD", "drive_thro": "0", "name_ar": "0", "addr_city_": "0", "name_fr": "0", "opening_ho": "0", "addr_cit_1": "0", "name_es": "0", "building_l": "0", "adresse": "Avenue Assalam شارع السلام", "addr:city": "Rabat", "addr:postcode": "10000" }, "geometry": { "type": "Point", "coordinates": [ -6.8710228, 33.9966312 ] } },
{ "type": "Feature", "properties": { "addr_stree": "0", "amenity": "pharmacy", "addr_city": "0", "addr_house": "0", "addr_postc": "0", "dispensing": "yes", "healthcare": "pharmacy", "name": "Pharmacie Jnane Souissi صيدلية جنان السويسي", "operator": "Ph PJS", "drive_thro": "0", "name_ar": "0", "addr_city_": "0", "name_fr": "0", "opening_ho": "0", "addr_cit_1": "0", "name_es": "0", "building_l": "0", "adresse": "Rue Sahel زنقة الساحل", "addr:city": "Rabat", "addr:postcode": "10000" }, "geometry": { "type": "Point", "coordinates": [ -6.8433871, 33.9487807 ] } },
{ "type": "Feature", "properties": { "addr_stree": "0", "amenity": "pharmacy", "addr_city": "0", "addr_house": "0", "addr_postc": "0", "dispensing": "yes", "healthcare": "pharmacy", "name": "Pharmacie Souissi صيدلية السويسي", "operator": "Ph PSO", "drive_thro": "0", "name_ar": "0", "addr_city_": "0", "name_fr": "0", "opening_ho": "0", "addr_cit_1": "0", "name_es": "0", "building_l": "0", "adresse": "rue mediouna", "addr:city": "Rabat ⵔⴱⴰⵟ الرباط", "addr:postcode": "10000" }, "geometry": { "type": "Point", "coordinates": [ -6.8262347, 33.9913058 ] } },
{ "type": "Feature", "properties": { "addr_stree": "0", "amenity": "pharmacy", "addr_city": "0", "addr_house": "0", "addr_postc": "0", "dispensing": "yes", "healthcare": "pharmacy", "name": "Pharmacie El Ismaili صيدلية الإسماعلي", "drive_thro": "0", "name_ar": "0", "addr_city_": "0", "name_fr": "0", "opening_ho": "0", "addr_cit_1": "0", "name_es": "0", "building_l": "0", "name:ar": "صيدلية الإسماعلي", "name:fr": "Pharmacie El Ismaili", "opening_hours": "Mo-Fr 09:30-12:30, 15:30-20:00" }, "geometry": { "type": "Point", "coordinates": [ -6.7980612, 34.0450322 ] } },
{ "type": "Feature", "properties": { "addr_stree": "0", "amenity": "pharmacy", "addr_city": "0", "addr_house": "0", "addr_postc": "0", "name": "Pharmacie Charaf", "drive_thro": "0", "name_ar": "0", "addr_city_": "0", "source": "Kaart Ground Survey 2018", "name_fr": "0", "opening_ho": "0", "addr_cit_1": "0", "name_es": "0", "building_l": "0" }, "geometry": { "type": "Point", "coordinates": [ -6.8099242, 34.0610442 ] } },
{ "type": "Feature", "properties": { "addr_stree": "0", "amenity": "pharmacy", "addr_city": "0", "addr_house": "0", "addr_postc": "0", "name": "Pharmacie Salam Eddine El Ayoubi", "drive_thro": "0", "name_ar": "0", "addr_city_": "0", "source": "Kaart Ground Survey 2018", "name_fr": "0", "opening_ho": "0", "addr_cit_1": "0", "name_es": "0", "building_l": "0", "adresse": "Boulevard Rahal Al Maskini" }, "geometry": { "type": "Point", "coordinates": [ -6.8098055, 34.0558772 ] } },
{ "type": "Feature", "properties": { "addr_stree": "0", "amenity": "pharmacy", "addr_city": "0", "addr_house": "0", "addr_postc": "0", "name": "Pharmacie Al Firdaous", "drive_thro": "0", "name_ar": "0", "addr_city_": "0", "source": "Kaart Ground Survey 2018", "name_fr": "0", "opening_ho": "0", "addr_cit_1": "0", "name_es": "0", "building_l": "0", "adresse": "Avenue D" }, "geometry": { "type": "Point", "coordinates": [ -6.7921217, 34.0690016 ] } },
{ "type": "Feature", "properties": { "addr_stree": "0", "amenity": "pharmacy", "addr_city": "0", "addr_house": "0", "addr_postc": "0", "name": "Pharmacie Al Kawthar", "drive_thro": "0", "name_ar": "0", "addr_city_": "0", "source": "Kaart Ground Survey 2018", "name_fr": "0", "opening_ho": "0", "addr_cit_1": "0", "name_es": "0", "building_l": "0", "adresse": "Avenue Allal Ben Abdellah" }, "geometry": { "type": "Point", "coordinates": [ -6.7943171, 34.0672118 ] } },
{ "type": "Feature", "properties": { "addr_stree": "0", "amenity": "pharmacy", "addr_city": "0", "addr_house": "0", "addr_postc": "0", "dispensing": "yes", "healthcare": "pharmacy", "name": "Pharmacie Ibn Zohr صيدلية ابن زهر", "operator": "Ph PIZ", "drive_thro": "0", "name_ar": "0", "addr_city_": "0", "name_fr": "0", "opening_ho": "0", "addr_cit_1": "0", "name_es": "0", "building_l": "0", "adresse": "Avenue Al Kifah", "addr:city": "Rabat", "addr:postcode": "10000" }, "geometry": { "type": "Point", "coordinates": [ -6.8681016, 33.9915637 ] } },
{ "type": "Feature", "properties": { "addr_stree": "0", "amenity": "pharmacy", "addr_city": "0", "addr_house": "0", "addr_postc": "0", "dispensing": "yes", "healthcare": "pharmacy", "name": "Pharmacie Bouchra Al Oum صيدلية بشرى الأم", "operator": "Ph PBO", "drive_thro": "0", "name_ar": "0", "addr_city_": "0", "name_fr": "0", "opening_ho": "0", "addr_cit_1": "0", "name_es": "0", "building_l": "0", "adresse": "Avenue de Chebanate", "addr:city": "Rabat", "addr:postcode": "10000" }, "geometry": { "type": "Point", "coordinates": [ -6.8885078, 33.9840482 ] } },
{ "type": "Feature", "properties": { "addr_stree": "0", "amenity": "pharmacy", "addr_city": "0", "addr_house": "0", "addr_postc": "0", "dispensing": "yes", "healthcare": "pharmacy", "name": "Pharmacie Amwaj صيدلية أمواج", "operator": "Ph PMW", "drive_thro": "0", "name_ar": "0", "addr_city_": "0", "name_fr": "0", "opening_ho": "0", "addr_cit_1": "0", "name_es": "0", "building_l": "0", "adresse": "Rue Abou Bakr Achchafii", "addr:city": "Rabat", "addr:postcode": "10000" }, "geometry": { "type": "Point", "coordinates": [ -6.8914063, 33.9800111 ] } },
{ "type": "Feature", "properties": { "addr_stree": "0", "amenity": "pharmacy", "addr_city": "0", "addr_house": "0", "addr_postc": "0", "dispensing": "yes", "healthcare": "pharmacy", "name": "Pharmacie Al Kawthar صيدلية الكوثر", "operator": "Ph PKT", "drive_thro": "0", "name_ar": "0", "addr_city_": "0", "name_fr": "0", "opening_ho": "0", "addr_cit_1": "0", "name_es": "0", "building_l": "0", "adresse": "rue Inbihat", "addr:city": "Rabat", "addr:postcode": "10140" }, "geometry": { "type": "Point", "coordinates": [ -6.8786686, 33.981253 ] } },
{ "type": "Feature", "properties": { "addr_stree": "0", "amenity": "pharmacy", "addr_city": "0", "addr_house": "0", "addr_postc": "0", "dispensing": "yes", "healthcare": "pharmacy", "name": "Pharmacie des Résidences صيدلية الإقامات", "operator": "Ph PRS", "drive_thro": "0", "name_ar": "0", "addr_city_": "0", "name_fr": "0", "opening_ho": "0", "addr_cit_1": "0", "name_es": "0", "building_l": "0", "adresse": "Rue Al Kanari", "addr:city": "Rabat", "addr:postcode": "10000" }, "geometry": { "type": "Point", "coordinates": [ -6.8964465, 33.9761488 ] } },
{ "type": "Feature", "properties": { "addr_stree": "0", "amenity": "pharmacy", "addr_city": "0", "addr_house": "0", "addr_postc": "0", "dispensing": "yes", "healthcare": "pharmacy", "name": "Pharmacie Idéale صيدلية إديال", "operator": "Ph PDL", "drive_thro": "0", "name_ar": "0", "addr_city_": "0", "name_fr": "0", "opening_ho": "0", "addr_cit_1": "0", "name_es": "0", "building_l": "0", "adresse": "Avenue El Menzeh", "addr:city": "Rabat", "addr:postcode": "10000" }, "geometry": { "type": "Point", "coordinates": [ -6.8925723, 33.9752975 ] } },
{ "type": "Feature", "properties": { "addr_stree": "0", "amenity": "pharmacy", "addr_city": "0", "addr_house": "0", "addr_postc": "0", "dispensing": "yes", "healthcare": "pharmacy", "name": "Pharmacie Attaissir صيدلية التيسير", "operator": "Ph PAT", "drive_thro": "0", "name_ar": "0", "addr_city_": "0", "name_fr": "0", "opening_ho": "0", "addr_cit_1": "0", "name_es": "0", "building_l": "0", "addr:city": "Rabat", "addr:postcode": "10153" }, "geometry": { "type": "Point", "coordinates": [ -6.8914703, 33.9781106 ] } },
{ "type": "Feature", "properties": { "addr_stree": "0", "amenity": "pharmacy", "addr_city": "0", "addr_house": "0", "addr_postc": "0", "dispensing": "yes", "healthcare": "pharmacy", "name": "Pharmacie Sofia صيدلية صوفيا", "operator": "Ph PSF", "drive_thro": "0", "name_ar": "0", "addr_city_": "0", "name_fr": "0", "opening_ho": "0", "addr_cit_1": "0", "name_es": "0", "building_l": "0", "adresse": "Avenue El Massira", "addr:city": "Rabat", "addr:postcode": "10000" }, "geometry": { "type": "Point", "coordinates": [ -6.894417, 33.9709498 ] } },
{ "type": "Feature", "properties": { "addr_stree": "0", "amenity": "pharmacy", "addr_city": "0", "addr_house": "0", "addr_postc": "0", "dispensing": "yes", "healthcare": "pharmacy", "name": "Pharmacie El Menzeh صيدلية المنزه", "operator": "Ph PMZ", "drive_thro": "0", "name_ar": "0", "addr_city_": "0", "source": "Kaart Ground Survey 2018", "name_fr": "0", "opening_ho": "0", "addr_cit_1": "0", "name_es": "0", "building_l": "0", "adresse": "Avenue El Massira", "addr:city": "Rabat", "addr:postcode": "10153" }, "geometry": { "type": "Point", "coordinates": [ -6.8892613, 33.9754894 ] } },
{ "type": "Feature", "properties": { "addr_stree": "0", "amenity": "pharmacy", "addr_city": "0", "addr_house": "0", "addr_postc": "0", "dispensing": "yes", "healthcare": "pharmacy", "name": "Pharmacie Al Amane صيدلية الأمان", "operator": "Ph PAM", "drive_thro": "0", "name_ar": "0", "addr_city_": "0", "name_fr": "0", "opening_ho": "0", "addr_cit_1": "0", "name_es": "0", "building_l": "0", "adresse": "Rue Ibn Al Abbar", "addr:city": "Rabat", "addr:postcode": "10000" }, "geometry": { "type": "Point", "coordinates": [ -6.8874319, 33.9732709 ] } },
{ "type": "Feature", "properties": { "addr_stree": "0", "amenity": "pharmacy", "addr_city": "0", "addr_house": "0", "addr_postc": "0", "dispensing": "yes", "healthcare": "pharmacy", "name": "Pharmacie Marassa صيدلية المرسى", "operator": "Ph PMR", "drive_thro": "0", "name_ar": "0", "addr_city_": "0", "name_fr": "0", "opening_ho": "0", "addr_cit_1": "0", "name_es": "0", "building_l": "0", "adresse": "Boulevard d'Egypte", "addr:city": "Rabat", "addr:postcode": "10000" }, "geometry": { "type": "Point", "coordinates": [ -6.8416741, 34.0251367 ] } },
{ "type": "Feature", "properties": { "addr_stree": "0", "amenity": "pharmacy", "addr_city": "0", "addr_house": "0", "addr_postc": "0", "dispensing": "yes", "healthcare": "pharmacy", "name": "Pharmacie Al Amana صيدلية الأمانة", "operator": "Ph PAM", "drive_thro": "0", "name_ar": "0", "addr_city_": "0", "name_fr": "0", "opening_ho": "0", "addr_cit_1": "0", "name_es": "0", "building_l": "0", "adresse": "Avenue Hassan II", "addr:city": "Rabat", "addr:postcode": "10000" }, "geometry": { "type": "Point", "coordinates": [ -6.8488091, 34.0127439 ] } },
{ "type": "Feature", "properties": { "addr_stree": "0", "amenity": "pharmacy", "addr_city": "0", "addr_house": "0", "addr_postc": "0", "dispensing": "yes", "healthcare": "pharmacy", "name": "Pharmacie Diour Jamaâ صيدلية ديور الجامع", "operator": "Ph PDJ", "drive_thro": "0", "name_ar": "0", "addr_city_": "0", "name_fr": "0", "opening_ho": "0", "addr_cit_1": "0", "name_es": "0", "building_l": "0", "addr:city": "Rabat", "addr:postcode": "10000" }, "geometry": { "type": "Point", "coordinates": [ -6.8465681, 34.0166694 ] } },
{ "type": "Feature", "properties": { "addr_stree": "0", "amenity": "pharmacy", "addr_city": "0", "addr_house": "0", "addr_postc": "0", "dispensing": "yes", "healthcare": "pharmacy", "name": "Pharmacie Belmahi صيدلية بن الماحي", "operator": "Ph PBM", "drive_thro": "0", "name_ar": "0", "addr_city_": "0", "name_fr": "0", "opening_ho": "0", "addr_cit_1": "0", "name_es": "0", "building_l": "0", "adresse": "Avenue Tonkin شارع طونكان", "addr:city": "Rabat", "addr:postcode": "10003" }, "geometry": { "type": "Point", "coordinates": [ -6.8497592, 34.0162248 ] } },
{ "type": "Feature", "properties": { "addr_stree": "0", "amenity": "pharmacy", "addr_city": "0", "addr_house": "0", "addr_postc": "0", "dispensing": "yes", "healthcare": "pharmacy", "name": "Pharmacie du Minaret صيدلية المنارة", "operator": "Ph PMR", "drive_thro": "0", "name_ar": "0", "addr_city_": "0", "name_fr": "0", "opening_ho": "0", "addr_cit_1": "0", "name_es": "0", "building_l": "0", "adresse": "Avenue Hassan II", "addr:city": "Rabat", "addr:postcode": "10000" }, "geometry": { "type": "Point", "coordinates": [ -6.8479964, 34.0140201 ] } },
{ "type": "Feature", "properties": { "addr_stree": "0", "amenity": "pharmacy", "addr_city": "0", "addr_house": "0", "addr_postc": "0", "dispensing": "yes", "healthcare": "pharmacy", "name": "Pharmacie El Amine صيدلية الأمين", "operator": "Ph PAM", "drive_thro": "0", "name_ar": "0", "addr_city_": "0", "name_fr": "0", "opening_ho": "0", "addr_cit_1": "0", "name_es": "0", "building_l": "0", "adresse": "Avenue Hassan II", "addr:city": "Rabat", "addr:postcode": "10000" }, "geometry": { "type": "Point", "coordinates": [ -6.8447823, 34.0173385 ] } },
{ "type": "Feature", "properties": { "addr_stree": "0", "amenity": "pharmacy", "addr_city": "0", "addr_house": "0", "addr_postc": "0", "dispensing": "yes", "healthcare": "pharmacy", "name": "Pharmacie la Corniche صيدلية الكورنيش", "operator": "Ph PCN", "drive_thro": "0", "name_ar": "0", "addr_city_": "0", "name_fr": "0", "opening_ho": "0", "addr_cit_1": "0", "name_es": "0", "building_l": "0", "adresse": "Rue Addis-Abeba زنقة أديس أبابا", "addr:city": "Rabat", "addr:housenumber": "1", "addr:postcode": "10000" }, "geometry": { "type": "Point", "coordinates": [ -6.8485412, 34.0258963 ] } },
{ "type": "Feature", "properties": { "addr_stree": "0", "amenity": "pharmacy", "addr_city": "0", "addr_house": "0", "addr_postc": "0", "dispensing": "yes", "healthcare": "pharmacy", "name": "Pharmacie de l'Océan صيدلية المحيط", "operator": "Ph POC", "drive_thro": "0", "name_ar": "0", "addr_city_": "0", "name_fr": "0", "opening_ho": "0", "addr_cit_1": "0", "name_es": "0", "building_l": "0", "adresse": "Avenue Abdelkrim Al Khattabi شارع عبد الكريم الخطابي", "addr:city": "Rabat", "addr:housenumber": "54", "addr:postcode": "10000" }, "geometry": { "type": "Point", "coordinates": [ -6.8464955, 34.0251959 ] } },
{ "type": "Feature", "properties": { "addr_stree": "0", "amenity": "pharmacy", "addr_city": "0", "addr_house": "0", "addr_postc": "0", "name": "Parapharmacie", "drive_thro": "0", "name_ar": "0", "addr_city_": "0", "source": "Kaart Ground Survey 2018", "name_fr": "0", "opening_ho": "0", "addr_cit_1": "0", "name_es": "0", "building_l": "0", "adresse": "Avenue D" }, "geometry": { "type": "Point", "coordinates": [ -6.7839141, 34.0629524 ] } },
{ "type": "Feature", "properties": { "addr_stree": "0", "amenity": "pharmacy", "addr_city": "0", "addr_house": "0", "addr_postc": "0", "name": "Pharmacie Al Ikhlas", "drive_thro": "0", "name_ar": "0", "addr_city_": "0", "source": "Kaart Ground Survey 2018", "name_fr": "0", "opening_ho": "0", "addr_cit_1": "0", "name_es": "0", "building_l": "0", "adresse": "5" }, "geometry": { "type": "Point", "coordinates": [ -6.7847959, 34.0594188 ] } },
{ "type": "Feature", "properties": { "addr_stree": "0", "amenity": "pharmacy", "addr_city": "0", "addr_house": "0", "addr_postc": "0", "dispensing": "yes", "healthcare": "pharmacy", "name": "Pharmacie Assounah صيدلية السنة", "operator": "Ph PSN", "drive_thro": "0", "name_ar": "0", "addr_city_": "0", "name_fr": "0", "opening_ho": "0", "addr_cit_1": "0", "name_es": "0", "building_l": "0", "adresse": "Avenue Mohamed V شارع محمد الخامس", "addr:city": "Rabat ⵔⴱⴰⵟ الرباط", "addr:postcode": "10002" }, "geometry": { "type": "Point", "coordinates": [ -6.8290584, 34.011256 ] } },
{ "type": "Feature", "properties": { "addr_stree": "0", "amenity": "pharmacy", "addr_city": "0", "addr_house": "0", "addr_postc": "0", "dispensing": "yes", "healthcare": "pharmacy", "name": "Pharmacie Rania صيدلية رانيا", "operator": "Ph PRN", "drive_thro": "0", "name_ar": "0", "addr_city_": "0", "name_fr": "0", "opening_ho": "0", "addr_cit_1": "0", "name_es": "0", "building_l": "0", "adresse": "Rue Temar", "addr:city": "Rabat", "addr:postcode": "10000" }, "geometry": { "type": "Point", "coordinates": [ -6.873729, 33.9522471 ] } },
{ "type": "Feature", "properties": { "addr_stree": "0", "amenity": "pharmacy", "addr_city": "0", "addr_house": "0", "addr_postc": "0", "dispensing": "yes", "healthcare": "pharmacy", "name": "Pharmacie les Colonnes صيدلية ليكولون", "operator": "Ph PCN", "drive_thro": "0", "name_ar": "0", "addr_city_": "0", "name_fr": "0", "opening_ho": "0", "addr_cit_1": "0", "name_es": "0", "building_l": "0", "adresse": "Avenue Mohamed El Fassi شارع محمد الفاسي", "addr:city": "Rabat ⵔⴱⴰⵟ الرباط", "addr:housenumber": "15", "addr:postcode": "10010" }, "geometry": { "type": "Point", "coordinates": [ -6.822307, 34.0132496 ] } },
{ "type": "Feature", "properties": { "addr_stree": "0", "amenity": "pharmacy", "addr_city": "0", "addr_house": "0", "addr_postc": "0", "dispensing": "yes", "healthcare": "pharmacy", "name": "Pharmacie Riad Al Otor صيدلية رياض الأطر", "operator": "Ph PRO", "drive_thro": "0", "name_ar": "0", "addr_city_": "0", "name_fr": "0", "opening_ho": "0", "addr_cit_1": "0", "name_es": "0", "building_l": "0", "adresse": "Rue Addouma", "addr:city": "Rabat", "addr:postcode": "10000" }, "geometry": { "type": "Point", "coordinates": [ -6.8570328, 33.9512032 ] } },
{ "type": "Feature", "properties": { "addr_stree": "0", "amenity": "pharmacy", "addr_city": "0", "addr_house": "0", "addr_postc": "0", "dispensing": "yes", "healthcare": "pharmacy", "name": "Pharmacie Moulay Youssef صيدلية مولاي يوسف", "operator": "Ph PMY", "drive_thro": "0", "name_ar": "0", "addr_city_": "0", "name_fr": "0", "opening_ho": "0", "addr_cit_1": "0", "name_es": "0", "building_l": "0", "adresse": "Avenue Sidi Mohammed Ben Abdellah", "addr:city": "Rabat", "addr:housenumber": "184", "addr:postcode": "10000" }, "geometry": { "type": "Point", "coordinates": [ -6.8631591, 34.0066587 ] } },
{ "type": "Feature", "properties": { "addr_stree": "0", "amenity": "pharmacy", "addr_city": "0", "addr_house": "0", "addr_postc": "0", "name": "Pharmacie Ziniber", "drive_thro": "0", "name_ar": "0", "addr_city_": "0", "source": "Kaart Ground Survey 2018", "name_fr": "0", "opening_ho": "0", "addr_cit_1": "0", "name_es": "0", "building_l": "0" }, "geometry": { "type": "Point", "coordinates": [ -6.8126875, 34.0409161 ] } },
{ "type": "Feature", "properties": { "addr_stree": "0", "amenity": "pharmacy", "addr_city": "0", "addr_house": "0", "addr_postc": "0", "dispensing": "yes", "healthcare": "pharmacy", "name": "Pharmacie Du Croissant صيدلية الهلال", "operator": "Ph PCR", "drive_thro": "0", "name_ar": "0", "addr_city_": "0", "name_fr": "0", "opening_ho": "0", "addr_cit_1": "0", "name_es": "0", "building_l": "0", "adresse": "Avenue Sidi Mohammed Ben Abdellah", "addr:city": "Rabat", "addr:housenumber": "65", "addr:postcode": "10052" }, "geometry": { "type": "Point", "coordinates": [ -6.8595631, 34.0105454 ] } },
{ "type": "Feature", "properties": { "addr_stree": "0", "amenity": "pharmacy", "addr_city": "0", "addr_house": "0", "addr_postc": "0", "dispensing": "yes", "healthcare": "pharmacy", "name": "Pharmacie les Iris صيدلية السوسن", "operator": "Ph PRS", "drive_thro": "0", "name_ar": "0", "addr_city_": "0", "name_fr": "0", "opening_ho": "0", "addr_cit_1": "0", "name_es": "0", "building_l": "0", "adresse": "Avenue Ibn Sina", "addr:city": "Rabat ⵔⴱⴰⵟ الرباط", "addr:housenumber": "33", "addr:postcode": "10090" }, "geometry": { "type": "Point", "coordinates": [ -6.8509453, 33.9973901 ] } },
{ "type": "Feature", "properties": { "addr_stree": "0", "amenity": "pharmacy", "addr_city": "0", "addr_house": "0", "addr_postc": "0", "dispensing": "yes", "healthcare": "pharmacy", "name": "Pharmacie Badr صيدلية بدر", "operator": "Ph PBR", "drive_thro": "0", "name_ar": "0", "addr_city_": "0", "name_fr": "0", "opening_ho": "0", "addr_cit_1": "0", "name_es": "0", "building_l": "0", "adresse": "Avenue Fal Ould Oumeir", "addr:city": "Rabat", "addr:housenumber": "15", "addr:postcode": "10090" }, "geometry": { "type": "Point", "coordinates": [ -6.8515426, 34.003911 ] } },
{ "type": "Feature", "properties": { "addr_stree": "0", "amenity": "pharmacy", "addr_city": "0", "addr_house": "0", "addr_postc": "0", "name": "Pharmacie Hay Karima", "drive_thro": "0", "name_ar": "0", "addr_city_": "0", "source": "Kaart Ground Survey 2018", "name_fr": "0", "opening_ho": "0", "addr_cit_1": "0", "name_es": "0", "building_l": "0", "adresse": "Avenue Mohammed V" }, "geometry": { "type": "Point", "coordinates": [ -6.7934252, 34.0552061 ] } },
{ "type": "Feature", "properties": { "addr_stree": "0", "amenity": "pharmacy", "addr_city": "0", "addr_house": "0", "addr_postc": "0", "dispensing": "yes", "healthcare": "pharmacy", "name": "Pharmacie de l'Agdal صيدلية أكدال", "operator": "Ph PAG", "drive_thro": "0", "name_ar": "0", "addr_city_": "0", "name_fr": "0", "opening_ho": "0", "addr_cit_1": "0", "name_es": "0", "building_l": "0", "adresse": "Rue Ibn Hanbal", "addr:city": "Rabat ⵔⴱⴰⵟ الرباط", "addr:postcode": "10000" }, "geometry": { "type": "Point", "coordinates": [ -6.848024, 33.9887734 ] } },
{ "type": "Feature", "properties": { "addr_stree": "0", "amenity": "pharmacy", "addr_city": "0", "addr_house": "0", "addr_postc": "0", "name": "Pharmacie Semlali", "drive_thro": "0", "name_ar": "0", "addr_city_": "0", "source": "Kaart Ground Survey 2018", "name_fr": "0", "opening_ho": "0", "addr_cit_1": "0", "name_es": "0", "building_l": "0", "adresse": "Boulevard Bocfeur Abd Karim Khatabi" }, "geometry": { "type": "Point", "coordinates": [ -6.8133232, 34.0607103 ] } },
{ "type": "Feature", "properties": { "addr_stree": "0", "amenity": "pharmacy", "addr_city": "0", "addr_house": "0", "addr_postc": "0", "name": "Ma Petite Pharmacie", "drive_thro": "0", "name_ar": "0", "addr_city_": "0", "source": "Kaart Ground Survey 2018", "name_fr": "0", "opening_ho": "0", "addr_cit_1": "0", "name_es": "0", "building_l": "0", "adresse": "Zankat Bouchoak" }, "geometry": { "type": "Point", "coordinates": [ -6.7917073, 34.0538383 ] } },
{ "type": "Feature", "properties": { "addr_stree": "0", "amenity": "pharmacy", "addr_city": "0", "addr_house": "0", "addr_postc": "0", "name": "Pharmacie Bab Sebta", "drive_thro": "0", "name_ar": "0", "addr_city_": "0", "source": "Kaart Ground Survey 2018", "name_fr": "0", "opening_ho": "0", "addr_cit_1": "0", "name_es": "0", "building_l": "0" }, "geometry": { "type": "Point", "coordinates": [ -6.819845, 34.0428986 ] } },
{ "type": "Feature", "properties": { "addr_stree": "0", "amenity": "pharmacy", "addr_city": "0", "addr_house": "0", "addr_postc": "0", "name": "Pharmacie du Quartier Industriel", "drive_thro": "0", "name_ar": "0", "addr_city_": "0", "source": "Kaart Ground Survey 2018", "name_fr": "0", "opening_ho": "0", "addr_cit_1": "0", "name_es": "0", "building_l": "0", "adresse": "Avenue Omar Ibn Laass" }, "geometry": { "type": "Point", "coordinates": [ -6.7889178, 34.0586393 ] } },
{ "type": "Feature", "properties": { "addr_stree": "0", "amenity": "pharmacy", "addr_city": "0", "addr_house": "0", "addr_postc": "0", "name": "Pharmacie Sidi Moussa", "drive_thro": "0", "name_ar": "0", "addr_city_": "0", "source": "Kaart Ground Survey 2018", "name_fr": "0", "opening_ho": "0", "addr_cit_1": "0", "name_es": "0", "building_l": "0", "adresse": "Avenue Nasser" }, "geometry": { "type": "Point", "coordinates": [ -6.8226855, 34.0502727 ] } },
{ "type": "Feature", "properties": { "addr_stree": "0", "amenity": "pharmacy", "addr_city": "0", "addr_house": "0", "addr_postc": "0", "name": "Pharmacie Lahkim", "drive_thro": "0", "name_ar": "0", "addr_city_": "0", "source": "Kaart Ground Survey 2018", "name_fr": "0", "opening_ho": "0", "addr_cit_1": "0", "name_es": "0", "building_l": "0" }, "geometry": { "type": "Point", "coordinates": [ -6.8239568, 34.0471208 ] } },
{ "type": "Feature", "properties": { "addr_stree": "0", "amenity": "pharmacy", "addr_city": "0", "addr_house": "0", "addr_postc": "0", "name": "Pharmacie al Osra", "drive_thro": "0", "name_ar": "0", "addr_city_": "0", "source": "Kaart Ground Survey 2018", "name_fr": "0", "opening_ho": "0", "addr_cit_1": "0", "name_es": "0", "building_l": "0" }, "geometry": { "type": "Point", "coordinates": [ -6.8208495, 34.0482115 ] } },
{ "type": "Feature", "properties": { "addr_stree": "0", "amenity": "pharmacy", "addr_city": "0", "addr_house": "0", "addr_postc": "0", "name": "Pharmacie Hammi", "drive_thro": "0", "name_ar": "0", "addr_city_": "0", "source": "Kaart Ground Survey", "name_fr": "0", "opening_ho": "0", "addr_cit_1": "0", "name_es": "0", "building_l": "0", "adresse": "Avenue Ibn Al Haytem" }, "geometry": { "type": "Point", "coordinates": [ -6.7822069, 34.051685 ] } },
{ "type": "Feature", "properties": { "addr_stree": "0", "amenity": "pharmacy", "addr_city": "0", "addr_house": "0", "addr_postc": "0", "name": "Cooper Pharma", "drive_thro": "0", "name_ar": "0", "addr_city_": "0", "source": "Kaart Ground Survey 2018", "name_fr": "0", "opening_ho": "0", "addr_cit_1": "0", "name_es": "0", "building_l": "0", "adresse": "Boulevard Oujada" }, "geometry": { "type": "Point", "coordinates": [ -6.8157861, 34.0530005 ] } },
{ "type": "Feature", "properties": { "addr_stree": "0", "amenity": "pharmacy", "addr_city": "0", "addr_house": "0", "addr_postc": "0", "name": "Pharmacie Az-zahra", "drive_thro": "0", "name_ar": "0", "addr_city_": "0", "source": "Kaart Ground Survey", "name_fr": "0", "opening_ho": "0", "addr_cit_1": "0", "name_es": "0", "building_l": "0", "adresse": "Rue Oued Roumane" }, "geometry": { "type": "Point", "coordinates": [ -6.7787817, 34.0518705 ] } },
{ "type": "Feature", "properties": { "addr_stree": "0", "amenity": "pharmacy", "addr_city": "0", "addr_house": "0", "addr_postc": "0", "name": "Pharmacie Annour", "drive_thro": "0", "name_ar": "0", "addr_city_": "0", "source": "Kaart Ground Survey", "name_fr": "0", "opening_ho": "0", "addr_cit_1": "0", "name_es": "0", "building_l": "0", "adresse": "Avenue Ibn Al Haytem" }, "geometry": { "type": "Point", "coordinates": [ -6.7774004, 34.0569994 ] } },
{ "type": "Feature", "properties": { "addr_stree": "0", "amenity": "pharmacy", "addr_city": "0", "addr_house": "0", "addr_postc": "0", "name": "Pharmacie Nour Salé", "drive_thro": "0", "name_ar": "0", "addr_city_": "0", "source": "Kaart Ground Survey 2018", "name_fr": "0", "opening_ho": "0", "addr_cit_1": "0", "name_es": "0", "building_l": "0", "adresse": "Boulevard Oujada" }, "geometry": { "type": "Point", "coordinates": [ -6.8157737, 34.0530067 ] } },
{ "type": "Feature", "properties": { "addr_stree": "0", "amenity": "pharmacy", "addr_city": "0", "addr_house": "0", "addr_postc": "0", "name": "Parapharmacie Raputons", "drive_thro": "0", "name_ar": "0", "addr_city_": "0", "source": "Kaart Ground Survey 2018", "name_fr": "0", "opening_ho": "0", "addr_cit_1": "0", "name_es": "0", "building_l": "0", "adresse": "Boulevard Rahal Al Maskini" }, "geometry": { "type": "Point", "coordinates": [ -6.8031389, 34.0637245 ] } },
{ "type": "Feature", "properties": { "addr_stree": "0", "amenity": "pharmacy", "addr_city": "0", "addr_house": "0", "addr_postc": "0", "name": "Pharmacie Moulay Idriss", "drive_thro": "0", "name_ar": "0", "addr_city_": "0", "source": "Kaart Ground Survey 2018", "name_fr": "0", "opening_ho": "0", "addr_cit_1": "0", "name_es": "0", "building_l": "0", "adresse": "Rue Abed Allah Bnou Abbass" }, "geometry": { "type": "Point", "coordinates": [ -6.8066458, 34.0645711 ] } },
{ "type": "Feature", "properties": { "addr_stree": "0", "amenity": "pharmacy", "addr_city": "0", "addr_house": "0", "addr_postc": "0", "name": "Pharmacie Al Fazira", "drive_thro": "0", "name_ar": "0", "addr_city_": "0", "source": "Kaart Ground Survey 2018", "name_fr": "0", "opening_ho": "0", "addr_cit_1": "0", "name_es": "0", "building_l": "0", "adresse": "Boulevard Rahal Al Maskini" }, "geometry": { "type": "Point", "coordinates": [ -6.8001549, 34.0677573 ] } },
{ "type": "Feature", "properties": { "addr_stree": "0", "amenity": "pharmacy", "addr_city": "0", "addr_house": "0", "addr_postc": "0", "name": "Pharmacie L'Opera", "drive_thro": "0", "name_ar": "0", "addr_city_": "0", "source": "Kaart Ground Survey 2018", "name_fr": "0", "opening_ho": "0", "addr_cit_1": "0", "name_es": "0", "building_l": "0" }, "geometry": { "type": "Point", "coordinates": [ -6.8098189, 34.0458079 ] } },
{ "type": "Feature", "properties": { "addr_stree": "0", "amenity": "pharmacy", "addr_city": "0", "addr_house": "0", "addr_postc": "0", "name": "Pharmacie Rizk", "drive_thro": "0", "name_ar": "0", "addr_city_": "0", "source": "Kaart Ground Survey 2018", "name_fr": "0", "opening_ho": "0", "addr_cit_1": "0", "name_es": "0", "building_l": "0", "adresse": "Avenue 6 Novembre" }, "geometry": { "type": "Point", "coordinates": [ -6.8079038, 34.0479125 ] } },
{ "type": "Feature", "properties": { "addr_stree": "0", "amenity": "pharmacy", "addr_city": "0", "addr_house": "0", "addr_postc": "0", "dispensing": "yes", "healthcare": "pharmacy", "name": "Pharmacie Dar Essalam صيدلية دار السلام", "operator": "Ph PDS", "drive_thro": "0", "name_ar": "0", "addr_city_": "0", "name_fr": "0", "opening_ho": "0", "addr_cit_1": "0", "name_es": "0", "building_l": "0", "adresse": "Rue Bani Jaber", "addr:city": "Rabat", "addr:postcode": "10000" }, "geometry": { "type": "Point", "coordinates": [ -6.8171898, 33.9792107 ] } },
{ "type": "Feature", "properties": { "addr_stree": "0", "amenity": "pharmacy", "addr_city": "0", "addr_house": "0", "addr_postc": "0", "name": "Dar Dmana", "drive_thro": "0", "name_ar": "0", "addr_city_": "0", "source": "Kaart Ground Survey 2018", "name_fr": "0", "opening_ho": "0", "addr_cit_1": "0", "name_es": "0", "building_l": "0", "adresse": "Avenue Al Massira Al Khadra" }, "geometry": { "type": "Point", "coordinates": [ -6.8008932, 34.0281209 ] } },
{ "type": "Feature", "properties": { "addr_stree": "0", "amenity": "pharmacy", "addr_city": "0", "addr_house": "0", "addr_postc": "0", "dispensing": "yes", "healthcare": "pharmacy", "name": "Pharmacie du Haut Souissi صيدلية السويسي العالي", "operator": "Ph PSH", "drive_thro": "0", "name_ar": "0", "addr_city_": "0", "name_fr": "0", "opening_ho": "0", "addr_cit_1": "0", "name_es": "0", "building_l": "0", "adresse": "Rue Abderahmane B. Abi Baker", "addr:city": "Rabat", "addr:postcode": "10000" }, "geometry": { "type": "Point", "coordinates": [ -6.8141721, 33.9376309 ] } },
{ "type": "Feature", "properties": { "addr_stree": "0", "amenity": "pharmacy", "addr_city": "0", "addr_house": "0", "addr_postc": "0", "dispensing": "yes", "healthcare": "pharmacy", "name": "Pharmacie L'Enfant صيدلية الطفل", "operator": "Ph PEF", "drive_thro": "0", "name_ar": "0", "addr_city_": "0", "name_fr": "0", "opening_ho": "0", "addr_cit_1": "0", "name_es": "0", "building_l": "0", "adresse": "Rue Mghila", "addr:city": "Rabat", "addr:postcode": "10000" }, "geometry": { "type": "Point", "coordinates": [ -6.810289, 33.9813791 ] } },
{ "type": "Feature", "properties": { "addr_stree": "0", "amenity": "pharmacy", "addr_city": "0", "addr_house": "0", "addr_postc": "0", "dispensing": "yes", "healthcare": "pharmacy", "name": "Pharmacie du Golf صيدلية الكولف", "operator": "Ph PGF", "drive_thro": "0", "name_ar": "0", "addr_city_": "0", "name_fr": "0", "opening_ho": "0", "addr_cit_1": "0", "name_es": "0", "building_l": "0", "adresse": "Rue Abd Elkader Rechdi", "addr:city": "Rabat", "addr:postcode": "10000" }, "geometry": { "type": "Point", "coordinates": [ -6.8197973, 33.940854 ] } },
{ "type": "Feature", "properties": { "addr_stree": "0", "amenity": "pharmacy", "addr_city": "0", "addr_house": "0", "addr_postc": "0", "name": "Pharmacie Essania", "drive_thro": "0", "name_ar": "0", "addr_city_": "0", "source": "Kaart Ground Survey 2018", "name_fr": "0", "opening_ho": "0", "addr_cit_1": "0", "name_es": "0", "building_l": "0", "adresse": "Avenue Salah Eddine el Ayoubi" }, "geometry": { "type": "Point", "coordinates": [ -6.8129303, 34.0474325 ] } },
{ "type": "Feature", "properties": { "addr_stree": "0", "amenity": "pharmacy", "addr_city": "0", "addr_house": "0", "addr_postc": "0", "healthcare": "pharmacy", "drive_thro": "0", "name_ar": "0", "addr_city_": "0", "source": "Kaart Ground Survey 2018", "name_fr": "0", "opening_ho": "0", "addr_cit_1": "0", "name_es": "0", "building_l": "0", "adresse": "Boulevard Abedllah Ben Yassine" }, "geometry": { "type": "Point", "coordinates": [ -6.8037088, 34.0406461 ] } },
{ "type": "Feature", "properties": { "addr_stree": "0", "amenity": "pharmacy", "addr_city": "0", "addr_house": "0", "addr_postc": "0", "name": "Pharmacie Et Laboratoire al Hayat", "drive_thro": "0", "name_ar": "0", "addr_city_": "0", "source": "Kaart Ground Survey 2018", "name_fr": "0", "opening_ho": "0", "addr_cit_1": "0", "name_es": "0", "building_l": "0", "adresse": "Avenue du Haut-Atlas" }, "geometry": { "type": "Point", "coordinates": [ -6.7909214, 34.0428108 ] } },
{ "type": "Feature", "properties": { "addr_stree": "0", "amenity": "pharmacy", "addr_city": "0", "addr_house": "0", "addr_postc": "0", "healthcare": "pharmacy", "name": "Pharmacie Inbiat", "drive_thro": "0", "name_ar": "0", "addr_city_": "0", "source": "Kaart Ground Survey 2018", "name_fr": "0", "opening_ho": "0", "addr_cit_1": "0", "name_es": "0", "building_l": "0", "adresse": "Avenue Assalam" }, "geometry": { "type": "Point", "coordinates": [ -6.7908946, 34.0517494 ] } },
{ "type": "Feature", "properties": { "addr_stree": "0", "amenity": "pharmacy", "addr_city": "0", "addr_house": "0", "addr_postc": "0", "name": "Pharmacie Alhan", "drive_thro": "0", "name_ar": "0", "addr_city_": "0", "source": "Kaart Ground Survey 2018", "name_fr": "0", "opening_ho": "0", "addr_cit_1": "0", "name_es": "0", "building_l": "0", "adresse": "Avenue Mohamed V" }, "geometry": { "type": "Point", "coordinates": [ -6.7952733, 34.053215 ] } },
{ "type": "Feature", "properties": { "addr_stree": "0", "amenity": "pharmacy", "addr_city": "0", "addr_house": "0", "addr_postc": "0", "name": "Pharmacie Volubilis", "drive_thro": "0", "name_ar": "0", "addr_city_": "0", "source": "Kaart Ground Survey 2018", "name_fr": "0", "opening_ho": "0", "addr_cit_1": "0", "name_es": "0", "building_l": "0", "adresse": "Avenue 20 Aout" }, "geometry": { "type": "Point", "coordinates": [ -6.7798573, 34.0410484 ] } },
{ "type": "Feature", "properties": { "addr_stree": "0", "amenity": "pharmacy", "addr_city": "0", "addr_house": "0", "addr_postc": "0", "name": "Pharmacie El Ouedgi", "drive_thro": "0", "name_ar": "0", "addr_city_": "0", "source": "Kaart Ground Survey 2018", "name_fr": "0", "opening_ho": "0", "fixme": "check name", "addr_cit_1": "0", "name_es": "0", "building_l": "0", "adresse": "Avenue 20 Aout" }, "geometry": { "type": "Point", "coordinates": [ -6.7788471, 34.0443499 ] } },
{ "type": "Feature", "properties": { "addr_stree": "0", "amenity": "pharmacy", "addr_city": "0", "addr_house": "0", "addr_postc": "0", "name": "Pharmacie Ihram", "drive_thro": "0", "name_ar": "0", "addr_city_": "0", "source": "Kaart Ground Survey 2018", "name_fr": "0", "opening_ho": "0", "addr_cit_1": "0", "name_es": "0", "building_l": "0", "adresse": "Avenue Imam Malik" }, "geometry": { "type": "Point", "coordinates": [ -6.7825127, 34.0445566 ] } },
{ "type": "Feature", "properties": { "addr_stree": "0", "amenity": "pharmacy", "addr_city": "0", "addr_house": "0", "addr_postc": "0", "name": "Pharmacie Safir", "drive_thro": "0", "name_ar": "0", "addr_city_": "0", "source": "Kaart Ground Survey 2018", "name_fr": "0", "opening_ho": "0", "addr_cit_1": "0", "name_es": "0", "building_l": "0", "adresse": "Avenue Imam Malik" }, "geometry": { "type": "Point", "coordinates": [ -6.7843419, 34.0407105 ] } },
{ "type": "Feature", "properties": { "addr_stree": "0", "amenity": "pharmacy", "addr_city": "0", "addr_house": "0", "addr_postc": "0", "name": "Pharmacie Lazrak", "drive_thro": "0", "name_ar": "0", "addr_city_": "0", "source": "Kaart Ground Survey 2018", "name_fr": "0", "opening_ho": "0", "addr_cit_1": "0", "name_es": "0", "building_l": "0" }, "geometry": { "type": "Point", "coordinates": [ -6.7806908, 34.0465707 ] } },
{ "type": "Feature", "properties": { "addr_stree": "0", "amenity": "pharmacy", "addr_city": "0", "addr_house": "0", "addr_postc": "0", "name": "Pharmacie L'Hopital", "drive_thro": "0", "name_ar": "0", "addr_city_": "0", "source": "Kaart Ground Survey", "name_fr": "0", "opening_ho": "0", "addr_cit_1": "0", "name_es": "0", "building_l": "0", "adresse": "Avenue Ali Ben Abi Taleb شارع علي بن أبي طالب" }, "geometry": { "type": "Point", "coordinates": [ -6.7908671, 34.0644811 ] } },
{ "type": "Feature", "properties": { "addr_stree": "0", "amenity": "pharmacy", "addr_city": "0", "addr_house": "0", "addr_postc": "0", "name": "Pharmacie Al Ahbab", "drive_thro": "0", "name_ar": "0", "addr_city_": "0", "source": "Kaart Ground Survey 2018", "name_fr": "0", "opening_ho": "0", "addr_cit_1": "0", "name_es": "0", "building_l": "0", "adresse": "Avenue Oued Eddahab" }, "geometry": { "type": "Point", "coordinates": [ -6.7886858, 34.0691315 ] } },
{ "type": "Feature", "properties": { "addr_stree": "0", "amenity": "pharmacy", "addr_city": "0", "addr_house": "0", "addr_postc": "0", "name": "Pharmacie Zohour", "drive_thro": "0", "name_ar": "0", "addr_city_": "0", "source": "Kaart Ground Survey", "name_fr": "0", "opening_ho": "0", "addr_cit_1": "0", "name_es": "0", "building_l": "0", "adresse": "Avenue Omar Ibn Laass" }, "geometry": { "type": "Point", "coordinates": [ -6.7928351, 34.0614525 ] } },
{ "type": "Feature", "properties": { "addr_stree": "0", "amenity": "pharmacy", "addr_city": "0", "addr_house": "0", "addr_postc": "0", "name": "Pharmacie Super Arrahma", "drive_thro": "0", "name_ar": "0", "addr_city_": "0", "source": "Kaart Ground Survey 2018", "name_fr": "0", "opening_ho": "0", "addr_cit_1": "0", "name_es": "0", "building_l": "0", "adresse": "Avenue Mohamed V" }, "geometry": { "type": "Point", "coordinates": [ -6.7828037, 34.0618886 ] } },
{ "type": "Feature", "properties": { "addr_stree": "0", "amenity": "pharmacy", "addr_city": "0", "addr_house": "0", "addr_postc": "0", "name": "Pharmacie Centre De Santé", "drive_thro": "0", "name_ar": "0", "addr_city_": "0", "source": "Kaart Ground Survey 2018", "name_fr": "0", "opening_ho": "0", "addr_cit_1": "0", "name_es": "0", "building_l": "0", "adresse": "Rue Oued Bouregreg" }, "geometry": { "type": "Point", "coordinates": [ -6.7911668, 34.0667763 ] } },
{ "type": "Feature", "properties": { "addr_stree": "0", "amenity": "pharmacy", "addr_city": "0", "addr_house": "0", "addr_postc": "0", "dispensing": "yes", "healthcare": "pharmacy", "name": "Pharmacie Al Houda صيدلية الهدى", "operator": "Ph PHD", "drive_thro": "0", "name_ar": "0", "addr_city_": "0", "name_fr": "0", "opening_ho": "0", "addr_cit_1": "0", "name_es": "0", "building_l": "0", "adresse": "Avenue El Farah", "addr:city": "Rabat", "addr:postcode": "10000" }, "geometry": { "type": "Point", "coordinates": [ -6.8106586, 33.9896173 ] } },
{ "type": "Feature", "properties": { "addr_stree": "0", "amenity": "pharmacy", "addr_city": "0", "addr_house": "0", "addr_postc": "0", "dispensing": "yes", "healthcare": "pharmacy", "name": "Pharmacie l'Olivier صيدلية الزيتونة", "operator": "Ph POV", "drive_thro": "0", "name_ar": "0", "addr_city_": "0", "name_fr": "0", "opening_ho": "0", "addr_cit_1": "0", "name_es": "0", "building_l": "0", "addr:city": "Témara تمارة", "addr:postcode": "12000" }, "geometry": { "type": "Point", "coordinates": [ -6.8930863, 33.9405327 ] } },
{ "type": "Feature", "properties": { "addr_stree": "0", "amenity": "pharmacy", "addr_city": "0", "addr_house": "0", "addr_postc": "0", "dispensing": "yes", "healthcare": "pharmacy", "name": "Pharmacie Abouab Al Wifaq صيدلية أبواب الوفاق", "operator": "Ph PAW", "drive_thro": "0", "name_ar": "0", "addr_city_": "0", "name_fr": "0", "opening_ho": "0", "addr_cit_1": "0", "name_es": "0", "building_l": "0", "addr:city": "Témara", "addr:postcode": "12000" }, "geometry": { "type": "Point", "coordinates": [ -6.9291602, 33.9267824 ] } },
{ "type": "Feature", "properties": { "addr_stree": "0", "amenity": "pharmacy", "addr_city": "0", "addr_house": "0", "addr_postc": "0", "dispensing": "yes", "healthcare": "pharmacy", "name": "Pharmacie Mecca صيدلية مكة", "operator": "Ph PMC", "drive_thro": "0", "name_ar": "0", "addr_city_": "0", "name_fr": "0", "opening_ho": "0", "addr_cit_1": "0", "name_es": "0", "building_l": "0", "adresse": "Avenue Ailanthus", "addr:city": "Rabat", "addr:postcode": "10000" }, "geometry": { "type": "Point", "coordinates": [ -6.8692589, 33.9443673 ] } },
{ "type": "Feature", "properties": { "addr_stree": "0", "amenity": "pharmacy", "addr_city": "0", "addr_house": "0", "addr_postc": "0", "dispensing": "yes", "healthcare": "pharmacy", "name": "Pharmacie Mesk Ellil صيدلية مسك الليل", "operator": "Ph PML", "drive_thro": "0", "name_ar": "0", "addr_city_": "0", "name_fr": "0", "opening_ho": "0", "addr_cit_1": "0", "name_es": "0", "building_l": "0", "addr:city": "Rabat", "addr:postcode": "10000" }, "geometry": { "type": "Point", "coordinates": [ -6.8607684, 33.9474695 ] } },
{ "type": "Feature", "properties": { "addr_stree": "0", "amenity": "pharmacy", "addr_city": "0", "addr_house": "0", "addr_postc": "0", "dispensing": "yes", "healthcare": "pharmacy", "name": "Pharmacie des Orangers صيدلية الليمون", "operator": "Ph POR", "drive_thro": "0", "name_ar": "0", "addr_city_": "0", "name_fr": "0", "opening_ho": "0", "addr_cit_1": "0", "name_es": "0", "building_l": "0", "adresse": "Avenue Hassan II شارع الحسن الثاني", "addr:city": "Rabat", "addr:housenumber": "189", "addr:postcode": "10040" }, "geometry": { "type": "Point", "coordinates": [ -6.8425075, 34.0198347 ] } },
{ "type": "Feature", "properties": { "addr_stree": "0", "amenity": "pharmacy", "addr_city": "0", "addr_house": "0", "addr_postc": "0", "dispensing": "yes", "healthcare": "pharmacy", "name": "Pharmacie Bon Secours صيدلية العناية", "operator": "Ph PBS", "drive_thro": "0", "name_ar": "0", "addr_city_": "0", "name_fr": "0", "opening_ho": "0", "addr_cit_1": "0", "name_es": "0", "building_l": "0", "adresse": "Rue Tchad زنقة نشاد", "addr:city": "Rabat", "addr:postcode": "10040" }, "geometry": { "type": "Point", "coordinates": [ -6.8433934, 34.0202562 ] } },
{ "type": "Feature", "properties": { "addr_stree": "0", "amenity": "pharmacy", "addr_city": "0", "addr_house": "0", "addr_postc": "0", "dispensing": "yes", "healthcare": "pharmacy", "name": "Pharmacie Cité Royale صيدلية الحي الملكي", "operator": "Ph. CR", "drive_thro": "0", "name_ar": "0", "addr_city_": "0", "name_fr": "0", "opening_ho": "0", "addr_cit_1": "0", "name_es": "0", "building_l": "0", "adresse": "Avenue Atlas شارع الأطلس", "addr:city": "Salé El Jadida", "addr:postcode": "11100", "drive_through": "yes", "name:fr": "Pharmacie Cité Royale" }, "geometry": { "type": "Point", "coordinates": [ -6.7403575, 33.9919551 ] } },
{ "type": "Feature", "properties": { "addr_stree": "0", "amenity": "pharmacy", "addr_city": "0", "addr_house": "0", "addr_postc": "0", "dispensing": "yes", "healthcare": "pharmacy", "name": "Pharmacie Principale الصيدلية الرئيسية", "operator": "Ph. PR", "drive_thro": "0", "name_ar": "0", "addr_city_": "0", "name_fr": "0", "opening_ho": "0", "addr_cit_1": "0", "name_es": "0", "building_l": "0", "addr:city": "Salé El Jadida", "addr:postcode": "11100", "drive_through": "yes" }, "geometry": { "type": "Point", "coordinates": [ -6.7468771, 33.9979868 ] } },
{ "type": "Feature", "properties": { "addr_stree": "0", "amenity": "pharmacy", "addr_city": "0", "addr_house": "0", "addr_postc": "0", "dispensing": "yes", "healthcare": "pharmacy", "name": "Pharmacie la Fontaine صيدلية النافورة", "operator": "Ph. PF", "drive_thro": "0", "name_ar": "0", "addr_city_": "0", "name_fr": "0", "opening_ho": "0", "addr_cit_1": "0", "name_es": "0", "building_l": "0", "addr:city": "Salé El Jadida", "addr:postcode": "11100", "drive_through": "yes" }, "geometry": { "type": "Point", "coordinates": [ -6.7427023, 33.9928932 ] } },
{ "type": "Feature", "properties": { "addr_stree": "0", "amenity": "pharmacy", "addr_city": "0", "addr_house": "0", "addr_postc": "0", "dispensing": "yes", "healthcare": "pharmacy", "name": "Pharmacie Chifaa صيدلية الشفاء", "operator": "Ph. PC", "drive_thro": "0", "name_ar": "0", "addr_city_": "0", "name_fr": "0", "opening_ho": "0", "addr_cit_1": "0", "name_es": "0", "building_l": "0", "addr:city": "Salé El Jadida", "addr:postcode": "11102", "drive_through": "yes", "name:fr": "Pharmacie Chifaa" }, "geometry": { "type": "Point", "coordinates": [ -6.7432098, 33.9982345 ] } },
{ "type": "Feature", "properties": { "addr_stree": "0", "amenity": "pharmacy", "addr_city": "0", "addr_house": "0", "addr_postc": "0", "dispensing": "yes", "healthcare": "pharmacy", "name": "Pharmacie Centrale الصيدلية المركزية", "operator": "Ph. PC", "drive_thro": "0", "name_ar": "0", "addr_city_": "0", "name_fr": "0", "opening_ho": "0", "addr_cit_1": "0", "name_es": "0", "building_l": "0", "adresse": "Avenue Sidi Mohamed Ben Hassan", "addr:city": "Salé El Jadida", "addr:postcode": "11100", "name:fr": "Pharmacie Centrale" }, "geometry": { "type": "Point", "coordinates": [ -6.7441454, 33.993877 ] } },
{ "type": "Feature", "properties": { "addr_stree": "0", "amenity": "pharmacy", "addr_city": "0", "addr_house": "0", "addr_postc": "0", "dispensing": "yes", "healthcare": "pharmacy", "name": "Pharmacie Sala El Jadida صيدلية سلا الجديدة", "operator": "Ph. FSEJ", "drive_thro": "0", "name_ar": "0", "addr_city_": "0", "name_fr": "0", "opening_ho": "0", "addr_cit_1": "0", "name_es": "0", "building_l": "0", "adresse": "Avenue Moulay Youssef شارع مولاي يوسف", "addr:city": "Salé El Jadida", "addr:postcode": "11100", "drive_through": "yes" }, "geometry": { "type": "Point", "coordinates": [ -6.7450454, 33.9962426 ] } },
{ "type": "Feature", "properties": { "addr_stree": "0", "amenity": "pharmacy", "addr_city": "0", "addr_house": "0", "addr_postc": "0", "dispensing": "yes", "healthcare": "pharmacy", "name": "Pharmacie Wahiba صيدلية وهيبة", "operator": "Ph. PW", "drive_thro": "0", "name_ar": "0", "addr_city_": "0", "name_fr": "0", "opening_ho": "0", "addr_cit_1": "0", "name_es": "0", "building_l": "0", "adresse": "Avenue Lalla Meriem شارع للا مريم", "addr:city": "Salé El Jadida", "addr:postcode": "11100", "drive_through": "yes" }, "geometry": { "type": "Point", "coordinates": [ -6.7404392, 34.0019759 ] } },
{ "type": "Feature", "properties": { "addr_stree": "0", "amenity": "pharmacy", "addr_city": "0", "addr_house": "0", "addr_postc": "0", "dispensing": "yes", "healthcare": "pharmacy", "name": "Pharmacie El Maarid صيدلية المعرض", "operator": "Ph PM", "drive_thro": "0", "name_ar": "0", "addr_city_": "0", "name_fr": "0", "opening_ho": "0", "addr_cit_1": "0", "name_es": "0", "building_l": "0", "adresse": "Avenue Mohamed V شارع الحسن الثاني", "addr:city": "Salé El Jadida", "addr:postcode": "11102", "drive_through": "yes" }, "geometry": { "type": "Point", "coordinates": [ -6.7452214, 33.9999034 ] } },
{ "type": "Feature", "properties": { "addr_stree": "0", "amenity": "pharmacy", "addr_city": "0", "addr_house": "0", "addr_postc": "0", "dispensing": "yes", "healthcare": "pharmacy", "name": "Pharmacie Mimoza صيدلية ميموزا", "drive_thro": "0", "name_ar": "0", "addr_city_": "0", "name_fr": "0", "opening_ho": "0", "addr_cit_1": "0", "name_es": "0", "building_l": "0", "adresse": "Avenue Moulay Youssef شارع مولاي يوسف", "addr:city": "Salé El Jadida", "addr:postcode": "11100", "drive_through": "yes" }, "geometry": { "type": "Point", "coordinates": [ -6.7396468, 33.9993447 ] } },
{ "type": "Feature", "properties": { "addr_stree": "0", "amenity": "pharmacy", "addr_city": "0", "addr_house": "0", "addr_postc": "0", "dispensing": "yes", "healthcare": "pharmacy", "name": "Phamacie Sebati صيدلية سباتي", "operator": "Ph. PS", "drive_thro": "0", "name_ar": "0", "addr_city_": "0", "name_fr": "0", "opening_ho": "0", "addr_cit_1": "0", "name_es": "0", "building_l": "0", "addr:city": "Salé El Jadida", "addr:postcode": "11100", "drive_through": "yes" }, "geometry": { "type": "Point", "coordinates": [ -6.7434941, 34.0069161 ] } },
{ "type": "Feature", "properties": { "addr_stree": "0", "amenity": "pharmacy", "addr_city": "0", "addr_house": "0", "addr_postc": "0", "dispensing": "yes", "healthcare": "pharmacy", "name": "Pharmacie Athena صيدلية أثينا", "operator": "Ph. PA", "drive_thro": "0", "name_ar": "0", "addr_city_": "0", "name_fr": "0", "opening_ho": "0", "addr_cit_1": "0", "name_es": "0", "building_l": "0", "addr:city": "Salé El Jadida", "addr:postcode": "11100", "drive_through": "yes", "name:fr": "Pharmacie Athena" }, "geometry": { "type": "Point", "coordinates": [ -6.7433238, 34.003418 ] } },
{ "type": "Feature", "properties": { "addr_stree": "0", "amenity": "pharmacy", "addr_city": "0", "addr_house": "0", "addr_postc": "0", "dispensing": "yes", "healthcare": "pharmacy", "name": "Pharmacie Rihab صيدلية رحاب", "operator": "Ph. PH", "drive_thro": "0", "name_ar": "0", "addr_city_": "0", "name_fr": "0", "opening_ho": "0", "addr_cit_1": "0", "name_es": "0", "building_l": "0", "addr:city": "Salé El Jadida", "addr:postcode": "11100", "drive_through": "yes" }, "geometry": { "type": "Point", "coordinates": [ -6.7457725, 34.0044921 ] } },
{ "type": "Feature", "properties": { "addr_stree": "0", "amenity": "pharmacy", "addr_city": "0", "addr_house": "0", "addr_postc": "0", "dispensing": "yes", "healthcare": "pharmacy", "name": "Pharmacie Errai صيدلية الراي", "operator": "Ph. PE", "drive_thro": "0", "name_ar": "0", "addr_city_": "0", "name_fr": "0", "opening_ho": "0", "addr_cit_1": "0", "name_es": "0", "building_l": "0", "addr:city": "Salé El Jadida", "addr:postcode": "11100", "drive_through": "yes" }, "geometry": { "type": "Point", "coordinates": [ -6.7366589, 34.0125781 ] } },
{ "type": "Feature", "properties": { "addr_stree": "0", "amenity": "pharmacy", "addr_city": "0", "addr_house": "0", "addr_postc": "0", "dispensing": "yes", "healthcare": "pharmacy", "name": "Pharmacie Al Aqsa صيدلية الأقصى", "operator": "Ph. PAQ", "drive_thro": "0", "name_ar": "0", "addr_city_": "0", "name_fr": "0", "opening_ho": "0", "addr_cit_1": "0", "name_es": "0", "building_l": "0", "addr:city": "Salé", "addr:postcode": "11100", "drive_through": "yes", "name:fr": "Pharmacie Al Aqsa" }, "geometry": { "type": "Point", "coordinates": [ -6.7332257, 34.0105423 ] } },
{ "type": "Feature", "properties": { "addr_stree": "0", "amenity": "pharmacy", "addr_city": "0", "addr_house": "0", "addr_postc": "0", "dispensing": "yes", "healthcare": "pharmacy", "name": "Pharmacie du Myrte صيدلية الريحان", "operator": "Ph. PM", "drive_thro": "0", "name_ar": "0", "addr_city_": "0", "name_fr": "0", "opening_ho": "0", "addr_cit_1": "0", "name_es": "0", "building_l": "0", "addr:city": "Salé El Jadida", "addr:postcode": "11100", "drive_through": "yes", "name:fr": "Pharmacie du Myrte" }, "geometry": { "type": "Point", "coordinates": [ -6.7348576, 34.001919 ] } },
{ "type": "Feature", "properties": { "addr_stree": "0", "amenity": "pharmacy", "addr_city": "0", "addr_house": "0", "addr_postc": "0", "dispensing": "yes", "healthcare": "pharmacy", "name": "Pharmacie MAIL CENTRAL صيدلية البريد المركزي", "operator": "Ph. PMC", "drive_thro": "0", "name_ar": "0", "addr_city_": "0", "name_fr": "0", "opening_ho": "0", "addr_cit_1": "0", "name_es": "0", "building_l": "0", "adresse": "Avenue Wahda", "addr:city": "Salé El Jadida", "addr:postcode": "11100", "drive_through": "yes" }, "geometry": { "type": "Point", "coordinates": [ -6.7382401, 33.9956835 ] } },
{ "type": "Feature", "properties": { "addr_stree": "0", "amenity": "pharmacy", "addr_city": "0", "addr_house": "0", "addr_postc": "0", "dispensing": "yes", "healthcare": "pharmacy", "name": "Pharmacie Al Wafae صيدلية الوفاء", "operator": "Ph. PAW", "drive_thro": "0", "name_ar": "0", "addr_city_": "0", "name_fr": "0", "opening_ho": "0", "addr_cit_1": "0", "name_es": "0", "building_l": "0", "addr:city": "Salé", "addr:postcode": "11000", "name:fr": "Pharmacie Al Wafae" }, "geometry": { "type": "Point", "coordinates": [ -6.7567668, 34.0239456 ] } },
{ "type": "Feature", "properties": { "addr_stree": "0", "amenity": "pharmacy", "addr_city": "0", "addr_house": "0", "addr_postc": "0", "dispensing": "yes", "healthcare": "pharmacy", "name": "Pharmacie Kamil صيدلية كميل", "operator": "Ph. PK", "drive_thro": "0", "name_ar": "0", "addr_city_": "0", "name_fr": "0", "opening_ho": "0", "addr_cit_1": "0", "name_es": "0", "building_l": "0", "addr:city": "Salé El Jadida", "addr:postcode": "11100", "drive_through": "yes" }, "geometry": { "type": "Point", "coordinates": [ -6.7409602, 34.017893 ] } },
{ "type": "Feature", "properties": { "addr_stree": "0", "amenity": "pharmacy", "addr_city": "0", "addr_house": "0", "addr_postc": "0", "dispensing": "yes", "healthcare": "pharmacy", "name": "Pharmacie Hssain صيدلية حصين", "operator": "Ph. PH", "drive_thro": "0", "name_ar": "0", "addr_city_": "0", "name_fr": "0", "opening_ho": "0", "addr_cit_1": "0", "name_es": "0", "building_l": "0", "addr:city": "Salé El Jadida", "addr:postcode": "11100", "drive_through": "yes" }, "geometry": { "type": "Point", "coordinates": [ -6.7437123, 34.0195302 ] } },
{ "type": "Feature", "properties": { "addr_stree": "0", "amenity": "pharmacy", "addr_city": "0", "addr_house": "0", "addr_postc": "0", "dispensing": "yes", "healthcare": "pharmacy", "name": "Pharmacie du Soleil صيدلية شمس", "operator": "Ph. PS", "drive_thro": "0", "name_ar": "0", "addr_city_": "0", "name_fr": "0", "opening_ho": "0", "addr_cit_1": "0", "name_es": "0", "building_l": "0", "addr:city": "Salé", "addr:postcode": "11100", "drive_through": "yes", "name:fr": "Pharmacie du Soleil" }, "geometry": { "type": "Point", "coordinates": [ -6.7524119, 34.025103 ] } },
{ "type": "Feature", "properties": { "addr_stree": "0", "amenity": "pharmacy", "addr_city": "0", "addr_house": "0", "addr_postc": "0", "dispensing": "yes", "healthcare": "pharmacy", "name": "Pharmacie Maghreb Arabe صيدلية المغرب العربي", "operator": "Ph. PMA", "drive_thro": "0", "name_ar": "0", "addr_city_": "0", "name_fr": "0", "opening_ho": "0", "addr_cit_1": "0", "name_es": "0", "building_l": "0", "addr:city": "Salé El Jadida", "addr:postcode": "11100", "drive_through": "yes" }, "geometry": { "type": "Point", "coordinates": [ -6.7337354, 33.9982188 ] } },
{ "type": "Feature", "properties": { "addr_stree": "0", "amenity": "pharmacy", "addr_city": "0", "addr_house": "0", "addr_postc": "0", "dispensing": "yes", "healthcare": "pharmacy", "name": "Pharmacie Ambra صيدلية عنبرة", "operator": "Ph. PA", "drive_thro": "0", "name_ar": "0", "addr_city_": "0", "name_fr": "0", "opening_ho": "0", "addr_cit_1": "0", "name_es": "0", "building_l": "0", "addr:city": "Salé El Jadida", "addr:postcode": "11100", "drive_through": "yes", "name:fr": "Pharmacie Ambra" }, "geometry": { "type": "Point", "coordinates": [ -6.7494643, 34.0239444 ] } },
{ "type": "Feature", "properties": { "addr_stree": "0", "amenity": "pharmacy", "addr_city": "0", "addr_house": "0", "addr_postc": "0", "dispensing": "yes", "healthcare": "pharmacy", "name": "Pharmacie Al Abridi صيدلية العبريدي", "operator": "Ph PA", "drive_thro": "0", "name_ar": "0", "addr_city_": "0", "name_fr": "0", "opening_ho": "0", "addr_cit_1": "0", "name_es": "0", "building_l": "0", "addr:city": "Salé El Jadida", "addr:postcode": "11100", "drive_through": "yes", "name:fr": "Pharmacie Al Abridi" }, "geometry": { "type": "Point", "coordinates": [ -6.7467236, 34.0031947 ] } },
{ "type": "Feature", "properties": { "addr_stree": "0", "amenity": "pharmacy", "addr_city": "0", "addr_house": "0", "addr_postc": "0", "dispensing": "yes", "healthcare": "pharmacy", "name": "Pharmacie Al Andaloussia صيدلية الأندلسية", "operator": "Ph PA", "drive_thro": "0", "name_ar": "0", "addr_city_": "0", "name_fr": "0", "opening_ho": "0", "addr_cit_1": "0", "name_es": "0", "building_l": "0", "adresse": "Avenue Mohamed V شارع الحسن الثاني", "addr:city": "Salé Al Jadida", "addr:postcode": "11000", "drive_through": "yes", "name:fr": "Pharmacie Al Andaloussia" }, "geometry": { "type": "Point", "coordinates": [ -6.7416676, 33.9955298 ] } },
{ "type": "Feature", "properties": { "addr_stree": "0", "amenity": "pharmacy", "addr_city": "0", "addr_house": "0", "addr_postc": "0", "dispensing": "yes", "healthcare": "pharmacy", "name": "Pharmacie Les Pyramides صيدلية الأهرامات", "operator": "Ph PP", "drive_thro": "0", "name_ar": "0", "addr_city_": "0", "name_fr": "0", "opening_ho": "0", "addr_cit_1": "0", "name_es": "0", "building_l": "0", "addr:city": "Salé El Jadida", "addr:postcode": "11100", "drive_through": "yes" }, "geometry": { "type": "Point", "coordinates": [ -6.7443113, 33.999408 ] } },
{ "type": "Feature", "properties": { "addr_stree": "0", "amenity": "pharmacy", "addr_city": "0", "addr_house": "0", "addr_postc": "0", "dispensing": "yes", "healthcare": "pharmacy", "name": "Pharmacie Faculté صيدلية الجامعة", "operator": "Ph PF", "drive_thro": "0", "name_ar": "0", "addr_city_": "0", "name_fr": "0", "opening_ho": "0", "addr_cit_1": "0", "name_es": "0", "building_l": "0", "addr:city": "Salé El Jadida", "addr:postcode": "14000", "drive_through": "yes" }, "geometry": { "type": "Point", "coordinates": [ -6.735822, 34.0158739 ] } },
{ "type": "Feature", "properties": { "addr_stree": "0", "amenity": "pharmacy", "addr_city": "0", "addr_house": "0", "addr_postc": "0", "dispensing": "yes", "healthcare": "pharmacy", "name": "Pharmacie Harhoura صيدلية هرهورة", "operator": "Ph PHR", "drive_thro": "0", "name_ar": "0", "addr_city_": "0", "name_fr": "0", "opening_ho": "0", "addr_cit_1": "0", "name_es": "0", "building_l": "0", "adresse": "Rue Dar Essalam", "addr:city": "Témara تمارة", "addr:postcode": "12000" }, "geometry": { "type": "Point", "coordinates": [ -6.9391455, 33.9402117 ] } },
{ "type": "Feature", "properties": { "addr_stree": "0", "amenity": "pharmacy", "addr_city": "0", "addr_house": "0", "addr_postc": "0", "dispensing": "yes", "healthcare": "pharmacy", "name": "Pharmacie Atlantique صيدلية اطلنتيك", "operator": "Ph PAT", "drive_thro": "0", "name_ar": "0", "addr_city_": "0", "name_fr": "0", "opening_ho": "0", "addr_cit_1": "0", "name_es": "0", "building_l": "0", "addr:city": "Témara تمارة", "addr:postcode": "12000" }, "geometry": { "type": "Point", "coordinates": [ -6.9330918, 33.9467779 ] } },
{ "type": "Feature", "properties": { "addr_stree": "0", "amenity": "pharmacy", "addr_city": "0", "addr_house": "0", "addr_postc": "0", "dispensing": "yes", "healthcare": "pharmacy", "name": "Pharmacie Acima صيدلية أسيما", "operator": "Ph PCM", "drive_thro": "0", "name_ar": "0", "addr_city_": "0", "name_fr": "0", "opening_ho": "0", "addr_cit_1": "0", "name_es": "0", "building_l": "0", "addr:city": "Témara تمارة", "addr:postcode": "12000" }, "geometry": { "type": "Point", "coordinates": [ -6.9393493, 33.9372478 ] } },
{ "type": "Feature", "properties": { "addr_stree": "0", "amenity": "pharmacy", "addr_city": "0", "addr_house": "0", "addr_postc": "0", "dispensing": "yes", "healthcare": "pharmacy", "name": "Pharmacie Noufa صيدلية نوفا", "operator": "Ph PNF", "drive_thro": "0", "name_ar": "0", "addr_city_": "0", "name_fr": "0", "opening_ho": "0", "addr_cit_1": "0", "name_es": "0", "building_l": "0", "addr:city": "Témara تمارة", "addr:postcode": "12022" }, "geometry": { "type": "Point", "coordinates": [ -6.9337317, 33.9187879 ] } },
{ "type": "Feature", "properties": { "addr_stree": "0", "amenity": "pharmacy", "addr_city": "0", "addr_house": "0", "addr_postc": "0", "dispensing": "yes", "healthcare": "pharmacy", "name": "Pharmacie Santé صيدلية الصحة", "operator": "Ph PST", "drive_thro": "0", "name_ar": "0", "addr_city_": "0", "name_fr": "0", "opening_ho": "0", "addr_cit_1": "0", "name_es": "0", "building_l": "0", "addr:city": "Témara تمارة", "addr:postcode": "12022" }, "geometry": { "type": "Point", "coordinates": [ -6.9366033, 33.9205714 ] } },
{ "type": "Feature", "properties": { "addr_stree": "0", "amenity": "pharmacy", "addr_city": "0", "addr_house": "0", "addr_postc": "0", "dispensing": "yes", "healthcare": "pharmacy", "name": "Pharmacie Jorio صيدلية جوريو", "operator": "Ph PJR", "drive_thro": "0", "name_ar": "0", "addr_city_": "0", "name_fr": "0", "opening_ho": "0", "addr_cit_1": "0", "name_es": "0", "building_l": "0", "addr:city": "Témara تمارة", "addr:postcode": "12000" }, "geometry": { "type": "Point", "coordinates": [ -6.9342599, 33.9216112 ] } },
{ "type": "Feature", "properties": { "addr_stree": "0", "amenity": "pharmacy", "addr_city": "0", "addr_house": "0", "addr_postc": "0", "dispensing": "yes", "healthcare": "pharmacy", "name": "Pharmacie Fidaa صيدلية الفداء", "operator": "Ph PFD", "drive_thro": "0", "name_ar": "0", "addr_city_": "0", "name_fr": "0", "opening_ho": "0", "addr_cit_1": "0", "name_es": "0", "building_l": "0", "addr:city": "Témara تمارة", "addr:postcode": "12000" }, "geometry": { "type": "Point", "coordinates": [ -6.9374179, 33.9270462 ] } },
{ "type": "Feature", "properties": { "addr_stree": "0", "amenity": "pharmacy", "addr_city": "0", "addr_house": "0", "addr_postc": "0", "dispensing": "yes", "healthcare": "pharmacy", "name": "Pharmacie Errachad صيدلية الرشاد", "operator": "Ph PRD", "drive_thro": "0", "name_ar": "0", "addr_city_": "0", "name_fr": "0", "opening_ho": "0", "addr_cit_1": "0", "name_es": "0", "building_l": "0", "addr:city": "Témara تمارة", "addr:postcode": "12000" }, "geometry": { "type": "Point", "coordinates": [ -6.930025, 33.9187315 ] } },
{ "type": "Feature", "properties": { "addr_stree": "0", "amenity": "pharmacy", "addr_city": "0", "addr_house": "0", "addr_postc": "0", "dispensing": "yes", "healthcare": "pharmacy", "name": "Pharmacie Attadamoun صيدلية التضامن", "operator": "Ph PTD", "drive_thro": "0", "name_ar": "0", "addr_city_": "0", "name_fr": "0", "opening_ho": "0", "addr_cit_1": "0", "name_es": "0", "building_l": "0", "addr:city": "Témara", "addr:postcode": "12000" }, "geometry": { "type": "Point", "coordinates": [ -6.9362756, 33.9249094 ] } },
{ "type": "Feature", "properties": { "addr_stree": "0", "amenity": "pharmacy", "addr_city": "0", "addr_house": "0", "addr_postc": "0", "dispensing": "yes", "healthcare": "pharmacy", "name": "Pharmacie Ryad El Wifak صيدلية رياض الوفاق", "operator": "Ph PRW", "drive_thro": "0", "name_ar": "0", "addr_city_": "0", "name_fr": "0", "opening_ho": "0", "addr_cit_1": "0", "name_es": "0", "building_l": "0", "addr:city": "Témara", "addr:postcode": "12000" }, "geometry": { "type": "Point", "coordinates": [ -6.9333878, 33.9246014 ] } },
{ "type": "Feature", "properties": { "addr_stree": "0", "amenity": "pharmacy", "addr_city": "0", "addr_house": "0", "addr_postc": "0", "dispensing": "yes", "healthcare": "pharmacy", "name": "Pharmacie El Fadi صيدلية الفاضي", "operator": "Ph PFD", "drive_thro": "0", "name_ar": "0", "addr_city_": "0", "name_fr": "0", "opening_ho": "0", "addr_cit_1": "0", "name_es": "0", "building_l": "0", "addr:city": "Témara", "addr:postcode": "12000" }, "geometry": { "type": "Point", "coordinates": [ -6.928671, 33.9231017 ] } },
{ "type": "Feature", "properties": { "addr_stree": "0", "amenity": "pharmacy", "addr_city": "0", "addr_house": "0", "addr_postc": "0", "dispensing": "yes", "healthcare": "pharmacy", "name": "Pharmacie Camelia صيدلية كاميليا", "operator": "Ph PCM", "drive_thro": "0", "name_ar": "0", "addr_city_": "0", "name_fr": "0", "opening_ho": "0", "addr_cit_1": "0", "name_es": "0", "building_l": "0", "addr:city": "Témara", "addr:postcode": "12000", "name:ar": "صيدلية كاميليا", "name:fr": "Pharmacie Camelia", "addr:city:es": "Temara", "name:es": "Farmacia Camelia" }, "geometry": { "type": "Point", "coordinates": [ -6.9205466, 33.9251264 ] } },
{ "type": "Feature", "properties": { "addr_stree": "0", "amenity": "pharmacy", "addr_city": "0", "addr_house": "0", "addr_postc": "0", "dispensing": "yes", "healthcare": "pharmacy", "name": "Pharmacie Zamzam صيدلية زمزم", "operator": "Ph PZM", "drive_thro": "0", "name_ar": "0", "addr_city_": "0", "name_fr": "0", "opening_ho": "0", "addr_cit_1": "0", "name_es": "0", "building_l": "0", "addr:city": "Témara", "addr:postcode": "12000" }, "geometry": { "type": "Point", "coordinates": [ -6.9248428, 33.9238885 ] } },
{ "type": "Feature", "properties": { "addr_stree": "0", "amenity": "pharmacy", "addr_city": "0", "addr_house": "0", "addr_postc": "0", "dispensing": "yes", "healthcare": "pharmacy", "name": "Pharmacie Kenzi Témara صيدلية كنزي تمارة", "operator": "Ph PKT", "drive_thro": "0", "name_ar": "0", "addr_city_": "0", "name_fr": "0", "opening_ho": "0", "addr_cit_1": "0", "name_es": "0", "building_l": "0", "addr:city": "Témara", "addr:postcode": "12000" }, "geometry": { "type": "Point", "coordinates": [ -6.9272041, 33.9257001 ] } },
{ "type": "Feature", "properties": { "addr_stree": "0", "amenity": "pharmacy", "addr_city": "0", "addr_house": "0", "addr_postc": "0", "dispensing": "yes", "healthcare": "pharmacy", "name": "Pharmacie Manar Al Wifak صيدلية منار الوفاق", "operator": "Ph PMW", "drive_thro": "0", "name_ar": "0", "addr_city_": "0", "name_fr": "0", "opening_ho": "0", "addr_cit_1": "0", "name_es": "0", "building_l": "0", "addr:city": "Témara", "addr:postcode": "12000" }, "geometry": { "type": "Point", "coordinates": [ -6.9325478, 33.9270952 ] } },
{ "type": "Feature", "properties": { "addr_stree": "0", "amenity": "pharmacy", "addr_city": "0", "addr_house": "0", "addr_postc": "0", "dispensing": "yes", "healthcare": "pharmacy", "name": "Pharmacie Al Woroud صيدلية الورود", "operator": "Ph PWD", "drive_thro": "0", "name_ar": "0", "addr_city_": "0", "name_fr": "0", "opening_ho": "0", "addr_cit_1": "0", "name_es": "0", "building_l": "0", "addr:city": "Témara", "addr:postcode": "12000" }, "geometry": { "type": "Point", "coordinates": [ -6.9265001, 33.9281361 ] } },
{ "type": "Feature", "properties": { "addr_stree": "0", "amenity": "pharmacy", "addr_city": "0", "addr_house": "0", "addr_postc": "0", "dispensing": "yes", "healthcare": "pharmacy", "name": "Pharmacie Internationale الصيدلية الدولية", "operator": "Ph PIT", "drive_thro": "0", "name_ar": "0", "addr_city_": "0", "name_fr": "0", "opening_ho": "0", "addr_cit_1": "0", "name_es": "0", "building_l": "0", "addr:city": "Témara تمارة", "addr:postcode": "12000" }, "geometry": { "type": "Point", "coordinates": [ -6.9390946, 33.9219522 ] } },
{ "type": "Feature", "properties": { "addr_stree": "0", "amenity": "pharmacy", "addr_city": "0", "addr_house": "0", "addr_postc": "0", "dispensing": "yes", "healthcare": "pharmacy", "name": "Pharmacie Malak صيدلية ملاك", "operator": "Ph PML", "drive_thro": "0", "name_ar": "0", "addr_city_": "0", "name_fr": "0", "opening_ho": "0", "addr_cit_1": "0", "name_es": "0", "building_l": "0", "addr:city": "Témara", "addr:postcode": "12000" }, "geometry": { "type": "Point", "coordinates": [ -6.929014, 33.9296684 ] } },
{ "type": "Feature", "properties": { "addr_stree": "0", "amenity": "pharmacy", "addr_city": "0", "addr_house": "0", "addr_postc": "0", "dispensing": "yes", "healthcare": "pharmacy", "name": "Pharmacie Al Moubaraka صيدلية المباركة", "operator": "Ph PMB", "drive_thro": "0", "name_ar": "0", "addr_city_": "0", "name_fr": "0", "opening_ho": "0", "addr_cit_1": "0", "name_es": "0", "building_l": "0", "addr:city": "Témara تمارة", "addr:postcode": "12000" }, "geometry": { "type": "Point", "coordinates": [ -6.9350803, 33.9268839 ] } },
{ "type": "Feature", "properties": { "addr_stree": "0", "amenity": "pharmacy", "addr_city": "0", "addr_house": "0", "addr_postc": "0", "dispensing": "yes", "healthcare": "pharmacy", "name": "Pharmacie Cherkawa صيدلية شرقاوة", "operator": "Ph PCK", "drive_thro": "0", "name_ar": "0", "addr_city_": "0", "name_fr": "0", "opening_ho": "0", "addr_cit_1": "0", "name_es": "0", "building_l": "0", "addr:city": "Témara تمارة", "addr:postcode": "12000" }, "geometry": { "type": "Point", "coordinates": [ -6.920648, 33.937401 ] } },
{ "type": "Feature", "properties": { "addr_stree": "0", "amenity": "pharmacy", "addr_city": "0", "addr_house": "0", "addr_postc": "0", "dispensing": "yes", "healthcare": "pharmacy", "name": "Pharmacie Oum Aicha صيدلية أم عائشة", "operator": "Ph POA", "drive_thro": "0", "name_ar": "0", "addr_city_": "0", "name_fr": "0", "opening_ho": "0", "addr_cit_1": "0", "name_es": "0", "building_l": "0", "addr:city": "Témara تمارة", "addr:postcode": "12000" }, "geometry": { "type": "Point", "coordinates": [ -6.9121661, 33.9058091 ] } },
{ "type": "Feature", "properties": { "addr_stree": "0", "amenity": "pharmacy", "addr_city": "0", "addr_house": "0", "addr_postc": "0", "dispensing": "yes", "healthcare": "pharmacy", "name": "Pharmacie Al Hilal صيدلية الهلال", "operator": "Ph PHL", "drive_thro": "0", "name_ar": "0", "addr_city_": "0", "name_fr": "0", "opening_ho": "0", "addr_cit_1": "0", "name_es": "0", "building_l": "0", "addr:city": "Témara تمارة", "addr:postcode": "12000" }, "geometry": { "type": "Point", "coordinates": [ -6.9152836, 33.9066687 ] } },
{ "type": "Feature", "properties": { "addr_stree": "0", "amenity": "pharmacy", "addr_city": "0", "addr_house": "0", "addr_postc": "0", "dispensing": "yes", "healthcare": "pharmacy", "name": "Pharmacie Zahrat Al Amal صيدلية زهرة الأمل", "operator": "Ph PZA", "drive_thro": "0", "name_ar": "0", "addr_city_": "0", "name_fr": "0", "opening_ho": "0", "addr_cit_1": "0", "name_es": "0", "building_l": "0", "addr:city": "Témara تمارة", "addr:postcode": "12000" }, "geometry": { "type": "Point", "coordinates": [ -6.9086815, 33.9079077 ] } },
{ "type": "Feature", "properties": { "addr_stree": "0", "amenity": "pharmacy", "addr_city": "0", "addr_house": "0", "addr_postc": "0", "dispensing": "yes", "healthcare": "pharmacy", "name": "Pharmacie Dakar صيدلية دكار", "operator": "Ph PDK", "drive_thro": "0", "name_ar": "0", "addr_city_": "0", "name_fr": "0", "opening_ho": "0", "addr_cit_1": "0", "name_es": "0", "building_l": "0", "addr:city": "Témara تمارة", "addr:postcode": "12000" }, "geometry": { "type": "Point", "coordinates": [ -6.9087569, 33.910868 ] } },
{ "type": "Feature", "properties": { "addr_stree": "0", "amenity": "pharmacy", "addr_city": "0", "addr_house": "0", "addr_postc": "0", "dispensing": "yes", "healthcare": "pharmacy", "name": "Pharmacie Mouram صيدلية مرام", "operator": "Ph PMR", "drive_thro": "0", "name_ar": "0", "addr_city_": "0", "name_fr": "0", "opening_ho": "0", "addr_cit_1": "0", "name_es": "0", "building_l": "0", "addr:city": "Témara تمارة", "addr:postcode": "12000" }, "geometry": { "type": "Point", "coordinates": [ -6.9053822, 33.9109904 ] } },
{ "type": "Feature", "properties": { "addr_stree": "0", "amenity": "pharmacy", "addr_city": "0", "addr_house": "0", "addr_postc": "0", "dispensing": "yes", "healthcare": "pharmacy", "name": "Pharmacie Anniema صيدلية النعمة", "operator": "Ph PNM", "drive_thro": "0", "name_ar": "0", "addr_city_": "0", "name_fr": "0", "opening_ho": "0", "addr_cit_1": "0", "name_es": "0", "building_l": "0", "addr:city": "Témara تمارة", "addr:postcode": "12000" }, "geometry": { "type": "Point", "coordinates": [ -6.906729, 33.913744 ] } },
{ "type": "Feature", "properties": { "addr_stree": "0", "amenity": "pharmacy", "addr_city": "0", "addr_house": "0", "addr_postc": "0", "dispensing": "yes", "healthcare": "pharmacy", "name": "Pharmacie Riad Fès صيدلية رياض فاس", "operator": "Ph PRF", "drive_thro": "0", "name_ar": "0", "addr_city_": "0", "name_fr": "0", "opening_ho": "0", "addr_cit_1": "0", "name_es": "0", "building_l": "0", "addr:city": "Témara تمارة", "addr:postcode": "12000" }, "geometry": { "type": "Point", "coordinates": [ -6.9003706, 33.9201526 ] } },
{ "type": "Feature", "properties": { "addr_stree": "0", "amenity": "pharmacy", "addr_city": "0", "addr_house": "0", "addr_postc": "0", "dispensing": "yes", "healthcare": "pharmacy", "name": "Pharmacie Rochdi صيدلية رشدي", "operator": "Ph PRD", "drive_thro": "0", "name_ar": "0", "addr_city_": "0", "name_fr": "0", "opening_ho": "0", "addr_cit_1": "0", "name_es": "0", "building_l": "0", "addr:city": "Témara تمارة", "addr:postcode": "12000" }, "geometry": { "type": "Point", "coordinates": [ -6.8854504, 33.9217184 ] } },
{ "type": "Feature", "properties": { "addr_stree": "0", "amenity": "pharmacy", "addr_city": "0", "addr_house": "0", "addr_postc": "0", "dispensing": "yes", "healthcare": "pharmacy", "name": "Pharmacie Assalam صيدلية السلام", "operator": "Ph PSL", "drive_thro": "0", "name_ar": "0", "addr_city_": "0", "name_fr": "0", "opening_ho": "0", "addr_cit_1": "0", "name_es": "0", "building_l": "0", "addr:city": "Témara تمارة", "addr:postcode": "12000" }, "geometry": { "type": "Point", "coordinates": [ -6.8889785, 33.9146273 ] } },
{ "type": "Feature", "properties": { "addr_stree": "0", "amenity": "pharmacy", "addr_city": "0", "addr_house": "0", "addr_postc": "0", "dispensing": "yes", "healthcare": "pharmacy", "name": "Pharmacie Al Kawthar صيدلية الكوثر", "operator": "Ph PKT", "drive_thro": "0", "name_ar": "0", "addr_city_": "0", "name_fr": "0", "opening_ho": "0", "addr_cit_1": "0", "name_es": "0", "building_l": "0", "addr:city": "Témara تمارة", "addr:postcode": "12000" }, "geometry": { "type": "Point", "coordinates": [ -6.8867194, 33.9157845 ] } },
{ "type": "Feature", "properties": { "addr_stree": "0", "amenity": "pharmacy", "addr_city": "0", "addr_house": "0", "addr_postc": "0", "dispensing": "yes", "healthcare": "pharmacy", "name": "Pharmacie Al Maarif صيدلية المعارف", "operator": "Ph PMR", "drive_thro": "0", "name_ar": "0", "addr_city_": "0", "name_fr": "0", "opening_ho": "0", "addr_cit_1": "0", "name_es": "0", "building_l": "0", "addr:city": "Témara تمارة", "addr:postcode": "12000" }, "geometry": { "type": "Point", "coordinates": [ -6.8904975, 33.9170967 ] } },
{ "type": "Feature", "properties": { "addr_stree": "0", "amenity": "pharmacy", "addr_city": "0", "addr_house": "0", "addr_postc": "0", "dispensing": "yes", "healthcare": "pharmacy", "name": "Pharmacie Al Ghait صيدلية الغيث", "operator": "Ph PGT", "drive_thro": "0", "name_ar": "0", "addr_city_": "0", "name_fr": "0", "opening_ho": "0", "addr_cit_1": "0", "name_es": "0", "building_l": "0", "addr:city": "Témara تمارة", "addr:postcode": "12000" }, "geometry": { "type": "Point", "coordinates": [ -6.8874284, 33.9192774 ] } },
{ "type": "Feature", "properties": { "addr_stree": "0", "amenity": "pharmacy", "addr_city": "0", "addr_house": "0", "addr_postc": "0", "dispensing": "yes", "healthcare": "pharmacy", "name": "Pharmacie la Santé صيدلية الصحة", "operator": "Ph PST", "drive_thro": "0", "name_ar": "0", "addr_city_": "0", "name_fr": "0", "opening_ho": "0", "addr_cit_1": "0", "name_es": "0", "building_l": "0", "adresse": "Avenue Tarik Ibn Ziad شارع طارق بن زياد", "addr:city": "Témara تمارة", "addr:housenumber": "80", "addr:postcode": "12000" }, "geometry": { "type": "Point", "coordinates": [ -6.8909732, 33.928809 ] } },
{ "type": "Feature", "properties": { "addr_stree": "0", "amenity": "pharmacy", "addr_city": "0", "addr_house": "0", "addr_postc": "0", "dispensing": "yes", "healthcare": "pharmacy", "name": "Pharmacie Ennassim صيدلية النسيم", "operator": "Ph PNS", "drive_thro": "0", "name_ar": "0", "addr_city_": "0", "name_fr": "0", "opening_ho": "0", "addr_cit_1": "0", "name_es": "0", "building_l": "0", "addr:city": "Témara تمارة", "addr:postcode": "12000" }, "geometry": { "type": "Point", "coordinates": [ -6.8865728, 33.9262605 ] } },
{ "type": "Feature", "properties": { "addr_stree": "0", "amenity": "pharmacy", "addr_city": "0", "addr_house": "0", "addr_postc": "0", "dispensing": "yes", "healthcare": "pharmacy", "name": "Pharmacie de la Famille صيدلية العائلة", "operator": "Ph PFM", "drive_thro": "0", "name_ar": "0", "addr_city_": "0", "name_fr": "0", "opening_ho": "0", "addr_cit_1": "0", "name_es": "0", "building_l": "0", "addr:city": "Témara تمارة", "addr:postcode": "12000" }, "geometry": { "type": "Point", "coordinates": [ -6.893479, 33.9264648 ] } },
{ "type": "Feature", "properties": { "addr_stree": "0", "amenity": "pharmacy", "addr_city": "0", "addr_house": "0", "addr_postc": "0", "dispensing": "yes", "healthcare": "pharmacy", "name": "Pharmacie Naimi صيدلية النعيمي", "operator": "Ph PNM", "drive_thro": "0", "name_ar": "0", "addr_city_": "0", "name_fr": "0", "opening_ho": "0", "addr_cit_1": "0", "name_es": "0", "building_l": "0", "addr:city": "Témara تمارة", "addr:postcode": "12000" }, "geometry": { "type": "Point", "coordinates": [ -6.8900068, 33.9262586 ] } },
{ "type": "Feature", "properties": { "addr_stree": "0", "amenity": "pharmacy", "addr_city": "0", "addr_house": "0", "addr_postc": "0", "dispensing": "yes", "healthcare": "pharmacy", "name": "Pharmacie Fatine صيدلية فاتن", "operator": "Ph PFT", "drive_thro": "0", "name_ar": "0", "addr_city_": "0", "name_fr": "0", "opening_ho": "0", "addr_cit_1": "0", "name_es": "0", "building_l": "0", "adresse": "Boulevard Moulay Ali Cherif", "addr:city": "Témara تمارة", "addr:postcode": "12000" }, "geometry": { "type": "Point", "coordinates": [ -6.8919994, 33.9242032 ] } },
{ "type": "Feature", "properties": { "addr_stree": "0", "amenity": "pharmacy", "addr_city": "0", "addr_house": "0", "addr_postc": "0", "dispensing": "yes", "healthcare": "pharmacy", "name": "Pharmacie Al Hay صيدلية الحي", "operator": "Ph PHY", "drive_thro": "0", "name_ar": "0", "addr_city_": "0", "name_fr": "0", "opening_ho": "0", "addr_cit_1": "0", "name_es": "0", "building_l": "0", "adresse": "Avenue Tarik Ibn Ziad شارع طارق بن زياد", "addr:city": "Témara تمارة", "addr:postcode": "12000" }, "geometry": { "type": "Point", "coordinates": [ -6.897484, 33.9228441 ] } },
{ "type": "Feature", "properties": { "addr_stree": "0", "amenity": "pharmacy", "addr_city": "0", "addr_house": "0", "addr_postc": "0", "dispensing": "yes", "healthcare": "pharmacy", "name": "Pharmacie Badr صيدلية بدر", "operator": "Ph PBR", "drive_thro": "0", "name_ar": "0", "addr_city_": "0", "name_fr": "0", "opening_ho": "0", "addr_cit_1": "0", "name_es": "0", "building_l": "0", "addr:city": "Témara تمارة", "addr:postcode": "12000" }, "geometry": { "type": "Point", "coordinates": [ -6.8950291, 33.9228264 ] } },
{ "type": "Feature", "properties": { "addr_stree": "0", "amenity": "pharmacy", "addr_city": "0", "addr_house": "0", "addr_postc": "0", "dispensing": "yes", "healthcare": "pharmacy", "name": "Pharmacie Al Maghrib Al Arabi صيدلية المغرب العربي", "operator": "Ph PMA", "drive_thro": "0", "name_ar": "0", "addr_city_": "0", "name_fr": "0", "opening_ho": "0", "addr_cit_1": "0", "name_es": "0", "building_l": "0", "adresse": "Boulevard des Idrissides", "addr:city": "Témara تمارة", "addr:postcode": "12000" }, "geometry": { "type": "Point", "coordinates": [ -6.8966467, 33.9198499 ] } },
{ "type": "Feature", "properties": { "addr_stree": "0", "amenity": "pharmacy", "addr_city": "0", "addr_house": "0", "addr_postc": "0", "dispensing": "yes", "healthcare": "pharmacy", "name": "Pharmacie de la Victoire صيدلية النصر", "operator": "Ph PVT", "drive_thro": "0", "name_ar": "0", "addr_city_": "0", "name_fr": "0", "opening_ho": "0", "addr_cit_1": "0", "name_es": "0", "building_l": "0", "adresse": "Avenue Ibn Khaldoun شارع ابن خلدون", "addr:city": "Témara تمارة", "addr:postcode": "12000" }, "geometry": { "type": "Point", "coordinates": [ -6.8932382, 33.921263 ] } },
{ "type": "Feature", "properties": { "addr_stree": "0", "amenity": "pharmacy", "addr_city": "0", "addr_house": "0", "addr_postc": "0", "dispensing": "yes", "healthcare": "pharmacy", "name": "Pharmacie l'Espoir صيدلية الأمل", "operator": "Ph PES", "drive_thro": "0", "name_ar": "0", "addr_city_": "0", "name_fr": "0", "opening_ho": "0", "addr_cit_1": "0", "name_es": "0", "building_l": "0", "addr:city": "Témara تمارة", "addr:postcode": "12006" }, "geometry": { "type": "Point", "coordinates": [ -6.8897352, 33.9216662 ] } },
{ "type": "Feature", "properties": { "addr_stree": "0", "amenity": "pharmacy", "addr_city": "0", "addr_house": "0", "addr_postc": "0", "dispensing": "yes", "healthcare": "pharmacy", "name": "Pharmacie Al Yassmine صيدلية الياسمين", "operator": "Ph PYS", "drive_thro": "0", "name_ar": "0", "addr_city_": "0", "name_fr": "0", "opening_ho": "0", "addr_cit_1": "0", "name_es": "0", "building_l": "0", "adresse": "Rue de Melillia", "addr:city": "Témara تمارة", "addr:postcode": "12000" }, "geometry": { "type": "Point", "coordinates": [ -6.8913652, 33.9201295 ] } },
{ "type": "Feature", "properties": { "addr_stree": "0", "amenity": "pharmacy", "addr_city": "0", "addr_house": "0", "addr_postc": "0", "dispensing": "yes", "healthcare": "pharmacy", "name": "Pharmacie El Mostaocef صيدلية المستوصف", "operator": "Ph PMS", "drive_thro": "0", "name_ar": "0", "addr_city_": "0", "name_fr": "0", "opening_ho": "0", "addr_cit_1": "0", "name_es": "0", "building_l": "0", "addr:city": "Témara تمارة", "addr:postcode": "12000" }, "geometry": { "type": "Point", "coordinates": [ -6.8940202, 33.9177626 ] } },
{ "type": "Feature", "properties": { "addr_stree": "0", "amenity": "pharmacy", "addr_city": "0", "addr_house": "0", "addr_postc": "0", "dispensing": "yes", "healthcare": "pharmacy", "name": "Pharmacie Soundous صيدلية سندس", "operator": "Ph PSD", "drive_thro": "0", "name_ar": "0", "addr_city_": "0", "name_fr": "0", "opening_ho": "0", "addr_cit_1": "0", "name_es": "0", "building_l": "0", "addr:city": "Témara تمارة", "addr:postcode": "12000" }, "geometry": { "type": "Point", "coordinates": [ -6.8849284, 33.9371878 ] } },
{ "type": "Feature", "properties": { "addr_stree": "0", "amenity": "pharmacy", "addr_city": "0", "addr_house": "0", "addr_postc": "0", "dispensing": "yes", "healthcare": "pharmacy", "name": "Pharmacie Narjis صيدلية النرجس", "operator": "Ph PNJ", "drive_thro": "0", "name_ar": "0", "addr_city_": "0", "name_fr": "0", "opening_ho": "0", "addr_cit_1": "0", "name_es": "0", "building_l": "0", "addr:city": "Témara", "addr:postcode": "12000" }, "geometry": { "type": "Point", "coordinates": [ -6.8844553, 33.9405698 ] } },
{ "type": "Feature", "properties": { "addr_stree": "0", "amenity": "pharmacy", "addr_city": "0", "addr_house": "0", "addr_postc": "0", "dispensing": "yes", "healthcare": "pharmacy", "name": "Pharmacie Al Mamoune صيدلية المامون", "operator": "Ph PMN", "drive_thro": "0", "name_ar": "0", "addr_city_": "0", "name_fr": "0", "opening_ho": "0", "addr_cit_1": "0", "name_es": "0", "building_l": "0", "addr:city": "Témara تمارة", "addr:postcode": "12000" }, "geometry": { "type": "Point", "coordinates": [ -6.8834139, 33.9427007 ] } },
{ "type": "Feature", "properties": { "addr_stree": "0", "amenity": "pharmacy", "addr_city": "0", "addr_house": "0", "addr_postc": "0", "dispensing": "yes", "healthcare": "pharmacy", "name": "Pharmacie Erraha صيدلية الراحة", "operator": "Ph PRH", "drive_thro": "0", "name_ar": "0", "addr_city_": "0", "name_fr": "0", "opening_ho": "0", "addr_cit_1": "0", "name_es": "0", "building_l": "0", "addr:city": "Témara تمارة", "addr:postcode": "12000" }, "geometry": { "type": "Point", "coordinates": [ -6.8862505, 33.9423669 ] } },
{ "type": "Feature", "properties": { "addr_stree": "0", "amenity": "pharmacy", "addr_city": "0", "addr_house": "0", "addr_postc": "0", "dispensing": "yes", "healthcare": "pharmacy", "name": "Pharmacie Azur صيدلية أزور", "operator": "Ph PAZ", "drive_thro": "0", "name_ar": "0", "addr_city_": "0", "name_fr": "0", "opening_ho": "0", "addr_cit_1": "0", "name_es": "0", "building_l": "0", "addr:city": "Témara تمارة", "addr:postcode": "12000" }, "geometry": { "type": "Point", "coordinates": [ -6.8876555, 33.9364125 ] } },
{ "type": "Feature", "properties": { "addr_stree": "0", "amenity": "pharmacy", "addr_city": "0", "addr_house": "0", "addr_postc": "0", "dispensing": "yes", "healthcare": "pharmacy", "name": "Pharmacie Rim صيدلية ريم", "operator": "Ph PRM", "drive_thro": "0", "name_ar": "0", "addr_city_": "0", "name_fr": "0", "opening_ho": "0", "addr_cit_1": "0", "name_es": "0", "building_l": "0", "addr:city": "Témara تمارة", "addr:postcode": "12000" }, "geometry": { "type": "Point", "coordinates": [ -6.8877409, 33.9403017 ] } },
{ "type": "Feature", "properties": { "addr_stree": "0", "amenity": "pharmacy", "addr_city": "0", "addr_house": "0", "addr_postc": "0", "dispensing": "yes", "healthcare": "pharmacy", "name": "Pharmacie El Guich صيدلية الكيش", "operator": "Ph PGC", "drive_thro": "0", "name_ar": "0", "addr_city_": "0", "name_fr": "0", "opening_ho": "0", "addr_cit_1": "0", "name_es": "0", "building_l": "0", "addr:city": "Témara تمارة", "addr:postcode": "12000" }, "geometry": { "type": "Point", "coordinates": [ -6.8866628, 33.9389333 ] } },
{ "type": "Feature", "properties": { "addr_stree": "0", "amenity": "pharmacy", "addr_city": "0", "addr_house": "0", "addr_postc": "0", "dispensing": "yes", "healthcare": "pharmacy", "name": "Pharmacie des Cités صيدلية الإقامات", "operator": "Ph PCT", "drive_thro": "0", "name_ar": "0", "addr_city_": "0", "name_fr": "0", "opening_ho": "0", "addr_cit_1": "0", "name_es": "0", "building_l": "0", "addr:city": "Témara تمارة", "addr:postcode": "12000" }, "geometry": { "type": "Point", "coordinates": [ -6.8933101, 33.9371887 ] } },
{ "type": "Feature", "properties": { "addr_stree": "0", "amenity": "pharmacy", "addr_city": "0", "addr_house": "0", "addr_postc": "0", "dispensing": "yes", "healthcare": "pharmacy", "name": "Pharmacie Al Anouar صيدلية الأنوار", "operator": "Ph PAN", "drive_thro": "0", "name_ar": "0", "addr_city_": "0", "name_fr": "0", "opening_ho": "0", "addr_cit_1": "0", "name_es": "0", "building_l": "0", "addr:city": "Témara تمارة", "addr:postcode": "12000" }, "geometry": { "type": "Point", "coordinates": [ -6.8911083, 33.9390192 ] } },
{ "type": "Feature", "properties": { "addr_stree": "0", "amenity": "pharmacy", "addr_city": "0", "addr_house": "0", "addr_postc": "0", "dispensing": "yes", "healthcare": "pharmacy", "name": "Pharmacie Granada صيدلية غرناطة", "operator": "Ph PGN", "drive_thro": "0", "name_ar": "0", "addr_city_": "0", "name_fr": "0", "opening_ho": "0", "addr_cit_1": "0", "name_es": "0", "building_l": "0", "addr:city": "Témara تمارة", "addr:postcode": "12000" }, "geometry": { "type": "Point", "coordinates": [ -6.8951207, 33.9386033 ] } },
{ "type": "Feature", "properties": { "addr_stree": "0", "amenity": "pharmacy", "addr_city": "0", "addr_house": "0", "addr_postc": "0", "dispensing": "yes", "healthcare": "pharmacy", "name": "Pharmacie la Source صيدلية المنبع", "operator": "Ph PSR", "drive_thro": "0", "name_ar": "0", "addr_city_": "0", "name_fr": "0", "opening_ho": "0", "addr_cit_1": "0", "name_es": "0", "building_l": "0", "addr:city": "Témara تمارة", "addr:postcode": "12000" }, "geometry": { "type": "Point", "coordinates": [ -6.8919746, 33.9344817 ] } },
{ "type": "Feature", "properties": { "addr_stree": "0", "amenity": "pharmacy", "addr_city": "0", "addr_house": "0", "addr_postc": "0", "dispensing": "yes", "healthcare": "pharmacy", "name": "Pharmacie Anassiha صيدلية النصيحة", "operator": "Ph PSH", "drive_thro": "0", "name_ar": "0", "addr_city_": "0", "name_fr": "0", "opening_ho": "0", "addr_cit_1": "0", "name_es": "0", "building_l": "0", "addr:city": "Témara تمارة", "addr:postcode": "12000" }, "geometry": { "type": "Point", "coordinates": [ -6.9004563, 33.9410053 ] } },
{ "type": "Feature", "properties": { "addr_stree": "0", "amenity": "pharmacy", "addr_city": "0", "addr_house": "0", "addr_postc": "0", "dispensing": "yes", "healthcare": "pharmacy", "name": "Pharmacie Al Masjid صيدلية المسجد", "operator": "Ph PMS", "drive_thro": "0", "name_ar": "0", "addr_city_": "0", "name_fr": "0", "opening_ho": "0", "addr_cit_1": "0", "name_es": "0", "building_l": "0", "addr:city": "Témara تمارة", "addr:postcode": "12000" }, "geometry": { "type": "Point", "coordinates": [ -6.8975602, 33.9416153 ] } },
{ "type": "Feature", "properties": { "addr_stree": "0", "amenity": "pharmacy", "addr_city": "0", "addr_house": "0", "addr_postc": "0", "dispensing": "yes", "healthcare": "pharmacy", "name": "Pharmacie Al Mouhafada صيدلية المحافظة", "operator": "Ph PMF", "drive_thro": "0", "name_ar": "0", "addr_city_": "0", "name_fr": "0", "opening_ho": "0", "addr_cit_1": "0", "name_es": "0", "building_l": "0", "addr:city": "Témara تمارة", "addr:postcode": "12000" }, "geometry": { "type": "Point", "coordinates": [ -6.8948429, 33.9334471 ] } },
{ "type": "Feature", "properties": { "addr_stree": "0", "amenity": "pharmacy", "addr_city": "0", "addr_house": "0", "addr_postc": "0", "dispensing": "yes", "healthcare": "pharmacy", "name": "Pharmacie Al Farabi صيدلية الفرابي", "operator": "Ph PFB", "drive_thro": "0", "name_ar": "0", "addr_city_": "0", "name_fr": "0", "opening_ho": "0", "addr_cit_1": "0", "name_es": "0", "building_l": "0", "addr:city": "Témara تمارة", "addr:postcode": "12000" }, "geometry": { "type": "Point", "coordinates": [ -6.8982848, 33.9366248 ] } },
{ "type": "Feature", "properties": { "addr_stree": "0", "amenity": "pharmacy", "addr_city": "0", "addr_house": "0", "addr_postc": "0", "dispensing": "yes", "healthcare": "pharmacy", "name": "Pharmacie Moulay Idriss صيدلية مولاي إدريس", "operator": "Ph PMD", "drive_thro": "0", "name_ar": "0", "addr_city_": "0", "name_fr": "0", "opening_ho": "0", "addr_cit_1": "0", "name_es": "0", "building_l": "0", "addr:city": "Témara تمارة", "addr:postcode": "12000" }, "geometry": { "type": "Point", "coordinates": [ -6.8980801, 33.9327124 ] } },
{ "type": "Feature", "properties": { "addr_stree": "0", "amenity": "pharmacy", "addr_city": "0", "addr_house": "0", "addr_postc": "0", "dispensing": "yes", "healthcare": "pharmacy", "name": "Pharmacie Bahia صيدلية باهية", "operator": "Ph PBH", "drive_thro": "0", "name_ar": "0", "addr_city_": "0", "name_fr": "0", "opening_ho": "0", "addr_cit_1": "0", "name_es": "0", "building_l": "0", "adresse": "Avenue Moulay Idriss Ier", "addr:city": "Témara تمارة", "addr:housenumber": "170", "addr:postcode": "12000" }, "geometry": { "type": "Point", "coordinates": [ -6.8992114, 33.9300581 ] } },
{ "type": "Feature", "properties": { "addr_stree": "0", "amenity": "pharmacy", "addr_city": "0", "addr_house": "0", "addr_postc": "0", "dispensing": "yes", "healthcare": "pharmacy", "name": "Pharmacie Bouarouss صيدلية بوعروس", "operator": "Ph PBR", "drive_thro": "0", "name_ar": "0", "addr_city_": "0", "name_fr": "0", "opening_ho": "0", "addr_cit_1": "0", "name_es": "0", "building_l": "0", "addr:city": "Témara تمارة", "addr:postcode": "12000" }, "geometry": { "type": "Point", "coordinates": [ -6.9014276, 33.9312391 ] } },
{ "type": "Feature", "properties": { "addr_stree": "0", "amenity": "pharmacy", "addr_city": "0", "addr_house": "0", "addr_postc": "0", "dispensing": "yes", "healthcare": "pharmacy", "name": "Pharmacie Ibn Nafiss صيدلية ابن النفيس", "operator": "Ph PIN", "drive_thro": "0", "name_ar": "0", "addr_city_": "0", "name_fr": "0", "opening_ho": "0", "addr_cit_1": "0", "name_es": "0", "building_l": "0", "adresse": "Boulevard Moulay Ali Cherif", "addr:city": "Témara تمارة", "addr:postcode": "12000" }, "geometry": { "type": "Point", "coordinates": [ -6.9039631, 33.9305512 ] } },
{ "type": "Feature", "properties": { "addr_stree": "0", "amenity": "pharmacy", "addr_city": "0", "addr_house": "0", "addr_postc": "0", "dispensing": "yes", "healthcare": "pharmacy", "name": "Pharmacie Moulay Ali Cherif صيدلية مولاي علي الشريف", "operator": "Ph PMA", "drive_thro": "0", "name_ar": "0", "addr_city_": "0", "name_fr": "0", "opening_ho": "0", "addr_cit_1": "0", "name_es": "0", "building_l": "0", "adresse": "Boulevard Moulay Ali Cherif", "addr:city": "Témara", "addr:postcode": "12000" }, "geometry": { "type": "Point", "coordinates": [ -6.9071789, 33.9327517 ] } },
{ "type": "Feature", "properties": { "addr_stree": "0", "amenity": "pharmacy", "addr_city": "0", "addr_house": "0", "addr_postc": "0", "dispensing": "yes", "healthcare": "pharmacy", "name": "Pharmacie Jardins des Oudaya صيدلية حدائق الوداية", "operator": "Ph PJO", "drive_thro": "0", "name_ar": "0", "addr_city_": "0", "name_fr": "0", "opening_ho": "0", "addr_cit_1": "0", "name_es": "0", "building_l": "0", "adresse": "Boulevard Sahl Rhône", "addr:city": "Témara تمارة", "addr:postcode": "12000" }, "geometry": { "type": "Point", "coordinates": [ -6.8991335, 33.9393475 ] } },
{ "type": "Feature", "properties": { "addr_stree": "0", "amenity": "pharmacy", "addr_city": "0", "addr_house": "0", "addr_postc": "0", "dispensing": "yes", "healthcare": "pharmacy", "name": "Pharmacie Al Hiba صيدلية الهبة", "operator": "Ph PHB", "drive_thro": "0", "name_ar": "0", "addr_city_": "0", "name_fr": "0", "opening_ho": "0", "addr_cit_1": "0", "name_es": "0", "building_l": "0", "addr:city": "Témara", "addr:postcode": "12000" }, "geometry": { "type": "Point", "coordinates": [ -6.9020855, 33.9337937 ] } },
{ "type": "Feature", "properties": { "addr_stree": "0", "amenity": "pharmacy", "addr_city": "0", "addr_house": "0", "addr_postc": "0", "dispensing": "yes", "healthcare": "pharmacy", "name": "Pharmacie Beni Hachem صيدلية بني هاشم", "operator": "Ph PBH", "drive_thro": "0", "name_ar": "0", "addr_city_": "0", "name_fr": "0", "opening_ho": "0", "addr_cit_1": "0", "name_es": "0", "building_l": "0", "addr:city": "Témara", "addr:postcode": "12000" }, "geometry": { "type": "Point", "coordinates": [ -6.9064874, 33.9357349 ] } },
{ "type": "Feature", "properties": { "addr_stree": "0", "amenity": "pharmacy", "addr_city": "0", "addr_house": "0", "addr_postc": "0", "dispensing": "yes", "healthcare": "pharmacy", "name": "Pharmacie Macha Allah صيدلية ما شاء الله", "operator": "Ph PMA", "drive_thro": "0", "name_ar": "0", "addr_city_": "0", "name_fr": "0", "opening_ho": "0", "addr_cit_1": "0", "name_es": "0", "building_l": "0", "addr:city": "Témara", "addr:postcode": "12000" }, "geometry": { "type": "Point", "coordinates": [ -6.9097087, 33.9343147 ] } },
{ "type": "Feature", "properties": { "addr_stree": "0", "amenity": "pharmacy", "addr_city": "0", "addr_house": "0", "addr_postc": "0", "dispensing": "yes", "healthcare": "pharmacy", "name": "Pharmacie El Massira صيدلية المسيرة", "operator": "Ph PMS", "drive_thro": "0", "name_ar": "0", "addr_city_": "0", "name_fr": "0", "opening_ho": "0", "addr_cit_1": "0", "name_es": "0", "building_l": "0", "addr:city": "Témara تمارة", "addr:postcode": "12000" }, "geometry": { "type": "Point", "coordinates": [ -6.8957097, 33.9286568 ] } },
{ "type": "Feature", "properties": { "addr_stree": "0", "amenity": "pharmacy", "addr_city": "0", "addr_house": "0", "addr_postc": "0", "dispensing": "yes", "healthcare": "pharmacy", "name": "Pharmacie Al Ihssan صيدلية الإحسان", "operator": "Ph PHS", "drive_thro": "0", "name_ar": "0", "addr_city_": "0", "name_fr": "0", "opening_ho": "0", "addr_cit_1": "0", "name_es": "0", "building_l": "0", "addr:city": "Témara تمارة", "addr:postcode": "12000" }, "geometry": { "type": "Point", "coordinates": [ -6.8932609, 33.9303761 ] } },
{ "type": "Feature", "properties": { "addr_stree": "0", "amenity": "pharmacy", "addr_city": "0", "addr_house": "0", "addr_postc": "0", "dispensing": "yes", "healthcare": "pharmacy", "name": "Pharmacie Al Fajr صيدلية الفجر", "operator": "Ph PFJ", "drive_thro": "0", "name_ar": "0", "addr_city_": "0", "name_fr": "0", "opening_ho": "0", "addr_cit_1": "0", "name_es": "0", "building_l": "0", "adresse": "Boulevard Moulay Ali Cherif", "addr:city": "Témara تمارة", "addr:postcode": "12000" }, "geometry": { "type": "Point", "coordinates": [ -6.8967799, 33.927296 ] } },
{ "type": "Feature", "properties": { "addr_stree": "0", "amenity": "pharmacy", "addr_city": "0", "addr_house": "0", "addr_postc": "0", "dispensing": "yes", "healthcare": "pharmacy", "name": "Pharmacie 2000 صيدلية", "operator": "Ph P20", "drive_thro": "0", "name_ar": "0", "addr_city_": "0", "name_fr": "0", "opening_ho": "0", "addr_cit_1": "0", "name_es": "0", "building_l": "0", "adresse": "Boulevard Moulay Ali Cherif", "addr:city": "Témara تمارة", "addr:postcode": "12000" }, "geometry": { "type": "Point", "coordinates": [ -6.9000699, 33.9287041 ] } },
{ "type": "Feature", "properties": { "addr_stree": "0", "amenity": "pharmacy", "addr_city": "0", "addr_house": "0", "addr_postc": "0", "dispensing": "yes", "healthcare": "pharmacy", "name": "Pharmacie El Qods صيدلية القدس", "operator": "Ph PQD", "drive_thro": "0", "name_ar": "0", "addr_city_": "0", "name_fr": "0", "opening_ho": "0", "addr_cit_1": "0", "name_es": "0", "building_l": "0", "addr:city": "Témara", "addr:postcode": "12000" }, "geometry": { "type": "Point", "coordinates": [ -6.901968, 33.9266607 ] } },
{ "type": "Feature", "properties": { "addr_stree": "0", "amenity": "pharmacy", "addr_city": "0", "addr_house": "0", "addr_postc": "0", "dispensing": "yes", "healthcare": "pharmacy", "name": "Pharmacie Leila صيدلية ليلى", "operator": "Ph PLL", "drive_thro": "0", "name_ar": "0", "addr_city_": "0", "name_fr": "0", "opening_ho": "0", "addr_cit_1": "0", "name_es": "0", "building_l": "0", "addr:city": "Témara تمارة", "addr:postcode": "12000" }, "geometry": { "type": "Point", "coordinates": [ -6.8994468, 33.9254898 ] } },
{ "type": "Feature", "properties": { "addr_stree": "0", "amenity": "pharmacy", "addr_city": "0", "addr_house": "0", "addr_postc": "0", "dispensing": "yes", "healthcare": "pharmacy", "name": "Pharmacie du Centre صيدلية المركز", "operator": "Ph PH2", "drive_thro": "0", "name_ar": "0", "addr_city_": "0", "name_fr": "0", "opening_ho": "0", "addr_cit_1": "0", "name_es": "0", "building_l": "0", "adresse": "Avenue Hassan II شارع الحسن الثاني", "addr:city": "Témara تمارة", "addr:postcode": "12000", "name:ar": "صيدلية المركز", "name:fr": "Pharmacie du Centre", "addr:city:es": "Temara", "name:es": "Farmacia del Centro" }, "geometry": { "type": "Point", "coordinates": [ -6.917565, 33.9245592 ] } },
{ "type": "Feature", "properties": { "addr_stree": "0", "amenity": "pharmacy", "addr_city": "0", "addr_house": "0", "addr_postc": "0", "dispensing": "yes", "healthcare": "pharmacy", "name": "Pharmacie du Marché صيدلية السوق", "operator": "Ph PMR", "drive_thro": "0", "name_ar": "0", "addr_city_": "0", "name_fr": "0", "opening_ho": "0", "addr_cit_1": "0", "name_es": "0", "building_l": "0", "adresse": "Avenue Mohamed V", "addr:city": "Témara", "addr:postcode": "12000" }, "geometry": { "type": "Point", "coordinates": [ -6.9079699, 33.9281315 ] } },
{ "type": "Feature", "properties": { "addr_stree": "0", "amenity": "pharmacy", "addr_city": "0", "addr_house": "0", "addr_postc": "0", "dispensing": "yes", "healthcare": "pharmacy", "name": "Pharmacie Houdaya صيدلية هوداية", "operator": "Ph PHD", "drive_thro": "0", "name_ar": "0", "addr_city_": "0", "name_fr": "0", "opening_ho": "0", "addr_cit_1": "0", "name_es": "0", "building_l": "0", "addr:city": "Témara تمارة", "addr:postcode": "12000" }, "geometry": { "type": "Point", "coordinates": [ -6.9095421, 33.921258 ] } },
{ "type": "Feature", "properties": { "addr_stree": "0", "amenity": "pharmacy", "addr_city": "0", "addr_house": "0", "addr_postc": "0", "dispensing": "yes", "healthcare": "pharmacy", "name": "Pharmacie El Moumen صيدلية المومن", "operator": "Ph PMN", "drive_thro": "0", "name_ar": "0", "addr_city_": "0", "name_fr": "0", "opening_ho": "0", "addr_cit_1": "0", "name_es": "0", "building_l": "0", "adresse": "Avenue Mohemed Zerktouni", "addr:city": "Témara", "addr:housenumber": "28", "addr:postcode": "12000" }, "geometry": { "type": "Point", "coordinates": [ -6.9086836, 33.9250446 ] } },
{ "type": "Feature", "properties": { "addr_stree": "0", "amenity": "pharmacy", "addr_city": "0", "addr_house": "0", "addr_postc": "0", "dispensing": "yes", "healthcare": "pharmacy", "name": "Pharmacie Moulay Slimane صيدلية مولاي سليمان", "operator": "Ph PMS", "drive_thro": "0", "name_ar": "0", "addr_city_": "0", "name_fr": "0", "opening_ho": "0", "addr_cit_1": "0", "name_es": "0", "building_l": "0", "addr:city": "Témara تمارة", "addr:postcode": "12000" }, "geometry": { "type": "Point", "coordinates": [ -6.9051324, 33.9234948 ] } },
{ "type": "Feature", "properties": { "addr_stree": "0", "amenity": "pharmacy", "addr_city": "0", "addr_house": "0", "addr_postc": "0", "dispensing": "yes", "healthcare": "pharmacy", "name": "Pharmacie Bakkali صيدلية البقالي", "operator": "Ph PBK", "drive_thro": "0", "name_ar": "0", "addr_city_": "0", "name_fr": "0", "opening_ho": "0", "addr_cit_1": "0", "name_es": "0", "building_l": "0", "adresse": "Avenue Allal Ben Abdellah", "addr:city": "Témara", "addr:postcode": "12000" }, "geometry": { "type": "Point", "coordinates": [ -6.9057074, 33.9263421 ] } },
{ "type": "Feature", "properties": { "addr_stree": "0", "amenity": "pharmacy", "addr_city": "0", "addr_house": "0", "addr_postc": "0", "dispensing": "yes", "healthcare": "pharmacy", "name": "Pharmacie Nahda صيدلية النهضة", "operator": "Ph PNH", "drive_thro": "0", "name_ar": "0", "addr_city_": "0", "name_fr": "0", "opening_ho": "0", "addr_cit_1": "0", "name_es": "0", "building_l": "0", "adresse": "Avenue Mohamed Zerktouni", "addr:city": "Témara تمارة", "addr:postcode": "12000" }, "geometry": { "type": "Point", "coordinates": [ -6.9030973, 33.9210433 ] } },
{ "type": "Feature", "properties": { "addr_stree": "0", "amenity": "pharmacy", "addr_city": "0", "addr_house": "0", "addr_postc": "0", "dispensing": "yes", "healthcare": "pharmacy", "name": "Pharmacie Tarik Ibn Ziad صيدلية طارق بن زياد", "operator": "Ph PTZ", "drive_thro": "0", "name_ar": "0", "addr_city_": "0", "name_fr": "0", "opening_ho": "0", "addr_cit_1": "0", "name_es": "0", "building_l": "0", "adresse": "Avenue Tarik Ibn Ziad شارع طارق بن زياد", "addr:city": "Témara تمارة", "addr:postcode": "12000" }, "geometry": { "type": "Point", "coordinates": [ -6.9031235, 33.9186575 ] } },
{ "type": "Feature", "properties": { "addr_stree": "0", "amenity": "pharmacy", "addr_city": "0", "addr_house": "0", "addr_postc": "0", "dispensing": "yes", "healthcare": "pharmacy", "name": "Pharmacie Al Khiam صيدلية الخيام", "operator": "Ph PKM", "drive_thro": "0", "name_ar": "0", "addr_city_": "0", "name_fr": "0", "opening_ho": "0", "addr_cit_1": "0", "name_es": "0", "building_l": "0", "adresse": "Avenue Moulay Rachid", "addr:city": "Témara تمارة", "addr:postcode": "12000" }, "geometry": { "type": "Point", "coordinates": [ -6.9053563, 33.9187178 ] } },
{ "type": "Feature", "properties": { "addr_stree": "0", "amenity": "pharmacy", "addr_city": "0", "addr_house": "0", "addr_postc": "0", "dispensing": "yes", "healthcare": "pharmacy", "name": "Pharmacie de Prestige صيدلية المجد", "operator": "Ph PMJ", "drive_thro": "0", "name_ar": "0", "addr_city_": "0", "name_fr": "0", "opening_ho": "0", "addr_cit_1": "0", "name_es": "0", "building_l": "0", "addr:city": "Témara تمارة", "addr:postcode": "12000" }, "geometry": { "type": "Point", "coordinates": [ -6.906389, 33.9207794 ] } },
{ "type": "Feature", "properties": { "addr_stree": "0", "amenity": "pharmacy", "addr_city": "0", "addr_house": "0", "addr_postc": "0", "dispensing": "yes", "healthcare": "pharmacy", "name": "Pharmacie Témara صيدلية تمارة", "operator": "Ph PTM", "drive_thro": "0", "name_ar": "0", "addr_city_": "0", "name_fr": "0", "opening_ho": "0", "addr_cit_1": "0", "name_es": "0", "building_l": "0", "addr:city": "Témara تمارة", "addr:postcode": "12000", "name:ar": "صيدلية تمارة", "name:fr": "Pharmacie Témara", "addr:city:es": "Temara", "name:es": "Farmacia Temara" }, "geometry": { "type": "Point", "coordinates": [ -6.9172712, 33.9252812 ] } },
{ "type": "Feature", "properties": { "addr_stree": "0", "amenity": "pharmacy", "addr_city": "0", "addr_house": "0", "addr_postc": "0", "dispensing": "yes", "healthcare": "pharmacy", "name": "Pharmacie Hatim صيدلية حاتم", "operator": "Ph PHT", "drive_thro": "0", "name_ar": "0", "addr_city_": "0", "name_fr": "0", "opening_ho": "0", "addr_cit_1": "0", "name_es": "0", "building_l": "0", "adresse": "Avenue Tarik Ibn Ziad شارع طارق بن زياد", "addr:city": "Témara تمارة", "addr:postcode": "12000" }, "geometry": { "type": "Point", "coordinates": [ -6.9064637, 33.9160794 ] } },
{ "type": "Feature", "properties": { "addr_stree": "0", "amenity": "pharmacy", "addr_city": "0", "addr_house": "0", "addr_postc": "0", "dispensing": "yes", "healthcare": "pharmacy", "name": "Pharmacie Aredouane صيدلية الرضوان", "operator": "Ph PRD", "drive_thro": "0", "name_ar": "0", "addr_city_": "0", "name_fr": "0", "opening_ho": "0", "addr_cit_1": "0", "name_es": "0", "building_l": "0", "addr:city": "Témara تمارة", "addr:postcode": "12000" }, "geometry": { "type": "Point", "coordinates": [ -6.9088554, 33.9189754 ] } },
{ "type": "Feature", "properties": { "addr_stree": "0", "amenity": "pharmacy", "addr_city": "0", "addr_house": "0", "addr_postc": "0", "dispensing": "yes", "healthcare": "pharmacy", "name": "Pharmacie Nouvelle الصيدلية الجديدة", "operator": "Ph PNV", "drive_thro": "0", "name_ar": "0", "addr_city_": "0", "name_fr": "0", "opening_ho": "0", "addr_cit_1": "0", "name_es": "0", "building_l": "0", "adresse": "Rue Hassan", "addr:city": "Témara تمارة", "addr:postcode": "12000", "name:ar": "الصيدلية الجديدة", "name:fr": "Pharmacie Nouvelle", "name:es": "Nueva Farmacia" }, "geometry": { "type": "Point", "coordinates": [ -6.9124989, 33.9211395 ] } },
{ "type": "Feature", "properties": { "addr_stree": "0", "amenity": "pharmacy", "addr_city": "0", "addr_house": "0", "addr_postc": "0", "dispensing": "yes", "healthcare": "pharmacy", "name": "Pharmacie Fathallah صيدلية فتح الله", "operator": "Ph PFL", "drive_thro": "0", "name_ar": "0", "addr_city_": "0", "name_fr": "0", "opening_ho": "0", "addr_cit_1": "0", "name_es": "0", "building_l": "0", "addr:city": "Témara تمارة", "addr:postcode": "12000" }, "geometry": { "type": "Point", "coordinates": [ -6.9093014, 33.9160241 ] } },
{ "type": "Feature", "properties": { "addr_stree": "0", "amenity": "pharmacy", "addr_city": "0", "addr_house": "0", "addr_postc": "0", "dispensing": "yes", "healthcare": "pharmacy", "name": "Pharmacie Al Fouarat صيدلية الفوارات", "operator": "Ph PFR", "drive_thro": "0", "name_ar": "0", "addr_city_": "0", "name_fr": "0", "opening_ho": "0", "addr_cit_1": "0", "name_es": "0", "building_l": "0", "adresse": "Avenue Tarik Ibn Ziad شارع طارق بن زياد", "addr:city": "Témara تمارة", "addr:postcode": "12000" }, "geometry": { "type": "Point", "coordinates": [ -6.9107743, 33.9130534 ] } },
{ "type": "Feature", "properties": { "addr_stree": "0", "amenity": "pharmacy", "addr_city": "0", "addr_house": "0", "addr_postc": "0", "dispensing": "yes", "healthcare": "pharmacy", "name": "Pharmacie Labchir صيدلية لبشير", "operator": "Ph PLB", "drive_thro": "0", "name_ar": "0", "addr_city_": "0", "name_fr": "0", "opening_ho": "0", "addr_cit_1": "0", "name_es": "0", "building_l": "0", "adresse": "Avenue Abdelkrim Al Khattabi", "addr:city": "Témara", "addr:postcode": "12000" }, "geometry": { "type": "Point", "coordinates": [ -6.9120998, 33.9156295 ] } },
{ "type": "Feature", "properties": { "addr_stree": "0", "amenity": "pharmacy", "addr_city": "0", "addr_house": "0", "addr_postc": "0", "dispensing": "yes", "healthcare": "pharmacy", "name": "Pharmacie Abi Houraira صيدلية أبي هريرة", "operator": "Ph PAH", "drive_thro": "0", "name_ar": "0", "addr_city_": "0", "name_fr": "0", "opening_ho": "0", "addr_cit_1": "0", "name_es": "0", "building_l": "0", "adresse": "Avenue du Caire", "addr:city": "Témara تمارة", "addr:housenumber": "15", "addr:postcode": "12000" }, "geometry": { "type": "Point", "coordinates": [ -6.9155249, 33.9107831 ] } },
{ "type": "Feature", "properties": { "addr_stree": "0", "amenity": "pharmacy", "addr_city": "0", "addr_house": "0", "addr_postc": "0", "dispensing": "yes", "healthcare": "pharmacy", "name": "Pharmacie les Urgences صيدلية المستعجلات", "operator": "Ph PUG", "drive_thro": "0", "name_ar": "0", "addr_city_": "0", "name_fr": "0", "opening_ho": "0", "addr_cit_1": "0", "name_es": "0", "building_l": "0", "addr:city": "Témara تمارة", "addr:postcode": "12000" }, "geometry": { "type": "Point", "coordinates": [ -6.9132135, 33.910824 ] } },
{ "type": "Feature", "properties": { "addr_stree": "0", "amenity": "pharmacy", "addr_city": "0", "addr_house": "0", "addr_postc": "0", "dispensing": "yes", "healthcare": "pharmacy", "name": "Pharmacie Essalama صيدلية السلامة", "operator": "Ph PSM", "drive_thro": "0", "name_ar": "0", "addr_city_": "0", "name_fr": "0", "opening_ho": "0", "addr_cit_1": "0", "name_es": "0", "building_l": "0", "adresse": "Avenue Mohamed V شارع محمد الخامس", "addr:city": "Témara تمارة", "addr:housenumber": "2", "addr:postcode": "12000" }, "geometry": { "type": "Point", "coordinates": [ -6.9138331, 33.9233742 ] } },
{ "type": "Feature", "properties": { "addr_stree": "0", "amenity": "pharmacy", "addr_city": "0", "addr_house": "0", "addr_postc": "0", "dispensing": "yes", "healthcare": "pharmacy", "name": "Pharmacie Hay Al Azrak صيدلية حي الأزرق", "operator": "Ph PAZ", "drive_thro": "0", "name_ar": "0", "addr_city_": "0", "name_fr": "0", "opening_ho": "0", "addr_cit_1": "0", "name_es": "0", "building_l": "0", "addr:city": "Témara تمارة", "addr:postcode": "12000" }, "geometry": { "type": "Point", "coordinates": [ -6.9162382, 33.922906 ] } },
{ "type": "Feature", "properties": { "addr_stree": "0", "amenity": "pharmacy", "addr_city": "0", "addr_house": "0", "addr_postc": "0", "dispensing": "yes", "healthcare": "pharmacy", "name": "Pharmacie et Laboratoire Chifaa صيدلية و مختبر الشفاء", "operator": "Ph PLC", "drive_thro": "0", "name_ar": "0", "addr_city_": "0", "name_fr": "0", "opening_ho": "0", "addr_cit_1": "0", "name_es": "0", "building_l": "0", "adresse": "Avenue Hassan II شارع الحسن الثاني", "addr:city": "Témara", "addr:housenumber": "4", "addr:postcode": "12000" }, "geometry": { "type": "Point", "coordinates": [ -6.9199735, 33.9221981 ] } },
{ "type": "Feature", "properties": { "addr_stree": "0", "amenity": "pharmacy", "addr_city": "0", "addr_house": "0", "addr_postc": "0", "dispensing": "yes", "healthcare": "pharmacy", "name": "Pharmacie Al Maarifa صيدلية المعرفة", "operator": "Ph PMR", "drive_thro": "0", "name_ar": "0", "addr_city_": "0", "name_fr": "0", "opening_ho": "0", "addr_cit_1": "0", "name_es": "0", "building_l": "0", "addr:city": "Témara ⵜⵎⴰⵔⴰ تمارة", "addr:postcode": "12000" }, "geometry": { "type": "Point", "coordinates": [ -6.9224901, 33.9153701 ] } },
{ "type": "Feature", "properties": { "addr_stree": "0", "amenity": "pharmacy", "addr_city": "0", "addr_house": "0", "addr_postc": "0", "dispensing": "yes", "healthcare": "pharmacy", "name": "Pharmacie Al Afaq صيدلية الاًفاق", "operator": "Ph PAQ", "drive_thro": "0", "name_ar": "0", "addr_city_": "0", "name_fr": "0", "opening_ho": "0", "addr_cit_1": "0", "name_es": "0", "building_l": "0", "addr:city": "Témara", "addr:postcode": "12000" }, "geometry": { "type": "Point", "coordinates": [ -6.9195283, 33.911779 ] } },
{ "type": "Feature", "properties": { "addr_stree": "0", "amenity": "pharmacy", "addr_city": "0", "addr_house": "0", "addr_postc": "0", "dispensing": "yes", "healthcare": "pharmacy", "name": "Pharmacie Mosquée Zahra صيدلية مسجد الزهراء", "operator": "Ph PMZ", "drive_thro": "0", "name_ar": "0", "addr_city_": "0", "name_fr": "0", "opening_ho": "0", "addr_cit_1": "0", "name_es": "0", "building_l": "0", "adresse": "Avenue Hassan I شارع الحسن الأول", "addr:city": "Témara تمارة", "addr:housenumber": "21", "addr:postcode": "12000" }, "geometry": { "type": "Point", "coordinates": [ -6.9219571, 33.9112587 ] } },
{ "type": "Feature", "properties": { "addr_stree": "0", "amenity": "pharmacy", "addr_city": "0", "addr_house": "0", "addr_postc": "0", "dispensing": "yes", "healthcare": "pharmacy", "name": "Pharmacie Khizrane صيدلية خيزران", "operator": "Ph PKZ", "drive_thro": "0", "name_ar": "0", "addr_city_": "0", "name_fr": "0", "opening_ho": "0", "addr_cit_1": "0", "name_es": "0", "building_l": "0", "addr:city": "Témara تمارة", "addr:postcode": "12000" }, "geometry": { "type": "Point", "coordinates": [ -6.9142993, 33.9183439 ] } },
{ "type": "Feature", "properties": { "addr_stree": "0", "amenity": "pharmacy", "addr_city": "0", "addr_house": "0", "addr_postc": "0", "dispensing": "yes", "healthcare": "pharmacy", "name": "Pharmacie Ibn Sina صيدلية بن سينا", "operator": "Ph PIS", "drive_thro": "0", "name_ar": "0", "addr_city_": "0", "name_fr": "0", "opening_ho": "0", "addr_cit_1": "0", "name_es": "0", "building_l": "0", "adresse": "Avenue Mohamed V شارع محمد الخامس", "addr:city": "Témara", "addr:housenumber": "1", "addr:postcode": "12000", "name:ar": "صيدلية بن سينا", "name:fr": "Pharmacie Ibn Sina", "addr:city:es": "Temara", "name:es": "Farmacia Avicena" }, "geometry": { "type": "Point", "coordinates": [ -6.9242799, 33.9132048 ] } },
{ "type": "Feature", "properties": { "addr_stree": "0", "amenity": "pharmacy", "addr_city": "0", "addr_house": "0", "addr_postc": "0", "dispensing": "yes", "healthcare": "pharmacy", "name": "Pharmacie Roudani صيدلية الروداني", "operator": "Ph PRD", "drive_thro": "0", "name_ar": "0", "addr_city_": "0", "name_fr": "0", "opening_ho": "0", "addr_cit_1": "0", "name_es": "0", "building_l": "0", "addr:city": "Témara تمارة", "addr:postcode": "12000" }, "geometry": { "type": "Point", "coordinates": [ -6.9159627, 33.917612 ] } },
{ "type": "Feature", "properties": { "addr_stree": "0", "amenity": "pharmacy", "addr_city": "0", "addr_house": "0", "addr_postc": "0", "dispensing": "yes", "healthcare": "pharmacy", "name": "Pharmacie Kenza صيدلية كنزة", "operator": "Ph PKZ", "drive_thro": "0", "name_ar": "0", "addr_city_": "0", "name_fr": "0", "opening_ho": "0", "addr_cit_1": "0", "name_es": "0", "building_l": "0", "adresse": "Avenue Mohamed V شارع محمد الخامس", "addr:city": "Témara", "addr:housenumber": "2", "addr:postcode": "12000" }, "geometry": { "type": "Point", "coordinates": [ -6.9164897, 33.9204252 ] } },
{ "type": "Feature", "properties": { "addr_stree": "0", "amenity": "pharmacy", "addr_city": "0", "addr_house": "0", "addr_postc": "0", "dispensing": "yes", "healthcare": "pharmacy", "name": "Pharmacie Andaloussi صيدلية أندلسي", "operator": "Ph PAD", "drive_thro": "0", "name_ar": "0", "addr_city_": "0", "name_fr": "0", "opening_ho": "0", "addr_cit_1": "0", "name_es": "0", "building_l": "0", "adresse": "Avenue Mohamed V شارع محمد الخامس", "addr:city": "Témara تمارة", "addr:housenumber": "62", "addr:postcode": "12000" }, "geometry": { "type": "Point", "coordinates": [ -6.9199853, 33.9169582 ] } },
{ "type": "Feature", "properties": { "addr_stree": "0", "amenity": "pharmacy", "addr_city": "0", "addr_house": "0", "addr_postc": "0", "dispensing": "yes", "healthcare": "pharmacy", "name": "Pharmacie Echoumoue صيدلية الشموع", "operator": "Ph PCM", "drive_thro": "0", "name_ar": "0", "addr_city_": "0", "name_fr": "0", "opening_ho": "0", "addr_cit_1": "0", "name_es": "0", "building_l": "0", "addr:city": "Témara تمارة", "addr:postcode": "12000" }, "geometry": { "type": "Point", "coordinates": [ -6.9173491, 33.9141061 ] } },
{ "type": "Feature", "properties": { "addr_stree": "0", "amenity": "pharmacy", "addr_city": "0", "addr_house": "0", "addr_postc": "0", "dispensing": "yes", "healthcare": "pharmacy", "name": "Pharmacie Oum Kaltoum صيدلية أم كلثوم", "operator": "Ph POK", "drive_thro": "0", "name_ar": "0", "addr_city_": "0", "name_fr": "0", "opening_ho": "0", "addr_cit_1": "0", "name_es": "0", "building_l": "0", "adresse": "Avenue du Caire", "addr:city": "Témara ⵜⵎⴰⵔⴰ تمارة", "addr:housenumber": "122", "addr:postcode": "12000" }, "geometry": { "type": "Point", "coordinates": [ -6.9209603, 33.9140077 ] } },
{ "type": "Feature", "properties": { "addr_stree": "0", "amenity": "pharmacy", "addr_city": "0", "addr_house": "0", "addr_postc": "0", "dispensing": "yes", "healthcare": "pharmacy", "name": "Pharmacie Ilias صيدلية إلياس", "operator": "Ph PLS", "drive_thro": "0", "name_ar": "0", "addr_city_": "0", "name_fr": "0", "opening_ho": "0", "addr_cit_1": "0", "name_es": "0", "building_l": "0", "adresse": "Rue de Rabat", "addr:city": "Témara تمارة", "addr:postcode": "12000" }, "geometry": { "type": "Point", "coordinates": [ -6.9190345, 33.9154505 ] } },
{ "type": "Feature", "properties": { "addr_stree": "0", "amenity": "pharmacy", "addr_city": "0", "addr_house": "0", "addr_postc": "0", "dispensing": "yes", "healthcare": "pharmacy", "name": "Pharmacie la Liberté صيدلية الحرية", "operator": "Ph PLB", "drive_thro": "0", "name_ar": "0", "addr_city_": "0", "name_fr": "0", "opening_ho": "0", "addr_cit_1": "0", "name_es": "0", "building_l": "0", "adresse": "Avenue Hassan II شارع الحسن الثاني", "addr:city": "Témara", "addr:housenumber": "2", "addr:postcode": "12000" }, "geometry": { "type": "Point", "coordinates": [ -6.9194801, 33.9226632 ] } },
{ "type": "Feature", "properties": { "addr_stree": "0", "amenity": "pharmacy", "addr_city": "0", "addr_house": "0", "addr_postc": "0", "dispensing": "yes", "healthcare": "pharmacy", "name": "Pharmacie Carré Santé Beauté صيدلية الجمال و الصحة", "operator": "Ph PSB", "drive_thro": "0", "name_ar": "0", "addr_city_": "0", "name_fr": "0", "opening_ho": "0", "addr_cit_1": "0", "name_es": "0", "building_l": "0", "adresse": "Avenue Mehdi Ben Barka", "addr:city": "Rabat", "addr:postcode": "10000" }, "geometry": { "type": "Point", "coordinates": [ -6.8558563, 33.9604086 ] } },
{ "type": "Feature", "properties": { "addr_stree": "0", "amenity": "pharmacy", "addr_city": "0", "addr_house": "0", "addr_postc": "0", "dispensing": "yes", "healthcare": "pharmacy", "name": "Pharmacie Ibn Toumerte صيدلية ابن تومرت", "operator": "Ph PIT", "drive_thro": "0", "name_ar": "0", "addr_city_": "0", "name_fr": "0", "opening_ho": "0", "addr_cit_1": "0", "name_es": "0", "building_l": "0", "adresse": "Avenue Ibn Toumert شارع ابن تومرت", "addr:city": "Rabat", "addr:housenumber": "40", "addr:postcode": "10000" }, "geometry": { "type": "Point", "coordinates": [ -6.8390898, 34.0161376 ] } },
{ "type": "Feature", "properties": { "addr_stree": "0", "amenity": "pharmacy", "addr_city": "0", "addr_house": "0", "addr_postc": "0", "dispensing": "yes", "healthcare": "pharmacy", "name": "Pharmacie Ryad Andalous صيدلية رياض الأندلس", "operator": "Ph PRA", "drive_thro": "0", "name_ar": "0", "addr_city_": "0", "name_fr": "0", "opening_ho": "0", "addr_cit_1": "0", "name_es": "0", "building_l": "0", "adresse": "Rue Morino", "addr:city": "Rabat", "addr:postcode": "10000" }, "geometry": { "type": "Point", "coordinates": [ -6.8831228, 33.9570777 ] } },
{ "type": "Feature", "properties": { "addr_stree": "0", "amenity": "pharmacy", "addr_city": "0", "addr_house": "0", "addr_postc": "0", "dispensing": "yes", "healthcare": "pharmacy", "name": "Pharmacie Al Baraka صيدلية البركة", "operator": "Ph PBK", "drive_thro": "0", "name_ar": "0", "addr_city_": "0", "name_fr": "0", "opening_ho": "0", "addr_cit_1": "0", "name_es": "0", "building_l": "0", "adresse": "Zankat Oulad Hariz", "addr:city": "Rabat", "addr:postcode": "10000" }, "geometry": { "type": "Point", "coordinates": [ -6.8239329, 33.9888007 ] } },
{ "type": "Feature", "properties": { "addr_stree": "0", "amenity": "pharmacy", "addr_city": "0", "addr_house": "0", "addr_postc": "0", "dispensing": "yes", "healthcare": "pharmacy", "name": "Pharmacie Hay El Fath صيدلية حي الفتح", "operator": "Ph PHF", "drive_thro": "0", "name_ar": "0", "addr_city_": "0", "name_fr": "0", "opening_ho": "0", "addr_cit_1": "0", "name_es": "0", "building_l": "0", "adresse": "شارع المسيرة", "addr:city": "Rabat", "addr:postcode": "10000" }, "geometry": { "type": "Point", "coordinates": [ -6.9037249, 33.9648165 ] } },
{ "type": "Feature", "properties": { "addr_stree": "0", "amenity": "pharmacy", "addr_city": "0", "addr_house": "0", "addr_postc": "0", "dispensing": "yes", "healthcare": "pharmacy", "name": "Pharmacie El Ighata صيدلية الإغاثة", "operator": "Ph PGT", "drive_thro": "0", "name_ar": "0", "addr_city_": "0", "name_fr": "0", "opening_ho": "0", "addr_cit_1": "0", "name_es": "0", "building_l": "0", "addr:city": "Rabat", "addr:postcode": "10000" }, "geometry": { "type": "Point", "coordinates": [ -6.905958, 33.9669117 ] } },
{ "type": "Feature", "properties": { "addr_stree": "0", "amenity": "pharmacy", "addr_city": "0", "addr_house": "0", "addr_postc": "0", "dispensing": "yes", "healthcare": "pharmacy", "name": "Pharmacie Al Mountazah صيدلية المنتزه", "operator": "Ph PMZ", "drive_thro": "0", "name_ar": "0", "addr_city_": "0", "name_fr": "0", "opening_ho": "0", "addr_cit_1": "0", "name_es": "0", "building_l": "0", "addr:city": "Rabat", "addr:postcode": "10000" }, "geometry": { "type": "Point", "coordinates": [ -6.8978006, 33.9686741 ] } },
{ "type": "Feature", "properties": { "addr_stree": "0", "amenity": "pharmacy", "addr_city": "0", "addr_house": "0", "addr_postc": "0", "dispensing": "yes", "healthcare": "pharmacy", "name": "Pharmacie Al Mountalak صيدلية المنطلق", "operator": "Ph PMT", "drive_thro": "0", "name_ar": "0", "addr_city_": "0", "name_fr": "0", "opening_ho": "0", "addr_cit_1": "0", "name_es": "0", "building_l": "0", "addr:city": "Rabat ⵔⴱⴰⵟ الرباط", "addr:postcode": "10000" }, "geometry": { "type": "Point", "coordinates": [ -6.9008125, 33.9696951 ] } },
{ "type": "Feature", "properties": { "addr_stree": "0", "amenity": "pharmacy", "addr_city": "0", "addr_house": "0", "addr_postc": "0", "dispensing": "yes", "healthcare": "pharmacy", "name": "Pharmacie Marjolaine صيدلية مارجولين", "operator": "Ph PMJ", "drive_thro": "0", "name_ar": "0", "addr_city_": "0", "name_fr": "0", "opening_ho": "0", "addr_cit_1": "0", "name_es": "0", "building_l": "0", "addr:city": "Rabat", "addr:postcode": "10000" }, "geometry": { "type": "Point", "coordinates": [ -6.9043704, 33.969775 ] } },
{ "type": "Feature", "properties": { "addr_stree": "0", "amenity": "pharmacy", "addr_city": "0", "addr_house": "0", "addr_postc": "0", "dispensing": "yes", "healthcare": "pharmacy", "name": "Pharmacie Yacoub El Mansour صيدلية يعقوب المنصور", "operator": "Ph PYM", "drive_thro": "0", "name_ar": "0", "addr_city_": "0", "name_fr": "0", "opening_ho": "0", "addr_cit_1": "0", "name_es": "0", "building_l": "0", "addr:city": "Rabat", "addr:postcode": "10000" }, "geometry": { "type": "Point", "coordinates": [ -6.8836256, 33.9725882 ] } },
{ "type": "Feature", "properties": { "addr_stree": "0", "amenity": "pharmacy", "addr_city": "0", "addr_house": "0", "addr_postc": "0", "dispensing": "yes", "healthcare": "pharmacy", "name": "Pharmacie l'Avenir صيدلية المستقبل", "operator": "Ph PAV", "drive_thro": "0", "name_ar": "0", "addr_city_": "0", "name_fr": "0", "opening_ho": "0", "addr_cit_1": "0", "name_es": "0", "building_l": "0", "adresse": "Avenue El Majd شارع المجد", "addr:city": "Rabat", "addr:housenumber": "23", "addr:postcode": "10000" }, "geometry": { "type": "Point", "coordinates": [ -6.8859781, 33.9712315 ] } },
{ "type": "Feature", "properties": { "addr_stree": "0", "amenity": "pharmacy", "addr_city": "0", "addr_house": "0", "addr_postc": "0", "dispensing": "yes", "healthcare": "pharmacy", "name": "Pharmacie Al Bahja صيدلية البهجة", "operator": "Ph PBJ", "drive_thro": "0", "name_ar": "0", "addr_city_": "0", "name_fr": "0", "opening_ho": "0", "addr_cit_1": "0", "name_es": "0", "building_l": "0", "adresse": "Avenue El Majd شارع المجد", "addr:city": "Rabat", "addr:postcode": "10000" }, "geometry": { "type": "Point", "coordinates": [ -6.8884884, 33.9685567 ] } },
{ "type": "Feature", "properties": { "addr_stree": "0", "amenity": "pharmacy", "addr_city": "0", "addr_house": "0", "addr_postc": "0", "dispensing": "yes", "healthcare": "pharmacy", "name": "Pharmacie Kasry صيدلية قصري", "operator": "Ph PKS", "drive_thro": "0", "name_ar": "0", "addr_city_": "0", "name_fr": "0", "opening_ho": "0", "addr_cit_1": "0", "name_es": "0", "building_l": "0", "addr:city": "Rabat", "addr:postcode": "10000" }, "geometry": { "type": "Point", "coordinates": [ -6.893351, 33.9687435 ] } },
{ "type": "Feature", "properties": { "addr_stree": "0", "amenity": "pharmacy", "addr_city": "0", "addr_house": "0", "addr_postc": "0", "dispensing": "yes", "healthcare": "pharmacy", "name": "Pharmacie Al Hikma صيدلية الحكمة", "operator": "Ph PKM", "drive_thro": "0", "name_ar": "0", "addr_city_": "0", "name_fr": "0", "opening_ho": "0", "addr_cit_1": "0", "name_es": "0", "building_l": "0", "addr:city": "Rabat", "addr:postcode": "10000" }, "geometry": { "type": "Point", "coordinates": [ -6.8909279, 33.9707695 ] } },
{ "type": "Feature", "properties": { "addr_stree": "0", "amenity": "pharmacy", "addr_city": "0", "addr_house": "0", "addr_postc": "0", "dispensing": "yes", "healthcare": "pharmacy", "name": "Pharmacie Al Massira صيدلية المسيرة", "operator": "Ph PMS", "drive_thro": "0", "name_ar": "0", "addr_city_": "0", "name_fr": "0", "opening_ho": "0", "addr_cit_1": "0", "name_es": "0", "building_l": "0", "adresse": "شارع المسيرة", "addr:city": "Rabat", "addr:postcode": "10000" }, "geometry": { "type": "Point", "coordinates": [ -6.8912277, 33.9733091 ] } },
{ "type": "Feature", "properties": { "addr_stree": "0", "amenity": "pharmacy", "addr_city": "0", "addr_house": "0", "addr_postc": "0", "dispensing": "yes", "healthcare": "pharmacy", "name": "Pharmacie Attine صيدلية التين", "operator": "Ph PTN", "drive_thro": "0", "name_ar": "0", "addr_city_": "0", "name_fr": "0", "opening_ho": "0", "addr_cit_1": "0", "name_es": "0", "building_l": "0", "adresse": "Avenue des Far شارع الجيش الملكي", "addr:city": "Rabat", "addr:housenumber": "830", "addr:postcode": "10153" }, "geometry": { "type": "Point", "coordinates": [ -6.8893143, 33.9772954 ] } },
{ "type": "Feature", "properties": { "addr_stree": "0", "amenity": "pharmacy", "addr_city": "0", "addr_house": "0", "addr_postc": "0", "dispensing": "yes", "healthcare": "pharmacy", "name": "Pharmacie Al Khawarizmi صيدلية الخوارزمي", "operator": "Ph PKZ", "drive_thro": "0", "name_ar": "0", "addr_city_": "0", "name_fr": "0", "opening_ho": "0", "addr_cit_1": "0", "name_es": "0", "building_l": "0", "adresse": "شارع المنزه", "addr:city": "Rabat", "addr:postcode": "10000" }, "geometry": { "type": "Point", "coordinates": [ -6.8945642, 33.9731035 ] } },
{ "type": "Feature", "properties": { "addr_stree": "0", "amenity": "pharmacy", "addr_city": "0", "addr_house": "0", "addr_postc": "0", "dispensing": "yes", "healthcare": "pharmacy", "name": "Pharmacie Lotus صيدلية لوتس", "operator": "Ph PLT", "drive_thro": "0", "name_ar": "0", "addr_city_": "0", "name_fr": "0", "opening_ho": "0", "addr_cit_1": "0", "name_es": "0", "building_l": "0", "adresse": "Avenue des Far شارع الجيش الملكي", "addr:city": "Rabat ⵕⵕⴱⴰⵟ الرباط", "addr:postcode": "10000" }, "geometry": { "type": "Point", "coordinates": [ -6.8954273, 33.9794101 ] } },
{ "type": "Feature", "properties": { "addr_stree": "0", "amenity": "pharmacy", "addr_city": "0", "addr_house": "0", "addr_postc": "0", "dispensing": "yes", "healthcare": "pharmacy", "name": "Pharmacie Al Azhar صيدلية الأزهر", "operator": "Ph PAZ", "drive_thro": "0", "name_ar": "0", "addr_city_": "0", "name_fr": "0", "opening_ho": "0", "addr_cit_1": "0", "name_es": "0", "building_l": "0", "adresse": "شارع المحيط الهادي", "addr:city": "Rabat", "addr:postcode": "10000" }, "geometry": { "type": "Point", "coordinates": [ -6.897132, 33.973203 ] } },
{ "type": "Feature", "properties": { "addr_stree": "0", "amenity": "pharmacy", "addr_city": "0", "addr_house": "0", "addr_postc": "0", "dispensing": "yes", "healthcare": "pharmacy", "name": "Pharmacie El Mouna صيدلية المنى", "operator": "Ph PMN", "drive_thro": "0", "name_ar": "0", "addr_city_": "0", "name_fr": "0", "opening_ho": "0", "addr_cit_1": "0", "name_es": "0", "building_l": "0", "addr:city": "Rabat", "addr:postcode": "10000" }, "geometry": { "type": "Point", "coordinates": [ -6.8875054, 33.9869334 ] } },
{ "type": "Feature", "properties": { "addr_stree": "0", "amenity": "pharmacy", "addr_city": "0", "addr_house": "0", "addr_postc": "0", "dispensing": "yes", "healthcare": "pharmacy", "name": "Pharmacie Al Hamd صيدلية الحمد", "operator": "Ph", "drive_thro": "0", "name_ar": "0", "addr_city_": "0", "name_fr": "0", "opening_ho": "0", "addr_cit_1": "0", "name_es": "0", "building_l": "0", "adresse": "شارع المسيرة", "addr:city": "Rabat", "addr:postcode": "10000" }, "geometry": { "type": "Point", "coordinates": [ -6.874472, 33.9896223 ] } },
{ "type": "Feature", "properties": { "addr_stree": "0", "amenity": "pharmacy", "addr_city": "0", "addr_house": "0", "addr_postc": "0", "dispensing": "yes", "healthcare": "pharmacy", "name": "Pharmacie Al Amal صيدلية الأمل", "operator": "Ph PAM", "drive_thro": "0", "name_ar": "0", "addr_city_": "0", "name_fr": "0", "opening_ho": "0", "addr_cit_1": "0", "name_es": "0", "building_l": "0", "adresse": "شارع المسيرة", "addr:city": "Rabat", "addr:postcode": "10000" }, "geometry": { "type": "Point", "coordinates": [ -6.8756888, 33.9871927 ] } },
{ "type": "Feature", "properties": { "addr_stree": "0", "amenity": "pharmacy", "addr_city": "0", "addr_house": "0", "addr_postc": "0", "dispensing": "yes", "healthcare": "pharmacy", "name": "Pharmacie Al Kifah صيدلية الكفاح", "operator": "Ph PKF", "drive_thro": "0", "name_ar": "0", "addr_city_": "0", "name_fr": "0", "opening_ho": "0", "addr_cit_1": "0", "name_es": "0", "building_l": "0", "adresse": "Avenue Al Kifah شارع الكفاح", "addr:city": "Rabat", "addr:postcode": "10000" }, "geometry": { "type": "Point", "coordinates": [ -6.8716954, 33.9906675 ] } },
{ "type": "Feature", "properties": { "addr_stree": "0", "amenity": "pharmacy", "addr_city": "0", "addr_house": "0", "addr_postc": "0", "dispensing": "yes", "healthcare": "pharmacy", "name": "Pharmacie Chbanat صيدلية الشبانات", "operator": "Ph PBN", "drive_thro": "0", "name_ar": "0", "addr_city_": "0", "name_fr": "0", "opening_ho": "0", "addr_cit_1": "0", "name_es": "0", "building_l": "0", "adresse": "Rue Abou Zaraa Addinachqi", "addr:city": "Rabat", "addr:postcode": "10000" }, "geometry": { "type": "Point", "coordinates": [ -6.8913054, 33.982118 ] } },
{ "type": "Feature", "properties": { "addr_stree": "0", "amenity": "pharmacy", "addr_city": "0", "addr_house": "0", "addr_postc": "0", "dispensing": "yes", "healthcare": "pharmacy", "name": "Pharmacie Abi Hourayra صيدلية أبي هريرة", "operator": "Ph PAH", "drive_thro": "0", "name_ar": "0", "addr_city_": "0", "name_fr": "0", "opening_ho": "0", "addr_cit_1": "0", "name_es": "0", "building_l": "0", "addr:city": "Rabat", "addr:postcode": "10000" }, "geometry": { "type": "Point", "coordinates": [ -6.8824171, 33.9882321 ] } },
{ "type": "Feature", "properties": { "addr_stree": "0", "amenity": "pharmacy", "addr_city": "0", "addr_house": "0", "addr_postc": "0", "dispensing": "yes", "healthcare": "pharmacy", "name": "Pharmacie Bouitat صيدلية البويتات", "operator": "Ph PBT", "drive_thro": "0", "name_ar": "0", "addr_city_": "0", "name_fr": "0", "opening_ho": "0", "addr_cit_1": "0", "name_es": "0", "building_l": "0", "addr:city": "Rabat", "addr:postcode": "10000" }, "geometry": { "type": "Point", "coordinates": [ -6.8795935, 33.9865506 ] } },
{ "type": "Feature", "properties": { "addr_stree": "0", "amenity": "pharmacy", "addr_city": "0", "addr_house": "0", "addr_postc": "0", "dispensing": "yes", "healthcare": "pharmacy", "name": "Pharmacie Ennaim صيدلية النعيم", "operator": "Ph PNM", "drive_thro": "0", "name_ar": "0", "addr_city_": "0", "name_fr": "0", "opening_ho": "0", "addr_cit_1": "0", "name_es": "0", "building_l": "0", "addr:city": "Rabat", "addr:postcode": "10000" }, "geometry": { "type": "Point", "coordinates": [ -6.8781018, 33.988957 ] } },
{ "type": "Feature", "properties": { "addr_stree": "0", "amenity": "pharmacy", "addr_city": "0", "addr_house": "0", "addr_postc": "0", "dispensing": "yes", "healthcare": "pharmacy", "name": "Pharmacie Ar-Rahman صيدلية الرحمان", "operator": "Ph PRM", "drive_thro": "0", "name_ar": "0", "addr_city_": "0", "name_fr": "0", "opening_ho": "0", "addr_cit_1": "0", "name_es": "0", "building_l": "0", "adresse": "Avenue Al Mostakbal شارع المستقبل", "addr:city": "Rabat", "addr:postcode": "10000" }, "geometry": { "type": "Point", "coordinates": [ -6.8822802, 33.9861083 ] } },
{ "type": "Feature", "properties": { "addr_stree": "0", "amenity": "pharmacy", "addr_city": "0", "addr_house": "0", "addr_postc": "0", "dispensing": "yes", "healthcare": "pharmacy", "name": "Pharmacie El Kouass صيدلية القواس", "operator": "Ph PKS", "drive_thro": "0", "name_ar": "0", "addr_city_": "0", "name_fr": "0", "opening_ho": "0", "addr_cit_1": "0", "name_es": "0", "building_l": "0", "adresse": "شارع المسيرة", "addr:city": "Rabat", "addr:postcode": "10140" }, "geometry": { "type": "Point", "coordinates": [ -6.8809576, 33.9824049 ] } },
{ "type": "Feature", "properties": { "addr_stree": "0", "amenity": "pharmacy", "addr_city": "0", "addr_house": "0", "addr_postc": "0", "dispensing": "yes", "healthcare": "pharmacy", "name": "Pharmacie El Mansour صيدلية المنصور", "operator": "Ph PMS", "drive_thro": "0", "name_ar": "0", "addr_city_": "0", "name_fr": "0", "opening_ho": "0", "addr_cit_1": "0", "name_es": "0", "building_l": "0", "adresse": "Avenue Al Izdihar شارع الإزدهار", "addr:city": "Rabat", "addr:postcode": "10000" }, "geometry": { "type": "Point", "coordinates": [ -6.8845478, 33.9812502 ] } },
{ "type": "Feature", "properties": { "addr_stree": "0", "amenity": "pharmacy", "addr_city": "0", "addr_house": "0", "addr_postc": "0", "dispensing": "yes", "healthcare": "pharmacy", "name": "Pharmacie Ibn Baytar صيدلية بن البيطار", "operator": "Ph PBB", "drive_thro": "0", "name_ar": "0", "addr_city_": "0", "name_fr": "0", "opening_ho": "0", "addr_cit_1": "0", "name_es": "0", "building_l": "0", "adresse": "شارع المسيرة", "addr:city": "Rabat", "addr:postcode": "10130" }, "geometry": { "type": "Point", "coordinates": [ -6.8792088, 33.9836714 ] } },
{ "type": "Feature", "properties": { "addr_stree": "0", "amenity": "pharmacy", "addr_city": "0", "addr_house": "0", "addr_postc": "0", "dispensing": "yes", "healthcare": "pharmacy", "name": "Pharmacie Tarik صيدلية طارق", "operator": "Ph PTK", "drive_thro": "0", "name_ar": "0", "addr_city_": "0", "name_fr": "0", "opening_ho": "0", "addr_cit_1": "0", "name_es": "0", "building_l": "0", "adresse": "شارع المسيرة", "addr:city": "Rabat", "addr:postcode": "10153" }, "geometry": { "type": "Point", "coordinates": [ -6.8854167, 33.9781948 ] } },
{ "type": "Feature", "properties": { "addr_stree": "0", "amenity": "pharmacy", "addr_city": "0", "addr_house": "0", "addr_postc": "0", "dispensing": "yes", "healthcare": "pharmacy", "name": "Pharmacie Al Majd صيدلية المجد", "operator": "Ph PMJ", "drive_thro": "0", "name_ar": "0", "addr_city_": "0", "name_fr": "0", "opening_ho": "0", "addr_cit_1": "0", "name_es": "0", "building_l": "0", "addr:city": "Rabat", "addr:postcode": "10130" }, "geometry": { "type": "Point", "coordinates": [ -6.876612, 33.9834241 ] } },
{ "type": "Feature", "properties": { "addr_stree": "0", "amenity": "pharmacy", "addr_city": "0", "addr_house": "0", "addr_postc": "0", "dispensing": "yes", "healthcare": "pharmacy", "name": "Pharmacie Bekkari صيدلية البكاري", "operator": "Ph PBK", "drive_thro": "0", "name_ar": "0", "addr_city_": "0", "name_fr": "0", "opening_ho": "0", "addr_cit_1": "0", "name_es": "0", "building_l": "0", "addr:city": "Rabat", "addr:postcode": "10150" }, "geometry": { "type": "Point", "coordinates": [ -6.8825148, 33.9783383 ] } },
{ "type": "Feature", "properties": { "addr_stree": "0", "amenity": "pharmacy", "addr_city": "0", "addr_house": "0", "addr_postc": "0", "dispensing": "yes", "healthcare": "pharmacy", "name": "Pharmacie Assabah صيدلية الصباح", "operator": "Ph PSB", "drive_thro": "0", "name_ar": "0", "addr_city_": "0", "name_fr": "0", "opening_ho": "0", "addr_cit_1": "0", "name_es": "0", "building_l": "0", "addr:city": "Rabat", "addr:postcode": "10120" }, "geometry": { "type": "Point", "coordinates": [ -6.8817746, 33.9925619 ] } },
{ "type": "Feature", "properties": { "addr_stree": "0", "amenity": "pharmacy", "addr_city": "0", "addr_house": "0", "addr_postc": "0", "dispensing": "yes", "healthcare": "pharmacy", "name": "Pharmacie Hay Al Kora صيدلية حي الكورة", "operator": "Ph PHK", "drive_thro": "0", "name_ar": "0", "addr_city_": "0", "name_fr": "0", "opening_ho": "0", "addr_cit_1": "0", "name_es": "0", "building_l": "0", "addr:city": "Rabat", "addr:postcode": "10000" }, "geometry": { "type": "Point", "coordinates": [ -6.8775353, 33.9962254 ] } },
{ "type": "Feature", "properties": { "addr_stree": "0", "amenity": "pharmacy", "addr_city": "0", "addr_house": "0", "addr_postc": "0", "dispensing": "yes", "healthcare": "pharmacy", "name": "Pharmacie Ibn Rochd صيدلية ابن رشد", "operator": "Ph PBR", "drive_thro": "0", "name_ar": "0", "addr_city_": "0", "name_fr": "0", "opening_ho": "0", "addr_cit_1": "0", "name_es": "0", "building_l": "0", "adresse": "Avenue Assalam شارع السلام", "addr:city": "Rabat", "addr:housenumber": "2", "addr:postcode": "10000" }, "geometry": { "type": "Point", "coordinates": [ -6.865602, 34.0040184 ] } },
{ "type": "Feature", "properties": { "addr_stree": "0", "amenity": "pharmacy", "addr_city": "0", "addr_house": "0", "addr_postc": "0", "dispensing": "yes", "healthcare": "pharmacy", "name": "Pharmacie Nadia صيدلية نادية", "operator": "Ph PND", "drive_thro": "0", "name_ar": "0", "addr_city_": "0", "name_fr": "0", "opening_ho": "0", "addr_cit_1": "0", "name_es": "0", "building_l": "0", "addr:city": "Rabat", "addr:postcode": "10000" }, "geometry": { "type": "Point", "coordinates": [ -6.8710003, 34.0013575 ] } },
{ "type": "Feature", "properties": { "addr_stree": "0", "amenity": "pharmacy", "addr_city": "0", "addr_house": "0", "addr_postc": "0", "dispensing": "yes", "healthcare": "pharmacy", "name": "Pharmacie Al Masjid صيدلية المسجد", "operator": "Ph PMJ", "drive_thro": "0", "name_ar": "0", "addr_city_": "0", "name_fr": "0", "opening_ho": "0", "addr_cit_1": "0", "name_es": "0", "building_l": "0", "adresse": "Avenue Sidi Mohammed Ben Abdellah شارع سيدي محمد بن عبد الله", "addr:city": "Rabat", "addr:housenumber": "9", "addr:postcode": "10000" }, "geometry": { "type": "Point", "coordinates": [ -6.8692028, 34.0025588 ] } },
{ "type": "Feature", "properties": { "addr_stree": "0", "amenity": "pharmacy", "addr_city": "0", "addr_house": "0", "addr_postc": "0", "dispensing": "yes", "healthcare": "pharmacy", "name": "Pharmacie Marché de Gros صيدلية سوق الجملة", "operator": "Ph PMG", "drive_thro": "0", "name_ar": "0", "addr_city_": "0", "name_fr": "0", "opening_ho": "0", "addr_cit_1": "0", "name_es": "0", "building_l": "0", "addr:city": "Rabat", "addr:postcode": "10000" }, "geometry": { "type": "Point", "coordinates": [ -6.8688539, 34.0042521 ] } },
{ "type": "Feature", "properties": { "addr_stree": "0", "amenity": "pharmacy", "addr_city": "0", "addr_house": "0", "addr_postc": "0", "dispensing": "yes", "healthcare": "pharmacy", "name": "Pharmacie El Atlas صيدلية الأطلس", "operator": "Ph PAT", "drive_thro": "0", "name_ar": "0", "addr_city_": "0", "name_fr": "0", "opening_ho": "0", "addr_cit_1": "0", "name_es": "0", "building_l": "0", "adresse": "Avenue Sidi Mohammed Ben Abdellah شارع سيدي محمد بن عبد الله", "addr:city": "Rabat", "addr:housenumber": "204", "addr:postcode": "10000" }, "geometry": { "type": "Point", "coordinates": [ -6.8729038, 33.9988325 ] } },
{ "type": "Feature", "properties": { "addr_stree": "0", "amenity": "pharmacy", "addr_city": "0", "addr_house": "0", "addr_postc": "0", "dispensing": "yes", "healthcare": "pharmacy", "name": "Pharmacie Al Khair صيدلية الخير", "operator": "Ph PKH", "drive_thro": "0", "name_ar": "0", "addr_city_": "0", "name_fr": "0", "opening_ho": "0", "addr_cit_1": "0", "name_es": "0", "building_l": "0", "adresse": "Avenue Sidi Mohammed Ben Abdellah شارع سيدي محمد بن عبد الله", "addr:city": "Rabat", "addr:housenumber": "49", "addr:postcode": "10000" }, "geometry": { "type": "Point", "coordinates": [ -6.8751656, 33.9961903 ] } },
{ "type": "Feature", "properties": { "addr_stree": "0", "amenity": "pharmacy", "addr_city": "0", "addr_house": "0", "addr_postc": "0", "dispensing": "yes", "healthcare": "pharmacy", "name": "Pharmacie Hay Bouhlal صيدلية حي بوهلال", "operator": "Ph PHB", "drive_thro": "0", "name_ar": "0", "addr_city_": "0", "name_fr": "0", "opening_ho": "0", "addr_cit_1": "0", "name_es": "0", "building_l": "0", "adresse": "Avenue Sidi Mohammed Ben Abdellah شارع سيدي محمد بن عبد الله", "addr:city": "Rabat", "addr:housenumber": "43", "addr:postcode": "10120" }, "geometry": { "type": "Point", "coordinates": [ -6.8773241, 33.9938882 ] } },
{ "type": "Feature", "properties": { "addr_stree": "0", "amenity": "pharmacy", "addr_city": "0", "addr_house": "0", "addr_postc": "0", "dispensing": "yes", "healthcare": "pharmacy", "name": "Pharmacie Nahim صيدلية نهيم", "operator": "Ph PNM", "drive_thro": "0", "name_ar": "0", "addr_city_": "0", "name_fr": "0", "opening_ho": "0", "addr_cit_1": "0", "name_es": "0", "building_l": "0", "addr:city": "Rabat", "addr:postcode": "10120" }, "geometry": { "type": "Point", "coordinates": [ -6.8697116, 33.9945332 ] } },
{ "type": "Feature", "properties": { "addr_stree": "0", "amenity": "pharmacy", "addr_city": "0", "addr_house": "0", "addr_postc": "0", "name": "Pharmacie Bin El Ouidane", "drive_thro": "0", "name_ar": "0", "addr_city_": "0", "name_fr": "0", "opening_ho": "0", "addr_cit_1": "0", "name_es": "0", "building_l": "0" }, "geometry": { "type": "Point", "coordinates": [ -6.8508352, 34.0066391 ] } },
{ "type": "Feature", "properties": { "addr_stree": "0", "amenity": "pharmacy", "addr_city": "0", "addr_house": "0", "addr_postc": "0", "dispensing": "yes", "healthcare": "pharmacy", "name": "Pharmacie de Rabat", "drive_thro": "0", "name_ar": "0", "addr_city_": "0", "name_fr": "0", "phone": "05377-07468", "opening_ho": "0", "addr_cit_1": "0", "name_es": "0", "building_l": "0" }, "geometry": { "type": "Point", "coordinates": [ -6.8457835, 34.0184271 ] } }
]
}
